,_id,FIRST,LAST,ADDRESS,CITY,STATE,ZIP,LASTSENDDATE,LASTREPLY,RESPONSECATEGORY
45493,62fa919b39fe7a3ec974b8ec,Shane,Cahill,6806 Fourth St,Paterson, NJ,7501.0,2019-04-01 18:56:28+00:00,2020-09-01 00:54:57,DONOTCONTACT
15220,62fa919b39fe7a3ec97442ab,Yvette,Hutchinson,5534 Martin Luther King Rd,Jamaica, NY,11432.0,2020-06-09 15:06:35+00:00,2020-09-01 01:25:44,DONOTCONTACT
21188,62fa919b39fe7a3ec97459fb,Mayra,Compton,176 N Burbank Blvd,Kalamazoo, MI,49009.0,2020-04-14 16:05:04+00:00,2020-09-01 01:32:53,UNSURE
38072,62fa919b39fe7a3ec9749bef,Yvette,Benton,2800 S Cedar St,West Palm Beach, FL,33404.0,2019-02-20 14:56:46+00:00,2020-09-01 02:21:51,UNSURE
68214,62fa919b39fe7a3ec97511ad,Juan,Church,8271 E Olsonvill Rd,Kalamazoo, MI,49009.0,2020-03-20 06:06:54+00:00,2020-09-01 04:01:45,UNSURE
33726,62fa919b39fe7a3ec9748af5,Todd,Moody,5562 Second Ave,Schenectady, NY,12302.0,2019-02-01 16:37:09+00:00,2020-09-01 04:52:34,NEGATIVE
48255,62fa919b39fe7a3ec974c3b6,Mayra,Suarez,3602 Armstrong St,Pearl, MS,39208.0,2020-02-05 04:58:16+00:00,2020-09-01 05:03:30,NEGATIVE
96294,62fa919b39fe7a3ec9757f5d,Chris,Phillips,8622 Glendale St,Kalamazoo, MI,49009.0,2020-07-06 09:57:11+00:00,2020-09-01 05:11:49,UNSURE
42183,62fa919b39fe7a3ec974abfe,Irene,Bowers,2987 S 2nd St,Gastonia, NC,28052.0,2019-10-06 13:27:23+00:00,2020-09-01 05:50:23,UNSURE
39585,62fa919b39fe7a3ec974a1d8,Hope,Church,9313 S Samuel Blvd,Rocky Mount, NC,27804.0,2020-03-18 20:01:25+00:00,2020-09-01 06:36:21,UNSURE
5440,62fa919b39fe7a3ec9741c77,Ernest,Craig,631 Eighth Rd,North Attleboro, MA,2760.0,2020-06-13 22:58:36+00:00,2020-09-01 07:36:23,UNSURE
47526,62fa919b39fe7a3ec974c0dd,Juan,Rowe,9224 N 6th St,Hartford, CT,6106.0,2019-06-23 23:46:45+00:00,2020-09-01 07:53:16,NEGATIVE
71331,62fa919b39fe7a3ec9751dda,Michele,Robbins,7001 1st Rd,Patchogue, NY,11772.0,2019-05-28 08:42:36+00:00,2020-09-01 08:51:25,UNSURE
18170,62fa919b39fe7a3ec9744e31,Cecilia,Sheppard,1796 Main Cv,Marion, NC,28752.0,2019-08-11 01:00:55+00:00,2020-09-01 11:07:21,DONOTCONTACT
59569,62fa919b39fe7a3ec974efe8,Cecelia,Grant,7909 1st Cv,Paterson, NJ,7501.0,2020-01-21 00:57:50+00:00,2020-09-01 11:15:59,UNSURE
71749,62fa919b39fe7a3ec9751f7c,Robyn,Harvey,9937 Glendale Blvd,Patchogue, NY,11772.0,2020-04-17 20:36:56+00:00,2020-09-01 12:28:40,NEGATIVE
60823,62fa919b39fe7a3ec974f4ce,Adriana,Watson,1994 Sharp Ln,Paterson, NJ,7501.0,2019-08-21 08:11:46+00:00,2020-09-01 12:31:42,UNSURE
4755,62fa919b39fe7a3ec97419ca,Mayra,Ayers,3052 S Armstrong Blvd,Anaheim, CA,92806.0,2019-07-12 08:20:43+00:00,2020-09-01 12:43:54,DONOTCONTACT
71735,62fa919b39fe7a3ec9751f6e,Susana,Strickland,6874 Daniel Cv,Media, PA,19063.0,2019-10-14 02:40:51+00:00,2020-09-01 12:50:15,DONOTCONTACT
34708,62fa919b39fe7a3ec9748ecb,Chris,Proctor,591 E 12th Dr,Camp Hill, PA,17011.0,2019-01-08 14:35:55+00:00,2020-09-01 13:05:55,UNSURE
17043,62fa919b39fe7a3ec97449ca,Robyn,Watson,7302 S 5th Blvd,Richardson, TX,75080.0,2020-07-30 02:22:49+00:00,2020-09-01 14:42:15,UNSURE
87001,62fa919b39fe7a3ec9755b10,Ernest,Burke,1597 N Oak Dr,West Palm Beach, FL,33404.0,2020-08-02 10:31:40+00:00,2020-09-01 16:26:51,UNSURE
69783,62fa919b39fe7a3ec97517ce,Kristina,Powers,7681 E Daniel Rd,Elizabeth City, NC,27909.0,2020-02-17 11:28:42+00:00,2020-09-01 16:36:29,NEGATIVE
60463,62fa919b39fe7a3ec974f366,Lois,Bassett,526 W Cedar Blvd,Jamaica, NY,11432.0,2020-06-02 12:03:07+00:00,2020-09-01 16:47:57,NEGATIVE
43169,62fa919b39fe7a3ec974afd8,Cecelia,Craig,1833 Glendale Dr,Paterson, NJ,7501.0,2019-08-10 16:21:02+00:00,2020-09-01 17:44:04,UNSURE
44403,62fa919b39fe7a3ec974b4aa,Ingrid,Bassett,4943 S Shelby Cv,Quakertown, PA,18951.0,2020-05-06 05:32:38+00:00,2020-09-01 18:00:08,UNSURE
49193,62fa919b39fe7a3ec974c760,Cristina,,3974 W Mount Pleasant Ln,Clearwater, FL,33756.0,2020-02-24 19:43:45+00:00,2020-09-01 18:13:48,UNSURE
54711,62fa919b39fe7a3ec974dcee,Dora,Conley,230 Fourth Ln,Seattle, WA,98144.0,2019-05-28 12:03:53+00:00,2020-09-01 18:18:50,NEGATIVE
81791,62fa919b39fe7a3ec97546b6,Cecilia,Conley,643 W Riverside Ln,Westmont, IL,60559.0,2020-01-25 21:45:26+00:00,2020-09-01 18:31:46,DONOTCONTACT
36591,62fa919b39fe7a3ec9749626,Shane,Cahill,7922 Peter Rd,Westmont, IL,60559.0,2020-05-15 05:39:20+00:00,2020-09-01 18:32:03,UNSURE
67349,62fa919b39fe7a3ec9750e4c,Rolando,Terry,2255 S Faith Rd,Millington, TN,38053.0,2019-01-19 06:29:46+00:00,2020-09-01 18:55:32,DONOTCONTACT
76325,62fa919b39fe7a3ec975315c,Hope,Grant,8738 Armstrong St,Clearwater, FL,33756.0,2019-09-03 16:49:46+00:00,2020-09-01 19:26:29,DONOTCONTACT
7027,62fa919b39fe7a3ec97422aa,Candy,Strickland,5290 2nd Cv,Douglasville, GA,30134.0,2019-10-10 13:31:46+00:00,2020-09-01 19:41:00,DONOTCONTACT
70519,62fa919b39fe7a3ec9751aae,Scott,Grant,7174 Sleepy Blvd,Lewis Center, OH,43035.0,2020-07-25 20:18:00+00:00,2020-09-01 19:50:26,UNSURE
94032,62fa919b39fe7a3ec9757687,Rene,Snell,9154 S  Ave,Westport, CT,6880.0,2019-12-20 10:36:54+00:00,2020-09-01 20:05:36,UNSURE
38515,62fa919b39fe7a3ec9749daa,Marion,Moody,9082 S Pratt Cv,Phillipsburg, NJ,8865.0,2020-06-08 12:50:49+00:00,2020-09-01 20:36:01,DONOTCONTACT
13710,62fa919b39fe7a3ec9743cc5,Robyn,Compton,8628 N Eighth Cv,Hixson, TN,37343.0,2020-04-04 20:00:06+00:00,2020-09-01 20:59:57,UNSURE
42349,62fa919b39fe7a3ec974aca4,Jordan,Benton,3072 Main St,Madison, AL,35758.0,2020-01-01 05:55:04+00:00,2020-09-01 21:38:44,UNSURE
29611,62fa919b39fe7a3ec9747ae2,Irene,Stewart,1133 W Sharp Blvd,Mechanicsville, VA,23111.0,2019-11-21 18:17:45+00:00,2020-09-01 22:08:32,UNSURE
80262,62fa919b39fe7a3ec97540bd,Juan,Harvey,8212 E Shelby Ln,Madisonville, KY,42431.0,2020-02-05 11:04:14+00:00,2020-09-01 22:33:19,DONOTCONTACT
223,62fa919b39fe7a3ec9740816,Shane,Rowe,4990 N Oak Blvd,Ottawa, IL,61350.0,2020-07-21 13:52:23+00:00,2020-09-01 23:29:00,UNSURE
30343,62fa919b39fe7a3ec9747dbe,Terry,Bowers,1609 S Third St,Paterson, NJ,7501.0,2020-08-29 17:22:21+00:00,2020-09-02 00:49:25,DONOTCONTACT
1659,62fa919b39fe7a3ec9740db2,Yvette,Strickland,4336 8th Dr,Arvada, CO,80003.0,2019-07-21 23:31:31+00:00,2020-09-02 01:26:54,DONOTCONTACT
96677,62fa919b39fe7a3ec97580dc,Cristina,Compton,3764 W 47th Ave,Westport, CT,6880.0,2020-05-23 09:12:35+00:00,2020-09-02 01:35:20,DONOTCONTACT
66128,62fa919b39fe7a3ec9750987,Deborah,Robbins,3605 Samuel Ln,Richardson, TX,75080.0,2019-11-09 01:47:32+00:00,2020-09-02 02:36:58,UNSURE
41485,62fa919b39fe7a3ec974a944,Jordan,Hinton,6429 Fourth Ave,Seattle, WA,98144.0,2019-05-24 03:05:40+00:00,2020-09-02 03:32:34,DONOTCONTACT
17744,62fa919b39fe7a3ec9744c87,Lois,Ball,2486 Purchase Ln,Anaheim, CA,92806.0,2019-03-25 06:43:51+00:00,2020-09-02 04:09:45,UNSURE
62893,62fa919b39fe7a3ec974fce4,Cecelia,Snell,2626 Purchase Dr,Stillwater, MN,55082.0,2019-10-29 10:45:21+00:00,2020-09-02 05:01:01,DONOTCONTACT
69309,62fa919b39fe7a3ec97515f4,Jessica,French,3286 8th Cv,West Palm Beach, FL,33404.0,2019-07-24 13:51:26+00:00,2020-09-02 05:47:34,UNSURE
8360,62fa919b39fe7a3ec97427df,Juan,Phillips,648 E Oak Ave,New Albany, IN,47150.0,2019-02-17 01:23:49+00:00,2020-09-02 05:55:40,NEGATIVE
92748,62fa919b39fe7a3ec9757183,Ernest,Lake,5750 Fourth Dr,Camas, WA,98607.0,2019-02-23 06:38:21+00:00,2020-09-02 06:26:20,UNSURE
54575,62fa919b39fe7a3ec974dc66,Yvette,Snell,2183 Oak St,Mahwah, NJ,7430.0,2019-01-20 18:39:09+00:00,2020-09-02 06:35:08,UNSURE
33760,62fa919b39fe7a3ec9748b17,Herman,Wade,6043 W Ethel Blvd,Madisonville, KY,42431.0,2019-11-23 14:41:10+00:00,2020-09-02 06:51:05,DONOTCONTACT
32817,62fa919b39fe7a3ec9748768,Dianna,Hutchinson,6653 S Daniel St,North Attleboro, MA,2760.0,2019-08-09 23:41:07+00:00,2020-09-02 08:18:08,UNSURE
2524,62fa919b39fe7a3ec9741113,Dora,Jacobs,822 47th Blvd,Elizabeth City, NC,27909.0,2020-08-22 05:23:21+00:00,2020-09-02 08:19:48,DONOTCONTACT
71503,62fa919b39fe7a3ec9751e86,,Craig,6556 Samuel Dr,Jamaica, NY,11432.0,2019-05-30 09:14:44+00:00,2020-09-02 08:27:50,UNSURE
11143,62fa919b39fe7a3ec97432be,Shane,Hinton,8882 Daniel Blvd,Madison, AL,35758.0,2019-05-01 05:41:33+00:00,2020-09-02 09:45:14,UNSURE
34330,62fa919b39fe7a3ec9748d51,Mayra,Strickland,3750 N Riverside Blvd,Gastonia, NC,28052.0,2019-04-08 09:14:41+00:00,2020-09-02 10:00:27,DONOTCONTACT
20425,62fa919b39fe7a3ec9745700,Caroline,Morton,6537 1st Ave,Westmont, IL,60559.0,2019-05-10 23:36:25+00:00,2020-09-02 11:03:59,DONOTCONTACT
63926,62fa919b39fe7a3ec97500ed,Todd,Guthrie,7183 E Lois Dr,Douglasville, GA,30134.0,2020-07-09 01:33:56+00:00,2020-09-02 11:27:32,NEGATIVE
841,62fa919b39fe7a3ec9740a80,Susana,Proctor,3216 Purchase Blvd,Douglasville, GA,30134.0,2020-05-11 21:26:36+00:00,2020-09-02 11:34:40,UNSURE
81912,62fa919b39fe7a3ec975472f,Sara,Phillips,513 W Second Rd,Quakertown, PA,18951.0,2019-12-03 05:57:47+00:00,2020-09-02 15:15:54,NEGATIVE
75773,62fa919b39fe7a3ec9752f34,Dianna,Ayers,2886 S Glenn Dr,North Attleboro, MA,2760.0,2019-07-28 22:22:39+00:00,2020-09-02 15:49:15,NEGATIVE
58428,62fa919b39fe7a3ec974eb73,Maria,Dwyer,4305 Glen Cv,North Attleboro, MA,2760.0,2019-11-11 08:20:15+00:00,2020-09-02 16:25:28,DONOTCONTACT
88269,62fa919b39fe7a3ec9756004,Raymond,Harvey,5974 2nd Ln,Mchenry, IL,60050.0,2020-08-21 07:55:42+00:00,2020-09-02 16:30:25,DONOTCONTACT
18586,62fa919b39fe7a3ec9744fd1,Hope,Wade,190 N Burbank St,Madisonville, KY,42431.0,2020-02-19 01:33:58+00:00,2020-09-02 16:50:21,NEGATIVE
9841,62fa919b39fe7a3ec9742da8,Verna,Hutchinson,7201 Sunny Blvd,Pearl, MS,39208.0,2019-01-18 09:14:41+00:00,2020-09-02 17:42:21,NEGATIVE
5698,62fa919b39fe7a3ec9741d79,Shane,Moody,8148 Daniel Cv,Camas, WA,98607.0,2019-02-19 10:01:29+00:00,2020-09-02 18:06:47,NEGATIVE
82723,62fa919b39fe7a3ec9754a5a,Cecilia,Schneider,3964 Daniel Rd,North Attleboro, MA,2760.0,2019-06-22 20:05:13+00:00,2020-09-02 18:32:33,DONOTCONTACT
84231,62fa919b39fe7a3ec975503e,Krystal,,7381 Glenn Cv,Melbourne, FL,32904.0,2020-05-15 19:59:24+00:00,2020-09-02 19:29:36,NEGATIVE
68049,62fa919b39fe7a3ec9751108,Clarence,Stewart,9022 N Pine Blvd,Ottawa, IL,61350.0,2019-03-14 09:47:03+00:00,2020-09-02 21:09:38,DONOTCONTACT
45979,62fa919b39fe7a3ec974bad2,Samuel,Strickland,706 Third Ave,Stillwater, MN,55082.0,2019-03-04 22:28:04+00:00,2020-09-02 21:34:00,DONOTCONTACT
98093,62fa919b39fe7a3ec9758664,Rene,Ayers,6907 Fourth Cv,Kalamazoo, MI,49009.0,2019-06-19 19:52:46+00:00,2020-09-02 21:39:33,UNSURE
62884,62fa919b39fe7a3ec974fcdb,Rich,Craig,9268 Purchase Ave,Patchogue, NY,11772.0,2020-05-21 15:13:49+00:00,2020-09-02 22:05:03,UNSURE
17371,62fa919b39fe7a3ec9744b12,Hope,Pollard,9740 Poplar Dr,Paterson, NJ,7501.0,2020-08-15 10:53:20+00:00,2020-09-02 23:16:18,NEGATIVE
48374,62fa919b39fe7a3ec974c42d,Caroline,Sheppard,503 W Glen Blvd,Enfield, CT,6082.0,2019-05-27 14:15:30+00:00,2020-09-02 23:24:40,UNSURE
48830,62fa919b39fe7a3ec974c5f5,Dianna,,7282 5th Blvd,Hartford, CT,6106.0,2019-04-29 16:34:34+00:00,2020-09-02 23:30:39,UNSURE
72005,62fa919b39fe7a3ec975207c,Juan,Suarez,6192 Oak Ln,Mchenry, IL,60050.0,2019-11-16 19:59:40+00:00,2020-09-02 23:51:09,DONOTCONTACT
43037,62fa919b39fe7a3ec974af54,Cecilia,Schneider,1992 Glenn Cv,Patchogue, NY,11772.0,2019-10-16 11:45:39+00:00,2020-09-03 00:20:08,UNSURE
9209,62fa919b39fe7a3ec9742b30,Christi,Church,5820 Cherry Cv,Miami Gardens, FL,33056.0,2020-06-03 20:01:30+00:00,2020-09-03 00:38:35,NEGATIVE
7717,62fa919b39fe7a3ec974255c,Samuel,Case,1872 12th Ln,Delaware, OH,43015.0,2020-08-01 21:59:25+00:00,2020-09-03 00:44:17,UNSURE
1389,62fa919b39fe7a3ec9740ca4,Rene,Cahill,7238 S Glenn Blvd,Schenectady, NY,12302.0,2020-03-01 13:06:29+00:00,2020-09-03 01:07:24,NEGATIVE
73830,62fa919b39fe7a3ec975279d,,Strickland,2836 Martin Luther King Blvd,North Attleboro, MA,2760.0,2019-03-22 17:09:24+00:00,2020-09-03 01:27:06,DONOTCONTACT
14714,62fa919b39fe7a3ec97440b1,Yvette,Grant,6468 N Daniel Ave,New Albany, IN,47150.0,2019-10-25 16:06:01+00:00,2020-09-03 02:20:35,DONOTCONTACT
80839,62fa919b39fe7a3ec97542fe,Darla,Case,8503 N  Ave,West Palm Beach, FL,33404.0,2019-04-20 04:33:30+00:00,2020-09-03 02:45:10,NEGATIVE
54712,62fa919b39fe7a3ec974dcef,Scott,Suarez,2283 E Faith Cv,Oshkosh, WI,54901.0,2019-11-22 06:59:22+00:00,2020-09-03 02:52:52,UNSURE
42630,62fa919b39fe7a3ec974adbd,Robyn,Bowers,1237 Purchase Blvd,Elizabeth City, NC,27909.0,2020-06-04 22:51:45+00:00,2020-09-03 03:17:15,DONOTCONTACT
36342,62fa919b39fe7a3ec974952d,Jan,French,7871 Ethel Dr,Pearl, MS,39208.0,2019-09-13 17:16:56+00:00,2020-09-03 03:29:49,UNSURE
13774,62fa919b39fe7a3ec9743d05,Jan,Morton,4596 8th Ave,Kalamazoo, MI,49009.0,2019-04-14 15:50:58+00:00,2020-09-03 03:34:07,UNSURE
14302,62fa919b39fe7a3ec9743f15,Chris,Moody,9211 E Ethel Ave,Seattle, WA,98144.0,2020-07-09 21:43:00+00:00,2020-09-03 04:40:22,DONOTCONTACT
54744,62fa919b39fe7a3ec974dd0f,Cecilia,Rowe,9920 2nd Rd,Enfield, CT,6082.0,2020-01-16 16:32:43+00:00,2020-09-03 04:42:13,UNSURE
81896,62fa919b39fe7a3ec975471f,Shane,Bowers,8260 Martin Luther King Ave,Gastonia, NC,28052.0,2020-03-18 21:40:16+00:00,2020-09-03 05:09:10,NEGATIVE
21378,62fa919b39fe7a3ec9745ab9,Rene,Grant,3014  St,Moorhead, MN,56560.0,2019-04-18 11:25:26+00:00,2020-09-03 05:18:25,NEGATIVE
94601,62fa919b39fe7a3ec97578c0,Verna,Roberts,8967 S Second Rd,Elizabeth City, NC,27909.0,2020-04-04 12:10:35+00:00,2020-09-03 06:03:05,DONOTCONTACT
16647,62fa919b39fe7a3ec974483e,Rene,Rowe,5312 W 2nd Rd,Paterson, NJ,7501.0,2020-08-14 20:30:55+00:00,2020-09-03 06:24:55,DONOTCONTACT
40347,62fa919b39fe7a3ec974a4d2,Leanne,Case,1464 Poplar Ave,Clearwater, FL,33756.0,2019-10-03 09:16:23+00:00,2020-09-03 07:00:12,UNSURE
62345,62fa919b39fe7a3ec974fac0,Scott,Morton,414 6th Ln,Jamaica, NY,11432.0,2019-10-03 03:45:29+00:00,2020-09-03 07:16:25,UNSURE
86933,62fa919b39fe7a3ec9755acc,Calvin,Powers,5601 Ethel Blvd,Pearl, MS,39208.0,2019-05-01 14:41:28+00:00,2020-09-03 07:45:07,UNSURE
60357,62fa919b39fe7a3ec974f2fc,Cristina,Lake,6979 Glendale Blvd,Anaheim, CA,92806.0,2019-10-27 15:38:00+00:00,2020-09-03 08:30:32,NEGATIVE
11061,62fa919b39fe7a3ec974326c,Calvin,Lake,7626 4th Rd,Conyers, GA,30012.0,2020-02-21 02:47:18+00:00,2020-09-03 10:11:54,DONOTCONTACT
99211,62fa919b39fe7a3ec9758ac2,Jamie,Roberts,7492 S 4th Cv,Patchogue, NY,11772.0,2019-12-15 03:34:58+00:00,2020-09-03 11:17:48,NEGATIVE
30434,62fa919b39fe7a3ec9747e19,Krystal,Dwyer,8976 Sharp Ln,Gastonia, NC,28052.0,2020-03-14 03:31:00+00:00,2020-09-03 12:35:53,UNSURE
16865,62fa919b39fe7a3ec9744918,Rolando,Hinton,6046 N Samuel Ln,Garfield, NJ,7026.0,2020-04-01 18:13:28+00:00,2020-09-03 12:43:06,UNSURE
69127,62fa919b39fe7a3ec975153e,Dianna,Guthrie,9573 5th Cv,Westmont, IL,60559.0,2019-08-23 23:23:05+00:00,2020-09-03 12:54:55,DONOTCONTACT
57438,62fa919b39fe7a3ec974e795,Deborah,Phillips,957 Ethel Dr,Seattle, WA,98144.0,2020-05-28 15:56:00+00:00,2020-09-03 12:55:15,DONOTCONTACT
94610,62fa919b39fe7a3ec97578c9,Juan,Proctor,1139 Peter Rd,Moorhead, MN,56560.0,2019-01-12 03:12:09+00:00,2020-09-03 13:01:29,DONOTCONTACT
37924,62fa919b39fe7a3ec9749b5b,Ingrid,Conley,2452 Third Dr,Seymour, IN,47274.0,2019-06-10 13:42:38+00:00,2020-09-03 13:21:21,UNSURE
33490,62fa919b39fe7a3ec9748a09,Rene,Benton,7488 W Peter Ln,Madisonville, KY,42431.0,2019-02-16 00:55:08+00:00,2020-09-03 14:16:30,UNSURE
57012,62fa919b39fe7a3ec974e5eb,Scott,Ball,168 Samuel Rd,Ottawa, IL,61350.0,2019-05-03 04:59:02+00:00,2020-09-03 14:17:21,DONOTCONTACT
1819,62fa919b39fe7a3ec9740e52,Calvin,Conley,8589 W Riverside Rd,Marion, NC,28752.0,2020-01-02 18:53:48+00:00,2020-09-03 15:02:11,NEGATIVE
38338,62fa919b39fe7a3ec9749cf9,Cristina,French,8276 Fourth Dr,Garfield, NJ,7026.0,2020-02-24 11:04:49+00:00,2020-09-03 15:55:53,UNSURE
59764,62fa919b39fe7a3ec974f0ab,Jan,Kramer,658 4th Ln,Gastonia, NC,28052.0,2019-08-11 11:52:04+00:00,2020-09-03 16:00:17,DONOTCONTACT
88024,62fa919b39fe7a3ec9755f0f,Herman,French,4128 Oak Cv,Marion, NC,28752.0,2019-11-18 07:51:52+00:00,2020-09-03 16:25:02,NEGATIVE
69081,62fa919b39fe7a3ec9751510,Rene,Craig,7175 Pratt Dr,Hixson, TN,37343.0,2019-02-08 12:04:41+00:00,2020-09-03 16:39:14,UNSURE
80189,62fa919b39fe7a3ec9754074,Dena,Church,76 4th Ln,Ottawa, IL,61350.0,2020-06-15 15:00:43+00:00,2020-09-03 17:26:10,DONOTCONTACT
52370,62fa919b39fe7a3ec974d3c9,Dianna,Church,6727 Eighth Ave,Gastonia, NC,28052.0,2019-07-04 02:26:10+00:00,2020-09-03 18:10:11,UNSURE
82249,62fa919b39fe7a3ec9754880,Mayra,Ball,2295 W Olsonvill St,Conyers, GA,30012.0,2020-02-28 00:41:59+00:00,2020-09-03 18:46:52,DONOTCONTACT
31488,62fa919b39fe7a3ec9748237,Dianna,Farrell,1994 Peter Rd,Pearl, MS,39208.0,2020-04-16 06:29:41+00:00,2020-09-03 20:13:37,NEGATIVE
24218,62fa919b39fe7a3ec97465d1,Jamie,Phillips,9384 Glen Cv,Madison, AL,35758.0,2019-05-25 06:42:18+00:00,2020-09-03 20:23:27,NEGATIVE
31647,62fa919b39fe7a3ec97482d6,Kristina,Guthrie,6645 S 2nd Cv,Gastonia, NC,28052.0,2020-04-17 12:31:48+00:00,2020-09-03 20:31:06,NEGATIVE
31563,62fa919b39fe7a3ec9748282,,Dwyer,2260 E Mount Pleasant Cv,Anaheim, CA,92806.0,2020-01-07 15:53:35+00:00,2020-09-03 20:35:50,DONOTCONTACT
99624,62fa919b39fe7a3ec9758c5f,Todd,Ball,1780 Elm Blvd,Lewis Center, OH,43035.0,2019-10-13 02:09:44+00:00,2020-09-03 20:37:19,UNSURE
12579,62fa919b39fe7a3ec974385a,Deborah,Morton,6433 Sharp Cv,Hixson, TN,37343.0,2020-05-16 20:31:10+00:00,2020-09-03 20:44:00,UNSURE
53507,62fa919b39fe7a3ec974d83a,Leanne,Ayers,3144 6th Blvd,Richardson, TX,75080.0,2019-02-19 05:11:17+00:00,2020-09-03 21:03:52,DONOTCONTACT
57919,62fa919b39fe7a3ec974e976,Clarence,Guthrie,1992 S Samuel Rd,Garfield, NJ,7026.0,2020-02-10 14:42:08+00:00,2020-09-03 21:54:59,UNSURE
59333,62fa919b39fe7a3ec974eefc,Juana,Morton,5686 Burbank Blvd,Elizabeth City, NC,27909.0,2020-08-21 19:53:24+00:00,2020-09-03 22:30:32,NEGATIVE
22392,62fa919b39fe7a3ec9745eaf,Jamie,Moody,7935 Pratt Ln,Schenectady, NY,12302.0,2019-12-06 00:42:28+00:00,2020-09-03 22:39:50,NEGATIVE
74094,62fa919b39fe7a3ec97528a5,Darla,Cahill,1566 Seaside Ln,North Attleboro, MA,2760.0,2019-06-10 02:19:03+00:00,2020-09-03 23:17:18,NEGATIVE
35045,62fa919b39fe7a3ec974901c,Shane,Guthrie,4047 1st Dr,Quakertown, PA,18951.0,2020-01-21 17:28:29+00:00,2020-09-03 23:18:05,NEGATIVE
8504,62fa919b39fe7a3ec974286f,Michele,Strickland,8920 Burbank Ave,Delaware, OH,43015.0,2020-07-28 07:41:41+00:00,2020-09-03 23:22:08,DONOTCONTACT
88646,62fa919b39fe7a3ec975617d,Leanne,Andrade,6596 Fourth Cv,Mchenry, IL,60050.0,2020-04-21 21:17:55+00:00,2020-09-03 23:52:19,NEGATIVE
75443,62fa919b39fe7a3ec9752dea,Dena,Cassidy,24 Shelby Ln,Olive Branch, MS,38654.0,2020-04-07 16:22:53+00:00,2020-09-04 00:43:05,NEGATIVE
63869,62fa919b39fe7a3ec97500b4,Krystal,Suarez,1468 8th Ln,Clearwater, FL,33756.0,2019-10-30 18:24:16+00:00,2020-09-04 01:37:38,NEGATIVE
46143,62fa919b39fe7a3ec974bb76,,Dwyer,1214 Olsonvill Ln,Mechanicsville, VA,23111.0,2019-04-05 17:02:47+00:00,2020-09-04 03:32:23,UNSURE
19837,62fa919b39fe7a3ec97454b4,Jessica,Bassett,5940 N 1st Ave,Clearwater, FL,33756.0,2019-04-28 22:15:24+00:00,2020-09-04 04:50:41,NEGATIVE
43389,62fa919b39fe7a3ec974b0b4,Chris,Phillips,1204 1st Cv,Ottawa, IL,61350.0,2019-02-02 02:16:34+00:00,2020-09-04 05:23:02,NEGATIVE
63866,62fa919b39fe7a3ec97500b1,Rene,Compton,1697 Fourth Cv,Olive Branch, MS,38654.0,2020-04-03 00:14:33+00:00,2020-09-04 05:52:23,UNSURE
86029,62fa919b39fe7a3ec9755744,Sara,Alexander,4751 6th Ave,Anaheim, CA,92806.0,2019-01-23 05:46:46+00:00,2020-09-04 06:36:54,NEGATIVE
58446,62fa919b39fe7a3ec974eb85,Jamie,Cahill,375 S 47th St,Mechanicsville, VA,23111.0,2020-08-04 20:45:22+00:00,2020-09-04 07:43:14,NEGATIVE
64608,62fa919b39fe7a3ec9750397,Shane,Moody,1885 Eighth Dr,Westport, CT,6880.0,2019-10-30 04:36:45+00:00,2020-09-04 09:56:04,UNSURE
14982,62fa919b39fe7a3ec97441bd,Yvette,Ball,5139 N Peter Rd,Kalamazoo, MI,49009.0,2020-03-07 18:36:54+00:00,2020-09-04 10:45:38,DONOTCONTACT
14489,62fa919b39fe7a3ec9743fd0,Ingrid,,1805 W Faith Blvd,Kalamazoo, MI,49009.0,2020-03-19 00:40:28+00:00,2020-09-04 11:40:27,NEGATIVE
60000,62fa919b39fe7a3ec974f197,Cecelia,Dwyer,7941 8th Dr,Phillipsburg, NJ,8865.0,2020-06-23 09:08:52+00:00,2020-09-04 12:08:15,DONOTCONTACT
16789,62fa919b39fe7a3ec97448cc,Deborah,Donovan,2106 S 8th Dr,Mechanicsville, VA,23111.0,2019-10-15 08:57:02+00:00,2020-09-04 13:03:42,NEGATIVE
28178,62fa919b39fe7a3ec9747549,,Dwyer,2172 Olsonvill Dr,Douglasville, GA,30134.0,2019-06-13 20:33:03+00:00,2020-09-04 13:09:14,UNSURE
1412,62fa919b39fe7a3ec9740cbb,Young,Moody,7690 E 2nd Blvd,Richardson, TX,75080.0,2020-04-19 08:35:22+00:00,2020-09-04 13:35:12,NEGATIVE
98017,62fa919b39fe7a3ec9758618,Herman,Stewart,2808 Fourth St,Hixson, TN,37343.0,2020-03-14 09:06:24+00:00,2020-09-04 13:49:13,UNSURE
5705,62fa919b39fe7a3ec9741d80,Deborah,Morton,4602 S Poplar Rd,New Philadelphia, OH,44663.0,2019-09-12 08:16:29+00:00,2020-09-04 13:51:01,NEGATIVE
44373,62fa919b39fe7a3ec974b48c,Dora,Grant,7865 Eighth Rd,Lewis Center, OH,43035.0,2019-04-22 14:38:55+00:00,2020-09-04 14:16:04,NEGATIVE
45290,62fa919b39fe7a3ec974b821,Juana,Kramer,7168 Olsonvill Dr,Kalamazoo, MI,49009.0,2020-05-04 22:35:17+00:00,2020-09-04 14:17:10,NEGATIVE
3024,62fa919b39fe7a3ec9741307,,Wade,8775 Peter Cv,Elizabeth City, NC,27909.0,2020-08-28 14:48:45+00:00,2020-09-04 14:32:45,NEGATIVE
39166,62fa919b39fe7a3ec974a035,Susana,Burke,3294 E 1st Cv,Paterson, NJ,7501.0,2019-06-07 23:07:33+00:00,2020-09-04 14:48:22,UNSURE
90001,62fa919b39fe7a3ec97566c8,Leanne,Harvey,4579 Poplar Rd,Madisonville, KY,42431.0,2019-09-26 10:02:43+00:00,2020-09-04 15:18:17,DONOTCONTACT
1882,62fa919b39fe7a3ec9740e91,Christi,Bowers,3985 Armstrong Rd,Arvada, CO,80003.0,2020-08-20 19:11:38+00:00,2020-09-04 16:32:24,NEGATIVE
96030,62fa919b39fe7a3ec9757e55,Lindsey,Grant,7966 Olsonvill Rd,Madisonville, KY,42431.0,2019-07-18 14:17:46+00:00,2020-09-04 17:31:09,UNSURE
16235,62fa919b39fe7a3ec97446a2,Michele,Wolfe,4419 Burbank Rd,Camp Hill, PA,17011.0,2020-06-13 11:25:09+00:00,2020-09-04 17:34:12,UNSURE
28233,62fa919b39fe7a3ec9747580,Clarence,Guthrie,8911 Lois Rd,Anaheim, CA,92806.0,2020-05-04 21:18:09+00:00,2020-09-04 20:23:48,NEGATIVE
95838,62fa919b39fe7a3ec9757d95,Cristina,Craig,2292 2nd Dr,Marion, NC,28752.0,2020-07-10 04:22:27+00:00,2020-09-04 21:36:33,DONOTCONTACT
3242,62fa919b39fe7a3ec97413e1,Young,Stone,7390 Ethel Blvd,Gastonia, NC,28052.0,2020-05-30 18:03:22+00:00,2020-09-04 22:05:15,DONOTCONTACT
74522,62fa919b39fe7a3ec9752a51,Michele,Stone,5393 N Oak St,Media, PA,19063.0,2020-04-25 13:59:15+00:00,2020-09-04 22:37:19,DONOTCONTACT
90214,62fa919b39fe7a3ec975679d,Scott,Burke,4549 W Olsonvill St,Miami Gardens, FL,33056.0,2020-03-26 07:05:05+00:00,2020-09-04 22:55:07,NEGATIVE
10715,62fa919b39fe7a3ec9743112,Rene,Terry,8980 N Eighth Blvd,Paterson, NJ,7501.0,2019-12-23 15:47:42+00:00,2020-09-05 00:29:58,UNSURE
44200,62fa919b39fe7a3ec974b3df,Young,Lake,7771 Third Rd,Elizabeth City, NC,27909.0,2020-05-14 08:35:57+00:00,2020-09-05 00:54:03,NEGATIVE
11196,62fa919b39fe7a3ec97432f3,Michele,Donovan,5355 N Glen Rd,Madisonville, KY,42431.0,2019-11-08 03:26:21+00:00,2020-09-05 01:09:46,NEGATIVE
56614,62fa919b39fe7a3ec974e45d,Lois,,3726 S Sleepy Ave,Phillipsburg, NJ,8865.0,2019-06-20 21:52:28+00:00,2020-09-05 01:32:33,DONOTCONTACT
86223,62fa919b39fe7a3ec9755806,Herman,Hinton,9092 Main Cv,West Palm Beach, FL,33404.0,2019-07-18 20:47:38+00:00,2020-09-05 02:44:37,DONOTCONTACT
72437,62fa919b39fe7a3ec975222c,Cecelia,Terry,8334 W Poplar Blvd,Moorhead, MN,56560.0,2019-01-03 23:12:53+00:00,2020-09-05 04:08:05,UNSURE
65298,62fa919b39fe7a3ec9750649,Leanne,Conley,5735 Glenn St,West Palm Beach, FL,33404.0,2019-10-06 03:52:46+00:00,2020-09-05 04:11:21,NEGATIVE
45036,62fa919b39fe7a3ec974b723,Marion,Harvey,3194 Cherry St,Anaheim, CA,92806.0,2020-01-04 23:24:58+00:00,2020-09-05 04:53:04,UNSURE
89908,62fa919b39fe7a3ec975666b,Jessica,Morton,3523 E Second Ave,Madisonville, KY,42431.0,2019-03-27 22:51:27+00:00,2020-09-05 05:16:27,DONOTCONTACT
55679,62fa919b39fe7a3ec974e0b6,Lois,Phillips,8850 Purchase Ln,Ottawa, IL,61350.0,2020-07-22 23:13:15+00:00,2020-09-05 05:30:18,NEGATIVE
34148,62fa919b39fe7a3ec9748c9b,Jamie,Hinton,1346 E 2nd Rd,Paterson, NJ,7501.0,2019-07-25 22:02:59+00:00,2020-09-05 06:40:05,DONOTCONTACT
10399,62fa919b39fe7a3ec9742fd6,Rene,Lake,6414 Sharp Ln,Stillwater, MN,55082.0,2020-03-22 05:38:10+00:00,2020-09-05 06:43:00,NEGATIVE
23413,62fa919b39fe7a3ec97462ac,Verna,Snell,7357 S Third Ln,Camp Hill, PA,17011.0,2020-06-12 22:56:33+00:00,2020-09-05 07:35:32,DONOTCONTACT
50043,62fa919b39fe7a3ec974cab2,Yvette,Alexander,4475 Crystal Blvd,West Fargo, ND,58078.0,2019-07-02 12:43:11+00:00,2020-09-05 08:33:51,DONOTCONTACT
66836,62fa919b39fe7a3ec9750c4b,Susana,Cahill,3857 Second Rd,Conyers, GA,30012.0,2019-03-19 18:47:24+00:00,2020-09-05 08:54:43,DONOTCONTACT
99769,62fa919b39fe7a3ec9758cf0,Lois,Case,4206 N Peter Dr,Anaheim, CA,92806.0,2019-08-21 23:03:17+00:00,2020-09-05 09:08:01,UNSURE
25544,62fa919b39fe7a3ec9746aff,Jordan,Conley,9590 Oak St,Media, PA,19063.0,2019-03-02 18:41:46+00:00,2020-09-05 09:13:46,NEGATIVE
82006,62fa919b39fe7a3ec975478d,Deborah,Cahill,1503 Peter Ave,Marion, NC,28752.0,2019-08-15 06:50:26+00:00,2020-09-05 10:09:38,NEGATIVE
7647,62fa919b39fe7a3ec9742516,Jordan,Proctor,4810 N 2nd Ave,Kalamazoo, MI,49009.0,2019-02-28 21:24:08+00:00,2020-09-05 10:12:55,UNSURE
77870,62fa919b39fe7a3ec9753765,Candy,Andrade,5781 Crystal Cv,Madisonville, KY,42431.0,2019-05-13 06:40:16+00:00,2020-09-05 10:15:14,NEGATIVE
9380,62fa919b39fe7a3ec9742bdb,Todd,Robbins,235 W Riverside Ave,Schenectady, NY,12302.0,2019-12-24 15:15:04+00:00,2020-09-05 10:57:27,DONOTCONTACT
97942,62fa919b39fe7a3ec97585cd,Verna,Guthrie,1328 N Samuel Cv,Stillwater, MN,55082.0,2019-05-03 09:49:23+00:00,2020-09-05 12:37:38,DONOTCONTACT
28757,62fa919b39fe7a3ec974778c,Terry,Alexander,5730 N Third Ln,Jamaica, NY,11432.0,2020-08-25 10:57:30+00:00,2020-09-05 13:01:57,UNSURE
18653,62fa919b39fe7a3ec9745014,Krystal,Carver,7413 W Glen St,Moorhead, MN,56560.0,2020-05-29 09:18:23+00:00,2020-09-05 13:27:29,DONOTCONTACT
71090,62fa919b39fe7a3ec9751ce9,Todd,Hutchinson,6205 Main Ln,Phillipsburg, NJ,8865.0,2019-11-29 17:39:42+00:00,2020-09-05 13:41:03,NEGATIVE
41089,62fa919b39fe7a3ec974a7b8,Darla,Watson,412 Poplar Dr,New Philadelphia, OH,44663.0,2020-04-27 08:57:38+00:00,2020-09-05 14:00:45,UNSURE
71817,62fa919b39fe7a3ec9751fc0,Dora,Bowers,8154 W Samuel Ave,Moorhead, MN,56560.0,2020-01-29 04:04:20+00:00,2020-09-05 14:06:34,DONOTCONTACT
38231,62fa919b39fe7a3ec9749c8e,Marion,Wade,3747 W 5th St,Lewis Center, OH,43035.0,2019-01-12 20:51:20+00:00,2020-09-05 15:04:53,NEGATIVE
63593,62fa919b39fe7a3ec974ffa0,Herman,Dwyer,4400 N Glen Ln,Delaware, OH,43015.0,2019-07-06 22:00:58+00:00,2020-09-05 15:38:37,DONOTCONTACT
93915,62fa919b39fe7a3ec9757612,Christi,Ball,6019 E Glenn Cv,Rocky Mount, NC,27804.0,2019-12-06 20:53:24+00:00,2020-09-05 15:45:32,NEGATIVE
20941,62fa919b39fe7a3ec9745904,Robyn,Hutchinson,2794 Peter St,Kalamazoo, MI,49009.0,2020-03-31 11:57:58+00:00,2020-09-05 15:58:27,NEGATIVE
57581,62fa919b39fe7a3ec974e824,Ingrid,Jensen,9353 W Purchase Ln,Kalamazoo, MI,49009.0,2019-04-29 07:02:16+00:00,2020-09-05 16:07:38,NEGATIVE
36910,62fa919b39fe7a3ec9749765,Samuel,Guthrie,3412 N Glendale Dr,Seymour, IN,47274.0,2020-05-18 14:58:48+00:00,2020-09-05 17:48:17,NEGATIVE
22038,62fa919b39fe7a3ec9745d4d,Lois,Proctor,3721 3rd Cv,Westport, CT,6880.0,2019-11-17 14:34:35+00:00,2020-09-05 18:17:28,NEGATIVE
64200,62fa919b39fe7a3ec97501ff,Chris,Church,9134 12th Blvd,Ossining, NY,10562.0,2019-04-22 10:09:42+00:00,2020-09-05 18:22:10,UNSURE
24697,62fa919b39fe7a3ec97467b0,Ernest,Guthrie,7595 Sleepy Rd,Camas, WA,98607.0,2020-07-11 11:20:00+00:00,2020-09-05 19:29:20,NEGATIVE
63156,62fa919b39fe7a3ec974fdeb,Deborah,Hutchinson,2412 Sunny St,Jamaica, NY,11432.0,2019-11-29 20:41:43+00:00,2020-09-05 21:10:37,DONOTCONTACT
52045,62fa919b39fe7a3ec974d284,Yvette,Benton,8276 E Maple Ave,Richardson, TX,75080.0,2019-10-07 08:08:25+00:00,2020-09-05 21:43:54,DONOTCONTACT
32287,62fa919b39fe7a3ec9748556,Jordan,Harvey,7538 W Cherry Cv,Clearwater, FL,33756.0,2019-10-16 12:16:43+00:00,2020-09-05 22:29:40,NEGATIVE
98561,62fa919b39fe7a3ec9758838,Candy,Pollard,1647 Poplar Cv,Patchogue, NY,11772.0,2020-05-26 15:52:55+00:00,2020-09-05 23:03:36,UNSURE
16327,62fa919b39fe7a3ec97446fe,Dena,Pollard,191 Cherry Rd,Media, PA,19063.0,2019-11-21 08:02:56+00:00,2020-09-05 23:05:31,UNSURE
31657,62fa919b39fe7a3ec97482e0,Michele,Benton,1125 Poplar Dr,Camas, WA,98607.0,2020-04-22 13:29:12+00:00,2020-09-05 23:43:58,NEGATIVE
50315,62fa919b39fe7a3ec974cbc2,Young,Pollard,1516 E 8th Ave,Millington, TN,38053.0,2020-07-12 00:06:20+00:00,2020-09-05 23:47:54,NEGATIVE
34832,62fa919b39fe7a3ec9748f47,Susana,Compton,2958 S 1st Dr,North Attleboro, MA,2760.0,2019-10-11 01:06:34+00:00,2020-09-06 01:04:35,UNSURE
94944,62fa919b39fe7a3ec9757a17,Yvette,Conley,3880 W Daniel Ave,Miami Gardens, FL,33056.0,2019-12-20 15:34:52+00:00,2020-09-06 01:45:46,NEGATIVE
27837,62fa919b39fe7a3ec97473f4,Scott,Ball,1842 E 12th St,Jamaica, NY,11432.0,2019-05-07 14:51:28+00:00,2020-09-06 02:36:01,NEGATIVE
76575,62fa919b39fe7a3ec9753256,Clarence,Grant,1028 E 3rd Ave,Mchenry, IL,60050.0,2019-07-14 14:28:02+00:00,2020-09-06 03:15:38,NEGATIVE
49895,62fa919b39fe7a3ec974ca1e,Marion,Carver,5207 Sunny Cv,Delaware, OH,43015.0,2020-05-20 11:23:56+00:00,2020-09-06 03:26:40,NEGATIVE
77289,62fa919b39fe7a3ec9753520,Christi,Case,3931 Pine Rd,Seymour, IN,47274.0,2019-02-13 21:03:46+00:00,2020-09-06 03:57:14,NEGATIVE
83753,62fa919b39fe7a3ec9754e60,Christi,Jacobs,1850 W Glendale Dr,Ottawa, IL,61350.0,2020-04-30 01:14:41+00:00,2020-09-06 05:23:33,UNSURE
70023,62fa919b39fe7a3ec97518be,Deborah,Rowe,390 N 12th Dr,West Palm Beach, FL,33404.0,2019-11-15 19:41:39+00:00,2020-09-06 05:35:34,DONOTCONTACT
86159,62fa919b39fe7a3ec97557c6,Rolando,Lake,9665 Fourth Dr,Ossining, NY,10562.0,2020-02-21 20:28:50+00:00,2020-09-06 07:02:58,UNSURE
95606,62fa919b39fe7a3ec9757cad,Sara,Schneider,2028 E Cherry Rd,Miami Gardens, FL,33056.0,2019-12-01 04:53:16+00:00,2020-09-06 07:03:39,DONOTCONTACT
71596,62fa919b39fe7a3ec9751ee3,Leanne,Hinton,175 S Mount Pleasant Rd,Clearwater, FL,33756.0,2019-10-26 14:20:12+00:00,2020-09-06 07:13:30,NEGATIVE
29936,62fa919b39fe7a3ec9747c27,Herman,Jacobs,2928 12th Blvd,Paterson, NJ,7501.0,2019-06-24 05:20:00+00:00,2020-09-06 07:54:05,DONOTCONTACT
55404,62fa919b39fe7a3ec974dfa3,Verna,Kramer,6569 6th Ln,Westport, CT,6880.0,2019-10-30 07:04:45+00:00,2020-09-06 08:58:29,UNSURE
62575,62fa919b39fe7a3ec974fba6,Jan,Ball,7988 S 8th Ave,Clearwater, FL,33756.0,2019-09-24 09:46:19+00:00,2020-09-06 09:20:44,UNSURE
49395,62fa919b39fe7a3ec974c82a,Todd,Schneider,704 2nd St,Enfield, CT,6082.0,2020-09-02 05:45:27+00:00,2020-09-06 09:32:47,NEGATIVE
93368,62fa919b39fe7a3ec97573ef,Gale,Jacobs,7940 E  Blvd,Douglasville, GA,30134.0,2019-12-18 12:06:23+00:00,2020-09-06 10:18:55,NEGATIVE
87848,62fa919b39fe7a3ec9755e5f,Rolando,Rowe,9648 Mount Pleasant Blvd,,,,2020-06-18 08:32:44+00:00,2020-09-06 10:37:46,DONOTCONTACT
53642,62fa919b39fe7a3ec974d8c1,Juana,Terrell,4286 1st St,Enfield, CT,6082.0,2019-12-07 20:56:02+00:00,2020-09-06 10:44:07,NEGATIVE
83621,62fa919b39fe7a3ec9754ddc,Dora,Hutchinson,5797 E Elm Blvd,Ossining, NY,10562.0,2019-10-20 08:45:52+00:00,2020-09-06 12:24:12,NEGATIVE
50818,62fa919b39fe7a3ec974cdb9,Robyn,Benton,6257 N Second Blvd,West Fargo, ND,58078.0,2019-05-03 14:27:35+00:00,2020-09-06 14:21:40,DONOTCONTACT
95472,62fa919b39fe7a3ec9757c27,,Donovan,1808 6th Rd,Melbourne, FL,32904.0,2019-01-19 16:36:41+00:00,2020-09-06 15:28:09,NEGATIVE
53255,62fa919b39fe7a3ec974d73e,Candy,Moody,3787 2nd Blvd,Paterson, NJ,7501.0,2019-07-18 21:39:40+00:00,2020-09-06 16:04:34,NEGATIVE
98968,62fa919b39fe7a3ec97589cf,Chris,Carver,2976 Glenn Ave,Richardson, TX,75080.0,2020-07-30 13:51:01+00:00,2020-09-06 16:12:09,NEGATIVE
3642,62fa919b39fe7a3ec9741571,Christi,Benton,2643 47th Dr,Clearwater, FL,33756.0,2020-05-28 19:09:53+00:00,2020-09-06 16:49:18,NEGATIVE
13123,62fa919b39fe7a3ec9743a7a,Rolando,Church,412 Crystal Ln,Schenectady, NY,12302.0,2019-12-09 21:06:10+00:00,2020-09-06 16:54:02,UNSURE
7843,62fa919b39fe7a3ec97425da,Jan,Kramer,5724 4th St,Media, PA,19063.0,2019-08-02 12:43:13+00:00,2020-09-06 17:06:38,UNSURE
55743,62fa919b39fe7a3ec974e0f6,Jamie,Church,9107 S 3rd Rd,Mchenry, IL,60050.0,2020-04-27 22:57:04+00:00,2020-09-06 17:07:43,NEGATIVE
33074,62fa919b39fe7a3ec9748869,Jamie,Ball,1675 Mount Pleasant Dr,New Albany, IN,47150.0,2019-02-03 00:24:42+00:00,2020-09-06 17:19:38,DONOTCONTACT
80100,62fa919b39fe7a3ec975401b,Young,Craig,6417 W Shelby Ave,Mechanicsville, VA,23111.0,2020-02-20 11:45:42+00:00,2020-09-06 17:32:43,NEGATIVE
37864,62fa919b39fe7a3ec9749b1f,Dora,Strickland,6681 S Pratt St,Patchogue, NY,11772.0,2019-08-14 14:42:09+00:00,2020-09-06 18:28:55,DONOTCONTACT
2358,62fa919b39fe7a3ec974106d,Jessica,Case,2241 S Pratt Blvd,Arvada, CO,80003.0,2020-04-01 19:25:43+00:00,2020-09-06 19:51:03,DONOTCONTACT
69117,62fa919b39fe7a3ec9751534,Dora,Kramer,5743 Martin Luther King Ln,Mechanicsville, VA,23111.0,2019-02-04 14:57:02+00:00,2020-09-06 20:28:54,NEGATIVE
14068,62fa919b39fe7a3ec9743e2b,Lois,Bassett,4317 47th Ave,Miami Gardens, FL,33056.0,2020-06-02 21:02:06+00:00,2020-09-06 20:57:12,NEGATIVE
62094,62fa919b39fe7a3ec974f9c5,Verna,Schneider,1527 W Daniel Dr,Mahwah, NJ,7430.0,2020-06-01 11:48:19+00:00,2020-09-06 21:14:10,UNSURE
5469,62fa919b39fe7a3ec9741c94,Clarence,Wolfe,2058 12th Dr,Rocky Mount, NC,27804.0,2020-02-21 19:34:25+00:00,2020-09-06 21:34:33,DONOTCONTACT
95820,62fa919b39fe7a3ec9757d83,Lois,Proctor,7331 Purchase Cv,Marion, NC,28752.0,2020-03-11 20:03:43+00:00,2020-09-06 21:47:14,NEGATIVE
41917,62fa919b39fe7a3ec974aaf4,Susana,Powers,2049 Sharp Rd,Marion, NC,28752.0,2019-07-13 17:13:54+00:00,2020-09-06 21:52:41,UNSURE
79370,62fa919b39fe7a3ec9753d41,Sara,Cahill,9306 N Pine Dr,New Albany, IN,47150.0,2020-05-15 07:54:58+00:00,2020-09-06 22:04:24,UNSURE
734,62fa919b39fe7a3ec9740a15,Terry,Schneider,2240 Pratt Ave,Quakertown, PA,18951.0,2019-10-26 15:21:21+00:00,2020-09-06 22:21:54,UNSURE
15105,62fa919b39fe7a3ec9744238,Mayra,Bassett,8821 Mount Pleasant Ln,Westmont, IL,60559.0,2019-06-10 13:24:00+00:00,2020-09-06 22:41:42,DONOTCONTACT
64114,62fa919b39fe7a3ec97501a9,Rene,Stone,2224 8th St,Seattle, WA,98144.0,2020-03-13 19:07:47+00:00,2020-09-06 23:10:45,UNSURE
13984,62fa919b39fe7a3ec9743dd7,Yvette,Jacobs,3453 5th Dr,Mechanicsville, VA,23111.0,2020-03-16 06:40:49+00:00,2020-09-07 00:57:14,DONOTCONTACT
73772,62fa919b39fe7a3ec9752763,,Grant,7034 Faith Cv,Media, PA,19063.0,2020-08-29 07:05:54+00:00,2020-09-07 01:44:52,DONOTCONTACT
19808,62fa919b39fe7a3ec9745497,Darla,Grant,3875 N Eighth Blvd,Seymour, IN,47274.0,2020-08-06 12:15:26+00:00,2020-09-07 02:49:23,DONOTCONTACT
91472,62fa919b39fe7a3ec9756c87,Jan,Ayers,3269  Blvd,Hixson, TN,37343.0,2020-07-08 17:07:50+00:00,2020-09-07 03:05:48,UNSURE
15344,62fa919b39fe7a3ec9744327,,Burke,8545 S Elm Rd,West Fargo, ND,58078.0,2019-07-25 08:55:32+00:00,2020-09-07 04:21:52,UNSURE
58389,62fa919b39fe7a3ec974eb4c,Robyn,Benton,6950 Martin Luther King Dr,Pearl, MS,39208.0,2019-09-18 08:42:01+00:00,2020-09-07 04:34:57,UNSURE
40200,62fa919b39fe7a3ec974a43f,Sara,Case,4629 Riverside Ln,Pearl, MS,39208.0,2019-03-08 13:01:15+00:00,2020-09-07 04:46:15,DONOTCONTACT
26988,62fa919b39fe7a3ec97470a3,Raymond,Stewart,6481 N Poplar Blvd,Paterson, NJ,7501.0,2020-01-06 22:31:02+00:00,2020-09-07 05:11:02,UNSURE
51137,62fa919b39fe7a3ec974cef8,Scott,Andrade,4952 S Lois Blvd,Anaheim, CA,92806.0,2020-01-10 01:25:43+00:00,2020-09-07 05:14:47,UNSURE
15557,62fa919b39fe7a3ec97443fc,Christi,Jensen,1626 47th Dr,Patchogue, NY,11772.0,2020-05-09 20:43:38+00:00,2020-09-07 06:05:33,NEGATIVE
34115,62fa919b39fe7a3ec9748c7a,Robyn,Case,6435 Daniel Ave,Pearl, MS,39208.0,2020-01-03 21:15:36+00:00,2020-09-07 06:11:46,DONOTCONTACT
99603,62fa919b39fe7a3ec9758c4a,Marion,Wade,8280 W Shelby Dr,Pearl, MS,39208.0,2020-05-20 17:50:40+00:00,2020-09-07 09:42:36,NEGATIVE
20826,62fa919b39fe7a3ec9745891,Gale,Lake,2294 Burbank Ln,Westmont, IL,60559.0,2019-08-22 10:44:55+00:00,2020-09-07 09:51:37,NEGATIVE
5334,62fa919b39fe7a3ec9741c0d,Rolando,Dwyer,850 W 5th Ave,Schenectady, NY,12302.0,2020-04-22 15:39:23+00:00,2020-09-07 10:31:56,UNSURE
6203,62fa919b39fe7a3ec9741f72,Calvin,Church,1376 E 2nd Blvd,Olive Branch, MS,38654.0,2020-06-07 00:12:30+00:00,2020-09-07 11:07:24,UNSURE
39983,62fa919b39fe7a3ec974a366,Dora,Stewart,9797 47th Ln,Kalamazoo, MI,49009.0,2020-02-25 21:31:33+00:00,2020-09-07 12:28:05,DONOTCONTACT
64488,62fa919b39fe7a3ec975031f,Deborah,Farrell,6458 N Glendale St,Seattle, WA,98144.0,2019-06-20 18:43:28+00:00,2020-09-07 12:40:49,DONOTCONTACT
50912,62fa919b39fe7a3ec974ce17,Todd,Benton,2952 E  Cv,Anaheim, CA,92806.0,2019-12-12 04:53:04+00:00,2020-09-07 14:06:17,DONOTCONTACT
21497,62fa919b39fe7a3ec9745b30,Irene,Ball,12 Glen St,Moorhead, MN,56560.0,2019-04-11 03:54:03+00:00,2020-09-07 14:32:48,DONOTCONTACT
14367,62fa919b39fe7a3ec9743f56,Dena,Phillips,2175 Crystal Cv,Mechanicsville, VA,23111.0,2019-11-10 02:30:21+00:00,2020-09-07 16:19:25,UNSURE
74102,62fa919b39fe7a3ec97528ad,Sara,Benton,9236 W Samuel Ave,Garfield, NJ,7026.0,2020-02-02 02:32:22+00:00,2020-09-07 17:24:08,DONOTCONTACT
41436,62fa919b39fe7a3ec974a913,Candy,Stone,8498 6th Blvd,Anaheim, CA,92806.0,2019-08-19 06:03:14+00:00,2020-09-07 17:57:13,NEGATIVE
34937,62fa919b39fe7a3ec9748fb0,Ingrid,Case,8001 Eighth Ave,Olive Branch, MS,38654.0,2020-03-24 05:13:15+00:00,2020-09-07 18:38:40,DONOTCONTACT
11519,62fa919b39fe7a3ec9743436,Darla,Andrade,9210 S Ethel Ave,Enfield, CT,6082.0,2019-08-13 08:20:01+00:00,2020-09-07 20:28:03,NEGATIVE
8323,62fa919b39fe7a3ec97427ba,Dora,Jensen,515 Pine Blvd,Arvada, CO,80003.0,2020-08-16 01:29:20+00:00,2020-09-07 20:42:56,UNSURE
23860,62fa919b39fe7a3ec974646b,Susana,Grant,9326 S Purchase Dr,Elizabeth City, NC,27909.0,2019-03-15 10:31:03+00:00,2020-09-07 20:56:06,DONOTCONTACT
66455,62fa919b39fe7a3ec9750ace,Hope,Bowers,1335 W Cedar Blvd,Lewis Center, OH,43035.0,2019-03-06 17:37:22+00:00,2020-09-07 21:35:03,UNSURE
77498,62fa919b39fe7a3ec97535f1,Irene,Watson,9375 S Ethel Rd,Gastonia, NC,28052.0,2020-08-20 11:39:14+00:00,2020-09-07 21:36:36,NEGATIVE
52393,62fa919b39fe7a3ec974d3e0,Mayra,Guthrie,6570 Daniel Rd,North Attleboro, MA,2760.0,2020-06-18 21:23:23+00:00,2020-09-07 22:05:30,DONOTCONTACT
71004,62fa919b39fe7a3ec9751c93,Cristina,Ayers,9745 E Crystal Cv,Rocky Mount, NC,27804.0,2019-08-28 23:02:39+00:00,2020-09-07 23:56:54,UNSURE
48010,62fa919b39fe7a3ec974c2c1,Ernest,Guthrie,8757 N 3rd St,Oshkosh, WI,54901.0,2020-05-27 14:03:34+00:00,2020-09-08 00:09:45,UNSURE
65579,62fa919b39fe7a3ec9750762,Ingrid,,3316 4th St,Media, PA,19063.0,2020-05-24 15:55:08+00:00,2020-09-08 00:49:44,NEGATIVE
21749,62fa919b39fe7a3ec9745c2c,Irene,Jacobs,9141 Peter Cv,Westmont, IL,60559.0,2020-08-10 21:30:46+00:00,2020-09-08 01:08:21,NEGATIVE
51821,62fa919b39fe7a3ec974d1a4,Calvin,Bowers,2118 W Oak Rd,Conyers, GA,30012.0,2020-04-28 05:48:09+00:00,2020-09-08 01:22:19,DONOTCONTACT
68150,62fa919b39fe7a3ec975116d,Jessica,Donovan,8643 Martin Luther King St,New Philadelphia, OH,44663.0,2020-01-23 13:58:50+00:00,2020-09-08 02:39:34,DONOTCONTACT
69069,62fa919b39fe7a3ec9751504,Irene,Wolfe,3663 N 4th Ln,Miami Gardens, FL,33056.0,2019-04-16 10:23:08+00:00,2020-09-08 02:56:34,DONOTCONTACT
96920,62fa919b39fe7a3ec97581cf,Marion,Ayers,6173 3rd St,Melbourne, FL,32904.0,2020-03-03 03:49:23+00:00,2020-09-08 03:03:18,NEGATIVE
78584,62fa919b39fe7a3ec9753a2f,Gale,Benton,932 W 3rd Cv,Kalamazoo, MI,49009.0,2019-02-22 02:50:40+00:00,2020-09-08 03:56:44,NEGATIVE
93257,62fa919b39fe7a3ec9757380,Irene,Burke,4897  Ave,North Attleboro, MA,2760.0,2020-03-01 20:10:30+00:00,2020-09-08 04:30:26,DONOTCONTACT
98962,62fa919b39fe7a3ec97589c9,Candy,Farrell,8646 E 8th Cv,Jamaica, NY,11432.0,2020-02-01 06:19:02+00:00,2020-09-08 05:19:10,UNSURE
56559,62fa919b39fe7a3ec974e426,Michele,Ball,2274 N Maple Ave,New Albany, IN,47150.0,2020-05-03 07:52:47+00:00,2020-09-08 06:39:49,NEGATIVE
78781,62fa919b39fe7a3ec9753af4,Hope,Wolfe,8532 Oak Ave,Camas, WA,98607.0,2020-01-26 02:53:20+00:00,2020-09-08 07:30:26,UNSURE
66143,62fa919b39fe7a3ec9750996,Verna,Harvey,2355 N 3rd Blvd,Richardson, TX,75080.0,2019-02-10 05:55:52+00:00,2020-09-08 07:35:20,UNSURE
54315,62fa919b39fe7a3ec974db62,Gale,Phillips,6124 Sunny Ave,Oshkosh, WI,54901.0,2020-09-03 16:37:40+00:00,2020-09-08 07:57:13,NEGATIVE
68374,62fa919b39fe7a3ec975124d,Jamie,Watson,9921 Cedar Rd,Kalamazoo, MI,49009.0,2019-09-23 20:32:12+00:00,2020-09-08 09:01:30,DONOTCONTACT
25530,62fa919b39fe7a3ec9746af1,Juan,Moody,6791 W Elm Dr,Mahwah, NJ,7430.0,2019-09-21 19:58:06+00:00,2020-09-08 09:01:50,NEGATIVE
42370,62fa919b39fe7a3ec974acb9,Herman,,1713  Dr,Garfield, NJ,7026.0,2020-06-18 00:22:39+00:00,2020-09-08 09:12:13,UNSURE
50812,62fa919b39fe7a3ec974cdb3,Susana,Stone,7038 2nd Dr,Oshkosh, WI,54901.0,2019-09-21 13:11:37+00:00,2020-09-08 09:21:31,NEGATIVE
69336,62fa919b39fe7a3ec975160f,Dora,Proctor,381 Oak Ave,Ottawa, IL,61350.0,2019-07-22 10:10:17+00:00,2020-09-08 09:26:43,DONOTCONTACT
85179,62fa919b39fe7a3ec97553f2,Sara,Dwyer,6510 Peter Ave,Stillwater, MN,55082.0,2020-05-27 17:47:49+00:00,2020-09-08 10:46:37,NEGATIVE
79507,62fa919b39fe7a3ec9753dca,Ernest,Cahill,5883 3rd Ln,Conyers, GA,30012.0,2019-12-04 15:57:13+00:00,2020-09-08 11:12:50,UNSURE
47951,62fa919b39fe7a3ec974c286,Todd,Hutchinson,7543 E Pine Cv,Mahwah, NJ,7430.0,2019-10-15 16:31:53+00:00,2020-09-08 11:26:58,DONOTCONTACT
35996,62fa919b39fe7a3ec97493d3,Sara,Jensen,830 Samuel Ln,Paterson, NJ,7501.0,2019-04-15 04:06:54+00:00,2020-09-08 11:39:49,UNSURE
50074,62fa919b39fe7a3ec974cad1,Rolando,Snell,1396 Peter Rd,New Albany, IN,47150.0,2020-02-18 22:23:14+00:00,2020-09-08 11:40:21,DONOTCONTACT
47566,62fa919b39fe7a3ec974c105,Calvin,Guthrie,4497 Ethel Dr,Melbourne, FL,32904.0,2019-12-13 12:30:08+00:00,2020-09-08 12:04:24,NEGATIVE
50552,62fa919b39fe7a3ec974ccaf,Samuel,Kramer,8099 8th Blvd,Oshkosh, WI,54901.0,2019-08-18 11:58:29+00:00,2020-09-08 12:14:00,NEGATIVE
51098,62fa919b39fe7a3ec974ced1,Marion,Kramer,7371 Faith Cv,West Palm Beach, FL,33404.0,2020-01-21 16:53:26+00:00,2020-09-08 13:00:17,NEGATIVE
33816,62fa919b39fe7a3ec9748b4f,Candy,Harvey,7763 N 3rd St,Phillipsburg, NJ,8865.0,2019-12-14 06:42:25+00:00,2020-09-08 14:21:00,NEGATIVE
7355,62fa919b39fe7a3ec97423f2,Caroline,Guthrie,3525 2nd Ave,,,,2020-07-29 14:58:08+00:00,2020-09-08 15:25:51,DONOTCONTACT
51802,62fa919b39fe7a3ec974d191,Sara,Proctor,9577 N Second Cv,Enfield, CT,6082.0,2020-01-25 17:50:41+00:00,2020-09-08 15:36:38,DONOTCONTACT
85286,62fa919b39fe7a3ec975545d,Dianna,Stone,7054 Burbank Ln,Lewis Center, OH,43035.0,2020-07-02 06:58:10+00:00,2020-09-08 15:45:07,DONOTCONTACT
19160,62fa919b39fe7a3ec974520f,Terry,Terry,9105 W Crystal Ave,Conyers, GA,30012.0,2020-08-26 11:29:11+00:00,2020-09-08 16:27:08,DONOTCONTACT
39507,62fa919b39fe7a3ec974a18a,Jamie,Alexander,397 Glendale Ave,Pearl, MS,39208.0,2020-08-31 00:31:53+00:00,2020-09-08 17:01:26,DONOTCONTACT
54430,62fa919b39fe7a3ec974dbd5,Rene,Benton,2844 3rd Dr,Oshkosh, WI,54901.0,2019-07-30 22:19:55+00:00,2020-09-08 17:47:20,UNSURE
53327,62fa919b39fe7a3ec974d786,Christi,French,1881 Ethel Rd,New Albany, IN,47150.0,2019-09-09 06:58:24+00:00,2020-09-08 18:27:25,NEGATIVE
46081,62fa919b39fe7a3ec974bb38,Calvin,Proctor,8677 N Seaside Cv,Miami Gardens, FL,33056.0,2020-07-25 19:57:19+00:00,2020-09-08 19:12:57,UNSURE
68712,62fa919b39fe7a3ec975139f,Krystal,Dwyer,6313 N Glen St,Madisonville, KY,42431.0,2019-05-22 21:11:27+00:00,2020-09-08 19:23:46,DONOTCONTACT
36360,62fa919b39fe7a3ec974953f,Juan,Wade,9599 Ethel St,Stillwater, MN,55082.0,2020-07-05 08:54:38+00:00,2020-09-08 20:30:57,DONOTCONTACT
78993,62fa919b39fe7a3ec9753bc8,Candy,Proctor,3494 W Glen Blvd,Madisonville, KY,42431.0,2020-05-07 06:56:11+00:00,2020-09-08 21:53:48,NEGATIVE
22891,62fa919b39fe7a3ec97460a2,,Ball,8475 S Olsonvill Blvd,Camas, WA,98607.0,2020-08-21 23:47:48+00:00,2020-09-08 22:47:55,NEGATIVE
33558,62fa919b39fe7a3ec9748a4d,Herman,Robbins,9588  Ave,Kalamazoo, MI,49009.0,2020-01-06 17:50:17+00:00,2020-09-08 23:24:32,NEGATIVE
19336,62fa919b39fe7a3ec97452bf,Juan,Case,4980 W Daniel Ln,Phillipsburg, NJ,8865.0,2020-05-29 17:11:55+00:00,2020-09-09 00:06:04,NEGATIVE
99430,62fa919b39fe7a3ec9758b9d,Lindsey,Morton,1725 12th Rd,Conyers, GA,30012.0,2020-02-25 10:39:00+00:00,2020-09-09 02:58:10,DONOTCONTACT
4994,62fa919b39fe7a3ec9741ab9,Chris,Farrell,2360 E Ethel St,Melbourne, FL,32904.0,2020-09-01 16:11:33+00:00,2020-09-09 03:21:58,UNSURE
92966,62fa919b39fe7a3ec975725d,Irene,Andrade,1285 Shelby Cv,West Fargo, ND,58078.0,2020-02-11 02:53:32+00:00,2020-09-09 03:49:08,DONOTCONTACT
40573,62fa919b39fe7a3ec974a5b4,Susana,Cahill,4807  Cv,Camas, WA,98607.0,2019-07-28 04:55:45+00:00,2020-09-09 03:50:54,NEGATIVE
40100,62fa919b39fe7a3ec974a3db,Robyn,Wolfe,517 Seaside St,Camp Hill, PA,17011.0,2020-02-13 19:55:34+00:00,2020-09-09 04:01:55,DONOTCONTACT
50346,62fa919b39fe7a3ec974cbe1,,Craig,2005 8th Ln,Clearwater, FL,33756.0,2019-11-16 14:02:21+00:00,2020-09-09 04:15:12,NEGATIVE
33026,62fa919b39fe7a3ec9748839,Samuel,Harvey,2604 Pratt Rd,New Philadelphia, OH,44663.0,2020-07-20 01:34:09+00:00,2020-09-09 04:16:41,DONOTCONTACT
39158,62fa919b39fe7a3ec974a02d,Rene,Proctor,1100 Faith Cv,Rocky Mount, NC,27804.0,2019-06-28 22:11:06+00:00,2020-09-09 05:35:56,UNSURE
3764,62fa919b39fe7a3ec97415eb,Samuel,Ayers,4529 S Glen Dr,Moorhead, MN,56560.0,2020-04-19 12:36:08+00:00,2020-09-09 05:57:01,UNSURE
52798,62fa919b39fe7a3ec974d575,Clarence,Ball,5189 Sunny Ave,Moorhead, MN,56560.0,2020-04-20 21:18:38+00:00,2020-09-09 06:00:07,NEGATIVE
8347,62fa919b39fe7a3ec97427d2,Todd,Roberts,2639 Eighth Dr,Oshkosh, WI,54901.0,2020-03-21 11:19:56+00:00,2020-09-09 06:26:29,UNSURE
21478,62fa919b39fe7a3ec9745b1d,Susana,Proctor,9590 N Glenn Ave,Clearwater, FL,33756.0,2020-08-19 19:49:26+00:00,2020-09-09 06:34:03,UNSURE
21174,62fa919b39fe7a3ec97459ed,Maria,Terry,3455 N  Rd,Anaheim, CA,92806.0,2020-07-15 15:18:53+00:00,2020-09-09 06:40:22,DONOTCONTACT
31613,62fa919b39fe7a3ec97482b4,Candy,Guthrie,9627 S 1st Cv,Ossining, NY,10562.0,2020-02-28 01:29:20+00:00,2020-09-09 08:52:10,DONOTCONTACT
36315,62fa919b39fe7a3ec9749512,Rich,Harvey,3212 Lois Blvd,Quakertown, PA,18951.0,2019-09-10 22:13:37+00:00,2020-09-09 10:04:49,UNSURE
34518,62fa919b39fe7a3ec9748e0d,Scott,Powers,9355 Olsonvill Ln,Elizabeth City, NC,27909.0,2019-03-24 01:08:20+00:00,2020-09-09 10:19:36,DONOTCONTACT
23708,62fa919b39fe7a3ec97463d3,Kristina,Cassidy,7216 Ethel Dr,Phillipsburg, NJ,8865.0,2019-04-10 01:33:53+00:00,2020-09-09 11:59:14,NEGATIVE
35431,62fa919b39fe7a3ec974919e,Shane,Carver,9239 Sleepy Ln,Rocky Mount, NC,27804.0,2019-06-23 17:36:57+00:00,2020-09-09 13:06:23,NEGATIVE
62020,62fa919b39fe7a3ec974f97b,Verna,Benton,4773 Fourth Rd,Gastonia, NC,28052.0,2020-02-20 13:20:25+00:00,2020-09-09 14:58:14,DONOTCONTACT
12959,62fa919b39fe7a3ec97439d6,Samuel,Watson,6689 N Daniel Rd,Madison, AL,35758.0,2020-02-24 11:35:42+00:00,2020-09-09 17:06:36,UNSURE
50458,62fa919b39fe7a3ec974cc51,Deborah,Jacobs,6337 Second St,Rocky Mount, NC,27804.0,2020-03-10 21:50:12+00:00,2020-09-09 17:28:55,UNSURE
39812,62fa919b39fe7a3ec974a2bb,Marion,Suarez,1128 E Maple Rd,Lewis Center, OH,43035.0,2019-10-27 23:28:29+00:00,2020-09-09 17:42:52,DONOTCONTACT
47171,62fa919b39fe7a3ec974bf7a,Rich,Cahill,6734 W Glen Rd,West Palm Beach, FL,33404.0,2020-02-15 16:06:59+00:00,2020-09-09 18:02:57,NEGATIVE
37524,62fa919b39fe7a3ec97499cb,Candy,Lake,2891 3rd Ln,Richardson, TX,75080.0,2019-10-27 21:08:16+00:00,2020-09-09 18:02:57,NEGATIVE
59066,62fa919b39fe7a3ec974edf1,Kristina,Case,2571 Third St,Moorhead, MN,56560.0,2020-01-11 15:21:02+00:00,2020-09-09 18:30:02,NEGATIVE
39771,62fa919b39fe7a3ec974a292,Young,Moody,4721 W Purchase Dr,Mchenry, IL,60050.0,2020-08-15 19:59:25+00:00,2020-09-09 18:49:32,DONOTCONTACT
9835,62fa919b39fe7a3ec9742da2,Jan,Hutchinson,5458 Daniel Blvd,Media, PA,19063.0,2019-12-20 14:00:02+00:00,2020-09-09 19:57:34,UNSURE
18996,62fa919b39fe7a3ec974516b,Hope,Conley,5872 W Main Blvd,Schenectady, NY,12302.0,2020-06-22 15:50:38+00:00,2020-09-09 20:36:28,NEGATIVE
66791,62fa919b39fe7a3ec9750c1e,Adriana,Wolfe,8603 8th Ln,,,,2020-05-11 07:37:20+00:00,2020-09-09 21:26:07,UNSURE
88079,62fa919b39fe7a3ec9755f46,Leanne,Roberts,1468 W Fourth Dr,Rocky Mount, NC,27804.0,2020-08-18 11:17:56+00:00,2020-09-09 22:12:13,NEGATIVE
84656,62fa919b39fe7a3ec97551e7,Irene,Schneider,3578 Glen Dr,Westmont, IL,60559.0,2019-11-26 12:41:34+00:00,2020-09-09 22:13:00,NEGATIVE
66195,62fa919b39fe7a3ec97509ca,Lindsey,Strickland,5663 E 12th Blvd,Pearl, MS,39208.0,2020-04-16 20:26:36+00:00,2020-09-09 23:08:49,UNSURE
38847,62fa919b39fe7a3ec9749ef6,Robyn,Stewart,2293 47th Rd,New Albany, IN,47150.0,2019-09-10 15:55:41+00:00,2020-09-09 23:26:09,UNSURE
54969,62fa919b39fe7a3ec974ddf0,Calvin,Robbins,3878 E 47th Cv,Mechanicsville, VA,23111.0,2020-06-03 06:05:56+00:00,2020-09-10 00:12:33,DONOTCONTACT
46779,62fa919b39fe7a3ec974bdf2,Jamie,Terry,1821 S Third Rd,Moorhead, MN,56560.0,2020-08-05 10:14:25+00:00,2020-09-10 00:56:00,NEGATIVE
83379,62fa919b39fe7a3ec9754cea,Calvin,Craig,5081 W Cherry Ave,Clearwater, FL,33756.0,2020-05-19 17:44:05+00:00,2020-09-10 01:22:27,NEGATIVE
58152,62fa919b39fe7a3ec974ea5f,Rich,Stewart,5444 Burbank Cv,Oshkosh, WI,54901.0,2020-03-29 03:45:28+00:00,2020-09-10 01:37:55,NEGATIVE
27842,62fa919b39fe7a3ec97473f9,Jordan,Morton,8246 Olsonvill Ln,Delaware, OH,43015.0,2019-05-17 08:10:44+00:00,2020-09-10 02:03:41,NEGATIVE
94064,62fa919b39fe7a3ec97576a7,Christi,Morton,7235 N Sleepy Rd,Hixson, TN,37343.0,2019-04-26 20:48:29+00:00,2020-09-10 02:06:03,NEGATIVE
87112,62fa919b39fe7a3ec9755b7f,Verna,Wade,2414 8th St,Marion, NC,28752.0,2019-08-31 14:13:49+00:00,2020-09-10 02:11:03,DONOTCONTACT
36936,62fa919b39fe7a3ec974977f,Christi,Guthrie,5202 S Faith Ln,Conyers, GA,30012.0,2019-01-18 20:42:57+00:00,2020-09-10 03:43:30,DONOTCONTACT
72746,62fa919b39fe7a3ec9752361,Cristina,Ball,8588 E Sharp Cv,Lewis Center, OH,43035.0,2019-12-20 04:12:05+00:00,2020-09-10 03:59:23,UNSURE
17226,62fa919b39fe7a3ec9744a81,Gale,Moody,7563 S Purchase Ln,Marion, NC,28752.0,2019-05-29 02:59:10+00:00,2020-09-10 04:18:11,NEGATIVE
53669,62fa919b39fe7a3ec974d8dc,Verna,Ball,7513 Olsonvill Rd,West Fargo, ND,58078.0,2020-07-19 18:09:03+00:00,2020-09-10 04:44:37,NEGATIVE
97669,62fa919b39fe7a3ec97584bc,Gale,Bassett,1799 S Martin Luther King St,Ottawa, IL,61350.0,2019-09-18 17:33:01+00:00,2020-09-10 05:34:15,NEGATIVE
6900,62fa919b39fe7a3ec974222b,Sara,Pollard,1688 12th St,Anaheim, CA,92806.0,2019-08-11 14:34:53+00:00,2020-09-10 05:54:36,DONOTCONTACT
39909,62fa919b39fe7a3ec974a31c,Deborah,Bowers,968 S Burbank Blvd,Camas, WA,98607.0,2019-02-28 00:22:07+00:00,2020-09-10 07:10:27,NEGATIVE
54723,62fa919b39fe7a3ec974dcfa,Todd,Stone,9353 S Shelby Ln,Mchenry, IL,60050.0,2019-03-18 20:39:39+00:00,2020-09-10 07:45:26,UNSURE
1362,62fa919b39fe7a3ec9740c89,Caroline,Guthrie,1587 Faith Rd,Madisonville, KY,42431.0,2020-02-10 08:10:13+00:00,2020-09-10 07:56:42,NEGATIVE
30837,62fa919b39fe7a3ec9747fac,Rolando,Kramer,2658 47th St,Mahwah, NJ,7430.0,2019-12-19 23:22:34+00:00,2020-09-10 08:58:57,DONOTCONTACT
30249,62fa919b39fe7a3ec9747d60,Mayra,Guthrie,3697 E Sunny Dr,Madison, AL,35758.0,2019-12-17 16:55:07+00:00,2020-09-10 10:06:55,NEGATIVE
53628,62fa919b39fe7a3ec974d8b3,Robyn,Cahill,4632 E 4th St,Mahwah, NJ,7430.0,2019-04-11 21:33:30+00:00,2020-09-10 11:07:28,NEGATIVE
57657,62fa919b39fe7a3ec974e870,Mayra,French,6870 N Pratt Ln,Hixson, TN,37343.0,2020-01-09 19:10:17+00:00,2020-09-10 11:07:37,NEGATIVE
78819,62fa919b39fe7a3ec9753b1a,Adriana,Ayers,2259 N 12th Ln,Moorhead, MN,56560.0,2019-06-29 10:26:36+00:00,2020-09-10 11:50:36,UNSURE
29568,62fa919b39fe7a3ec9747ab7,Clarence,Schneider,7713 S Olsonvill Ave,Paterson, NJ,7501.0,2020-07-24 13:42:14+00:00,2020-09-10 12:38:38,UNSURE
67951,62fa919b39fe7a3ec97510a6,Candy,Ball,1024 N 12th St,Westmont, IL,60559.0,2020-08-02 03:41:52+00:00,2020-09-10 12:48:41,UNSURE
48964,62fa919b39fe7a3ec974c67b,Young,,8627 Sunny St,Lewis Center, OH,43035.0,2020-06-22 04:44:34+00:00,2020-09-10 13:46:53,DONOTCONTACT
99223,62fa919b39fe7a3ec9758ace,Krystal,Morton,1066 Main Rd,Westmont, IL,60559.0,2019-01-16 01:29:08+00:00,2020-09-10 14:07:07,NEGATIVE
90700,62fa919b39fe7a3ec9756983,Juan,Phillips,6771 1st Dr,Seattle, WA,98144.0,2020-09-04 19:33:28+00:00,2020-09-10 16:21:18,NEGATIVE
8932,62fa919b39fe7a3ec9742a1b,Juana,Sheppard,8135 W Faith Ave,Moorhead, MN,56560.0,2019-04-29 14:07:43+00:00,2020-09-10 16:25:08,NEGATIVE
92670,62fa919b39fe7a3ec9757135,Susana,Powers,4479 N Pratt Ln,Paterson, NJ,7501.0,2019-09-11 10:23:50+00:00,2020-09-10 16:41:48,NEGATIVE
44463,62fa919b39fe7a3ec974b4e6,Sara,Carver,6266 N Seaside Ln,Rocky Mount, NC,27804.0,2020-07-11 22:58:29+00:00,2020-09-10 17:43:55,DONOTCONTACT
76148,62fa919b39fe7a3ec97530ab,Rene,Donovan,2810 Samuel Ln,Pearl, MS,39208.0,2019-11-16 00:40:03+00:00,2020-09-10 18:27:02,UNSURE
17678,62fa919b39fe7a3ec9744c45,Jessica,Jensen,6110 Cherry Ave,Madisonville, KY,42431.0,2020-08-28 07:41:43+00:00,2020-09-10 18:32:33,DONOTCONTACT
21177,62fa919b39fe7a3ec97459f0,Caroline,Hutchinson,7155 Pratt Ave,Enfield, CT,6082.0,2019-07-29 17:32:50+00:00,2020-09-10 18:59:15,DONOTCONTACT
71270,62fa919b39fe7a3ec9751d9d,,Watson,3037 Olsonvill Ln,Westport, CT,6880.0,2020-06-24 15:38:15+00:00,2020-09-10 19:44:26,UNSURE
58192,62fa919b39fe7a3ec974ea87,Todd,Schneider,1925 Maple Ln,Kalamazoo, MI,49009.0,2020-05-29 16:20:05+00:00,2020-09-10 20:34:45,DONOTCONTACT
66508,62fa919b39fe7a3ec9750b03,Young,Conley,4348 E Daniel St,Garfield, NJ,7026.0,2020-02-17 11:33:27+00:00,2020-09-10 20:35:07,NEGATIVE
44147,62fa919b39fe7a3ec974b3aa,Lois,Rowe,6141 W Oak Blvd,Melbourne, FL,32904.0,2020-05-23 21:18:48+00:00,2020-09-10 21:10:15,NEGATIVE
42158,62fa919b39fe7a3ec974abe5,Gale,Cassidy,5067 1st Ln,Mahwah, NJ,7430.0,2020-04-04 00:12:08+00:00,2020-09-10 21:20:42,NEGATIVE
81226,62fa919b39fe7a3ec9754481,Dora,Terrell,7583 Sunny Rd,Phillipsburg, NJ,8865.0,2019-06-08 07:54:53+00:00,2020-09-10 22:40:22,NEGATIVE
6245,62fa919b39fe7a3ec9741f9c,Caroline,Donovan,2760 3rd Rd,,,,2020-07-17 14:56:08+00:00,2020-09-11 00:39:05,UNSURE
53399,62fa919b39fe7a3ec974d7ce,Jordan,Hinton,848 Glenn Rd,Phillipsburg, NJ,8865.0,2020-01-11 08:49:07+00:00,2020-09-11 00:49:43,NEGATIVE
48595,62fa919b39fe7a3ec974c50a,Scott,Harvey,8508 Seaside Blvd,Millington, TN,38053.0,2020-06-27 20:56:46+00:00,2020-09-11 01:00:51,UNSURE
5658,62fa919b39fe7a3ec9741d51,Ernest,Ball,9655 3rd Ln,Mchenry, IL,60050.0,2019-07-22 01:29:46+00:00,2020-09-11 01:05:06,UNSURE
761,62fa919b39fe7a3ec9740a30,Verna,Hutchinson,1006 Mount Pleasant Ave,Millington, TN,38053.0,2019-08-12 09:44:07+00:00,2020-09-11 01:54:35,DONOTCONTACT
66555,62fa919b39fe7a3ec9750b32,Cristina,Harvey,6062 Burbank St,Westmont, IL,60559.0,2020-08-05 16:13:10+00:00,2020-09-11 02:55:12,DONOTCONTACT
17952,62fa919b39fe7a3ec9744d57,Rich,Roberts,5573 Samuel Cv,North Attleboro, MA,2760.0,2019-08-17 01:04:04+00:00,2020-09-11 03:27:07,UNSURE
96008,62fa919b39fe7a3ec9757e3f,Caroline,Stone,8286 E 4th Cv,Melbourne, FL,32904.0,2020-02-07 23:01:32+00:00,2020-09-11 03:32:21,UNSURE
5395,62fa919b39fe7a3ec9741c4a,Young,Farrell,2457 Oak St,West Palm Beach, FL,33404.0,2019-10-13 16:46:28+00:00,2020-09-11 05:07:27,NEGATIVE
7471,62fa919b39fe7a3ec9742466,Juan,Sheppard,8867 W  Cv,Jamaica, NY,11432.0,2019-12-01 12:20:07+00:00,2020-09-11 05:57:08,DONOTCONTACT
88649,62fa919b39fe7a3ec9756180,Michele,Morton,9574 W Glenn Ave,Westport, CT,6880.0,2020-06-14 02:09:39+00:00,2020-09-11 06:07:51,NEGATIVE
88987,62fa919b39fe7a3ec97562d2,Cecelia,Carver,8893 Second Dr,Media, PA,19063.0,2019-01-18 14:34:08+00:00,2020-09-11 06:44:32,DONOTCONTACT
67994,62fa919b39fe7a3ec97510d1,Cecilia,Terrell,3297 Sleepy Ln,Paterson, NJ,7501.0,2019-10-23 05:39:32+00:00,2020-09-11 06:46:52,UNSURE
84000,62fa919b39fe7a3ec9754f57,Mayra,Roberts,8119 Lois Ave,Ottawa, IL,61350.0,2020-02-15 04:24:53+00:00,2020-09-11 07:35:49,UNSURE
18156,62fa919b39fe7a3ec9744e23,Sara,Cassidy,2036 E Armstrong St,Oshkosh, WI,54901.0,2020-09-01 10:06:04+00:00,2020-09-11 10:02:19,NEGATIVE
44886,62fa919b39fe7a3ec974b68d,Cecelia,Bowers,9047 S Peter Dr,Douglasville, GA,30134.0,2019-11-16 11:57:02+00:00,2020-09-11 11:54:02,NEGATIVE
67678,62fa919b39fe7a3ec9750f95,Deborah,Grant,4447 Sleepy Dr,Miami Gardens, FL,33056.0,2019-09-01 10:53:45+00:00,2020-09-11 12:26:14,UNSURE
77862,62fa919b39fe7a3ec975375d,Gale,Watson,2570 E Pratt Cv,Miami Gardens, FL,33056.0,2020-04-29 07:23:50+00:00,2020-09-11 13:09:52,UNSURE
44152,62fa919b39fe7a3ec974b3af,Adriana,Craig,7721 E 1st Cv,Camp Hill, PA,17011.0,2020-08-04 21:41:06+00:00,2020-09-11 13:47:06,DONOTCONTACT
56804,62fa919b39fe7a3ec974e51b,Cecilia,Andrade,5538 Glendale Cv,Paterson, NJ,7501.0,2020-07-23 09:36:15+00:00,2020-09-11 14:47:30,UNSURE
16106,62fa919b39fe7a3ec9744621,Raymond,Terrell,575 Second Dr,Seattle, WA,98144.0,2019-02-07 20:07:14+00:00,2020-09-11 14:57:21,DONOTCONTACT
27751,62fa919b39fe7a3ec974739e,Kristina,Craig,2273 Ethel St,Kalamazoo, MI,49009.0,2020-05-23 09:03:16+00:00,2020-09-11 15:31:26,NEGATIVE
22096,62fa919b39fe7a3ec9745d87,Scott,French,6352 Purchase St,Hartford, CT,6106.0,2019-07-22 03:16:29+00:00,2020-09-11 15:58:27,UNSURE
95022,62fa919b39fe7a3ec9757a65,Verna,Benton,9919 Oak Blvd,Delaware, OH,43015.0,2020-01-28 01:28:54+00:00,2020-09-11 16:07:30,DONOTCONTACT
4343,62fa919b39fe7a3ec974182e,Irene,Guthrie,8693 Maple Ln,Paterson, NJ,7501.0,2019-04-21 15:49:26+00:00,2020-09-11 16:13:25,NEGATIVE
82049,62fa919b39fe7a3ec97547b8,Leanne,Jacobs,8144 Ethel Ln,Paterson, NJ,7501.0,2020-04-01 14:07:48+00:00,2020-09-11 16:44:55,UNSURE
61479,62fa919b39fe7a3ec974f75e,Young,Watson,7871 E Sleepy Ln,Delaware, OH,43015.0,2019-06-07 08:58:29+00:00,2020-09-11 17:12:28,UNSURE
38140,62fa919b39fe7a3ec9749c33,Lois,Watson,7118 Third Blvd,Rocky Mount, NC,27804.0,2019-12-22 00:29:38+00:00,2020-09-11 17:52:40,UNSURE
29551,62fa919b39fe7a3ec9747aa6,Michele,Carver,9343 Glendale St,Camas, WA,98607.0,2020-07-21 13:57:37+00:00,2020-09-11 18:16:32,UNSURE
57935,62fa919b39fe7a3ec974e986,Young,Kramer,1642 E Oak St,Melbourne, FL,32904.0,2020-07-22 22:08:17+00:00,2020-09-11 20:46:30,DONOTCONTACT
92837,62fa919b39fe7a3ec97571dc,Clarence,Compton,6387 N 2nd Ln,Mchenry, IL,60050.0,2020-04-04 14:43:35+00:00,2020-09-11 21:46:08,NEGATIVE
13644,62fa919b39fe7a3ec9743c83,Robyn,Jensen,9061 Peter Dr,Lewis Center, OH,43035.0,2019-07-21 22:31:17+00:00,2020-09-11 22:34:11,UNSURE
38989,62fa919b39fe7a3ec9749f84,Shane,Stone,836 Pine Ave,Pearl, MS,39208.0,2020-03-04 15:37:01+00:00,2020-09-11 22:58:12,UNSURE
21103,62fa919b39fe7a3ec97459a6,Todd,Snell,7124 Peter Rd,Schenectady, NY,12302.0,2020-08-24 10:16:28+00:00,2020-09-11 23:04:42,DONOTCONTACT
54709,62fa919b39fe7a3ec974dcec,Jamie,Wade,1298 E Burbank Rd,Jamaica, NY,11432.0,2019-07-25 03:32:33+00:00,2020-09-11 23:51:29,DONOTCONTACT
96628,62fa919b39fe7a3ec97580ab,Christi,Grant,6415 47th Dr,Oshkosh, WI,54901.0,2019-02-12 03:54:31+00:00,2020-09-12 01:26:52,UNSURE
19390,62fa919b39fe7a3ec97452f5,Verna,Donovan,4064 Crystal Ave,Gastonia, NC,28052.0,2020-05-15 19:18:05+00:00,2020-09-12 01:30:16,UNSURE
9722,62fa919b39fe7a3ec9742d31,Gale,Grant,6047 Sleepy Blvd,Marion, NC,28752.0,2020-03-08 13:06:20+00:00,2020-09-12 03:13:23,UNSURE
58213,62fa919b39fe7a3ec974ea9c,Jan,Benton,9946 N Seaside St,Westmont, IL,60559.0,2020-04-26 05:41:32+00:00,2020-09-12 03:58:50,UNSURE
92956,62fa919b39fe7a3ec9757253,Dora,Pollard,5003 Third Rd,Miami Gardens, FL,33056.0,2019-09-24 06:05:46+00:00,2020-09-12 04:09:09,DONOTCONTACT
16261,62fa919b39fe7a3ec97446bc,Dianna,Bassett,3533 W Olsonvill Blvd,Camas, WA,98607.0,2020-05-24 04:55:00+00:00,2020-09-12 04:22:43,DONOTCONTACT
17579,62fa919b39fe7a3ec9744be2,Gale,Robbins,1917 Glen Ave,Pearl, MS,39208.0,2019-08-05 16:20:00+00:00,2020-09-12 05:26:17,UNSURE
76029,62fa919b39fe7a3ec9753034,Michele,Dwyer,5088 2nd St,Lewis Center, OH,43035.0,2020-07-05 02:02:17+00:00,2020-09-12 05:42:32,NEGATIVE
49939,62fa919b39fe7a3ec974ca4a,Juana,Proctor,3396 Elm Dr,Melbourne, FL,32904.0,2019-05-28 17:20:19+00:00,2020-09-12 07:23:27,UNSURE
15367,62fa919b39fe7a3ec974433e,Ernest,Pollard,7547 Fourth Ln,Moorhead, MN,56560.0,2020-04-15 17:18:52+00:00,2020-09-12 07:31:16,UNSURE
46714,62fa919b39fe7a3ec974bdb1,Herman,Robbins,8681 S Fourth Blvd,West Fargo, ND,58078.0,2020-06-14 08:12:09+00:00,2020-09-12 08:32:46,UNSURE
74546,62fa919b39fe7a3ec9752a69,Rolando,Donovan,3991 S Poplar St,Camas, WA,98607.0,2019-10-05 22:47:03+00:00,2020-09-12 08:34:20,DONOTCONTACT
5514,62fa919b39fe7a3ec9741cc1,Chris,Pollard,692 Mount Pleasant Dr,Schenectady, NY,12302.0,2020-09-10 16:10:17+00:00,2020-09-12 09:22:53,UNSURE
51852,62fa919b39fe7a3ec974d1c3,Leanne,Ayers,6837 Purchase Ln,North Attleboro, MA,2760.0,2020-04-14 23:59:15+00:00,2020-09-12 09:34:49,NEGATIVE
43021,62fa919b39fe7a3ec974af44,Jessica,Snell,6721 Glenn Dr,Hixson, TN,37343.0,2019-08-21 11:24:49+00:00,2020-09-12 10:17:02,UNSURE
86773,62fa919b39fe7a3ec9755a2c,Young,Proctor,9014 Poplar Dr,Olive Branch, MS,38654.0,2020-07-21 03:46:16+00:00,2020-09-12 11:16:58,DONOTCONTACT
33937,62fa919b39fe7a3ec9748bc8,Maria,Moody,5693 W  Ave,Anaheim, CA,92806.0,2019-04-30 21:10:13+00:00,2020-09-12 11:30:51,NEGATIVE
31974,62fa919b39fe7a3ec974841d,Lois,Guthrie,8717 Poplar Ln,Olive Branch, MS,38654.0,2019-08-23 22:00:19+00:00,2020-09-12 12:19:14,DONOTCONTACT
42558,62fa919b39fe7a3ec974ad75,Darla,Ball,1494 Sharp Rd,Paterson, NJ,7501.0,2019-08-14 21:57:54+00:00,2020-09-12 12:42:33,DONOTCONTACT
48905,62fa919b39fe7a3ec974c640,Michele,Benton,981 N 1st Dr,Oshkosh, WI,54901.0,2019-09-18 04:29:13+00:00,2020-09-12 12:44:33,NEGATIVE
15820,62fa919b39fe7a3ec9744503,Jessica,Stone,6386 Second Cv,Melbourne, FL,32904.0,2020-08-18 04:50:52+00:00,2020-09-12 13:42:14,NEGATIVE
99873,62fa919b39fe7a3ec9758d58,Rich,Case,5675 S Seaside Ln,,,,2020-01-01 08:07:46+00:00,2020-09-12 14:37:21,UNSURE
29529,62fa919b39fe7a3ec9747a90,Deborah,Moody,8236 Martin Luther King Rd,New Albany, IN,47150.0,2019-08-02 10:31:52+00:00,2020-09-12 14:38:01,NEGATIVE
95072,62fa919b39fe7a3ec9757a97,Jessica,Carver,5011 Pine Ln,Arvada, CO,80003.0,2020-02-05 11:25:57+00:00,2020-09-12 15:20:54,DONOTCONTACT
3355,62fa919b39fe7a3ec9741452,Hope,Rowe,4680 Faith Rd,Jamaica, NY,11432.0,2020-05-28 04:40:58+00:00,2020-09-12 15:57:22,UNSURE
7731,62fa919b39fe7a3ec974256a,Verna,Roberts,1785 47th Ave,Miami Gardens, FL,33056.0,2020-01-22 06:25:01+00:00,2020-09-12 16:03:27,DONOTCONTACT
70570,62fa919b39fe7a3ec9751ae1,Michele,French,6516 N 12th Dr,Seattle, WA,98144.0,2019-11-13 10:14:29+00:00,2020-09-12 16:31:19,NEGATIVE
59490,62fa919b39fe7a3ec974ef99,Rich,Cassidy,9451 Oak Ave,Enfield, CT,6082.0,2020-04-05 03:25:24+00:00,2020-09-12 16:42:14,UNSURE
93324,62fa919b39fe7a3ec97573c3,Cristina,Moody,1680 Purchase Dr,Paterson, NJ,7501.0,2020-08-09 04:42:17+00:00,2020-09-12 17:01:26,DONOTCONTACT
39247,62fa919b39fe7a3ec974a086,Todd,Jacobs,4672 W 47th Blvd,Ottawa, IL,61350.0,2019-05-01 21:15:11+00:00,2020-09-12 17:35:37,NEGATIVE
28667,62fa919b39fe7a3ec9747732,Jamie,Jacobs,6417 E Seaside Ln,Conyers, GA,30012.0,2019-10-08 02:17:11+00:00,2020-09-12 17:57:49,DONOTCONTACT
90476,62fa919b39fe7a3ec97568a3,Hope,Cassidy,1855 E Eighth Rd,Mechanicsville, VA,23111.0,2020-06-30 07:15:14+00:00,2020-09-12 19:13:34,NEGATIVE
55187,62fa919b39fe7a3ec974deca,Rene,Craig,5520 W Pine Dr,New Philadelphia, OH,44663.0,2020-02-04 20:19:09+00:00,2020-09-12 19:31:59,DONOTCONTACT
48877,62fa919b39fe7a3ec974c624,,Bassett,9620 4th Ln,Olive Branch, MS,38654.0,2020-04-21 16:10:43+00:00,2020-09-12 19:34:28,NEGATIVE
60197,62fa919b39fe7a3ec974f25c,Samuel,French,8295 W Purchase Cv,Miami Gardens, FL,33056.0,2020-07-03 18:26:58+00:00,2020-09-12 20:16:38,UNSURE
40546,62fa919b39fe7a3ec974a599,Hope,Case,500 N 1st St,Mchenry, IL,60050.0,2020-03-03 10:49:06+00:00,2020-09-12 23:01:44,DONOTCONTACT
63719,62fa919b39fe7a3ec975001e,Christi,Farrell,1610 W Olsonvill Cv,Douglasville, GA,30134.0,2019-06-08 19:27:33+00:00,2020-09-12 23:37:13,UNSURE
82759,62fa919b39fe7a3ec9754a7e,Ingrid,Church,7911 W Glenn Ave,Marion, NC,28752.0,2020-06-30 05:24:41+00:00,2020-09-12 23:54:45,DONOTCONTACT
68655,62fa919b39fe7a3ec9751366,Cecelia,Burke,6160 W 4th St,Patchogue, NY,11772.0,2019-04-03 12:52:55+00:00,2020-09-13 00:10:37,DONOTCONTACT
26448,62fa919b39fe7a3ec9746e87,Cecelia,Carver,4158 W 5th St,Moorhead, MN,56560.0,2020-06-24 17:44:02+00:00,2020-09-13 00:23:00,DONOTCONTACT
4036,62fa919b39fe7a3ec97416fb,Krystal,Proctor,8296 E Sunny Cv,Mechanicsville, VA,23111.0,2019-09-23 14:00:42+00:00,2020-09-13 00:49:39,DONOTCONTACT
94501,62fa919b39fe7a3ec975785c,Verna,Proctor,8469 S  Cv,Quakertown, PA,18951.0,2019-02-07 18:01:10+00:00,2020-09-13 01:48:50,DONOTCONTACT
13300,62fa919b39fe7a3ec9743b2b,Lindsey,Andrade,8978 E Daniel Blvd,Quakertown, PA,18951.0,2019-05-29 17:40:31+00:00,2020-09-13 01:54:26,NEGATIVE
15428,62fa919b39fe7a3ec974437b,Marion,Carver,3212 Mount Pleasant Rd,Hartford, CT,6106.0,2020-01-06 18:17:52+00:00,2020-09-13 02:21:19,UNSURE
64666,62fa919b39fe7a3ec97503d1,Sara,Wolfe,5312 Maple Cv,Camas, WA,98607.0,2020-01-19 12:42:30+00:00,2020-09-13 04:36:12,UNSURE
91592,62fa919b39fe7a3ec9756cff,Gale,Jacobs,5475  St,Elizabeth City, NC,27909.0,2020-05-01 07:11:06+00:00,2020-09-13 04:50:53,UNSURE
76319,62fa919b39fe7a3ec9753156,Susana,Ayers,4797 W 4th Ave,Quakertown, PA,18951.0,2020-04-04 21:11:44+00:00,2020-09-13 05:04:37,DONOTCONTACT
79943,62fa919b39fe7a3ec9753f7e,Ernest,Robbins,9916 4th Dr,Paterson, NJ,7501.0,2020-04-18 13:11:38+00:00,2020-09-13 05:32:59,NEGATIVE
12650,62fa919b39fe7a3ec97438a1,Cristina,Harvey,4286 Purchase St,New Albany, IN,47150.0,2019-12-09 14:03:18+00:00,2020-09-13 05:40:45,UNSURE
39373,62fa919b39fe7a3ec974a104,Cecelia,Ball,7153 S Sleepy Cv,Paterson, NJ,7501.0,2020-09-08 06:45:49+00:00,2020-09-13 06:47:57,NEGATIVE
34627,62fa919b39fe7a3ec9748e7a,Gale,Compton,5185 N Glenn Rd,Douglasville, GA,30134.0,2019-07-17 03:41:24+00:00,2020-09-13 07:00:52,UNSURE
62535,62fa919b39fe7a3ec974fb7e,Calvin,Alexander,4269 E Olsonvill Ave,Miami Gardens, FL,33056.0,2019-09-30 04:19:52+00:00,2020-09-13 08:03:26,NEGATIVE
1366,62fa919b39fe7a3ec9740c8d,Herman,Schneider,1858 Peter Ln,Melbourne, FL,32904.0,2020-04-24 20:34:49+00:00,2020-09-13 08:17:51,UNSURE
39993,62fa919b39fe7a3ec974a370,Gale,Phillips,3560 E Fourth Cv,Camp Hill, PA,17011.0,2020-06-03 03:04:51+00:00,2020-09-13 08:27:03,DONOTCONTACT
4992,62fa919b39fe7a3ec9741ab7,Ingrid,Jensen,377  St,Miami Gardens, FL,33056.0,2020-04-10 01:07:28+00:00,2020-09-13 10:52:58,NEGATIVE
76550,62fa919b39fe7a3ec975323d,Cecilia,Robbins,3491  Ln,,,,2020-03-13 17:36:30+00:00,2020-09-13 11:02:39,UNSURE
5791,62fa919b39fe7a3ec9741dd6,Maria,Roberts,2730 Poplar Ln,Moorhead, MN,56560.0,2020-07-22 04:33:52+00:00,2020-09-13 11:33:24,DONOTCONTACT
7050,62fa919b39fe7a3ec97422c1,Krystal,Compton,3169 E Mount Pleasant Rd,Media, PA,19063.0,2020-01-30 10:19:17+00:00,2020-09-13 12:59:35,UNSURE
48457,62fa919b39fe7a3ec974c480,Rene,Guthrie,2210 S 47th St,Camp Hill, PA,17011.0,2019-02-05 02:09:12+00:00,2020-09-13 13:30:14,DONOTCONTACT
54659,62fa919b39fe7a3ec974dcba,Rene,Church,4035 Shelby Cv,Arvada, CO,80003.0,2019-11-26 16:34:08+00:00,2020-09-13 13:56:25,DONOTCONTACT
27252,62fa919b39fe7a3ec97471ab,Jan,Farrell,1771 Seaside Ln,Ossining, NY,10562.0,2019-02-04 15:34:31+00:00,2020-09-13 14:14:20,DONOTCONTACT
52301,62fa919b39fe7a3ec974d384,Jordan,Proctor,9761 W Daniel Blvd,Phillipsburg, NJ,8865.0,2019-04-08 21:03:59+00:00,2020-09-13 14:28:28,UNSURE
74489,62fa919b39fe7a3ec9752a30,Dora,Terrell,8032 E Elm Ave,Schenectady, NY,12302.0,2019-01-02 09:03:15+00:00,2020-09-13 15:55:46,NEGATIVE
16099,62fa919b39fe7a3ec974461a,Kristina,Case,9356 W Poplar St,Rocky Mount, NC,27804.0,2020-06-13 11:31:31+00:00,2020-09-13 16:04:02,UNSURE
61303,62fa919b39fe7a3ec974f6ae,Terry,Sheppard,8568 N 6th Ave,Pearl, MS,39208.0,2019-01-09 20:28:41+00:00,2020-09-13 16:09:23,DONOTCONTACT
38195,62fa919b39fe7a3ec9749c6a,Calvin,Jensen,9114 W Pine Blvd,Garfield, NJ,7026.0,2019-11-11 04:25:41+00:00,2020-09-13 18:04:49,DONOTCONTACT
92417,62fa919b39fe7a3ec9757038,,Robbins,3224 E Mount Pleasant Ln,Paterson, NJ,7501.0,2020-01-03 22:24:43+00:00,2020-09-13 18:43:52,NEGATIVE
7365,62fa919b39fe7a3ec97423fc,Todd,Andrade,8446 Eighth Cv,Gastonia, NC,28052.0,2019-03-25 04:08:33+00:00,2020-09-13 18:52:37,DONOTCONTACT
89106,62fa919b39fe7a3ec9756349,Marion,Bassett,7419 Samuel Ave,Lewis Center, OH,43035.0,2019-01-05 22:25:57+00:00,2020-09-13 18:53:04,UNSURE
9725,62fa919b39fe7a3ec9742d34,Samuel,Grant,6858 E Main Rd,Pearl, MS,39208.0,2019-03-02 12:51:04+00:00,2020-09-13 19:22:13,DONOTCONTACT
90717,62fa919b39fe7a3ec9756994,Ernest,Andrade,7223 Poplar St,Seattle, WA,98144.0,2020-02-26 00:24:15+00:00,2020-09-13 20:03:13,UNSURE
27068,62fa919b39fe7a3ec97470f3,Christi,Wolfe,3136 S Oak Dr,Moorhead, MN,56560.0,2019-11-30 00:34:03+00:00,2020-09-13 20:08:01,UNSURE
90776,62fa919b39fe7a3ec97569cf,Kristina,Harvey,8273 1st Ln,Rocky Mount, NC,27804.0,2019-08-17 20:28:40+00:00,2020-09-13 21:04:55,UNSURE
69262,62fa919b39fe7a3ec97515c5,Jessica,Kramer,578 Sharp Dr,Melbourne, FL,32904.0,2019-07-11 09:38:58+00:00,2020-09-13 21:36:10,UNSURE
65780,62fa919b39fe7a3ec975082b,Michele,Stewart,2290 Crystal Ave,Pearl, MS,39208.0,2019-04-05 19:16:22+00:00,2020-09-14 00:22:45,DONOTCONTACT
74471,62fa919b39fe7a3ec9752a1e,,,8999 5th Dr,Madisonville, KY,42431.0,2019-09-16 06:14:16+00:00,2020-09-14 01:48:30,NEGATIVE
14802,62fa919b39fe7a3ec9744109,Herman,French,5905 N Samuel St,West Fargo, ND,58078.0,2020-06-29 02:00:49+00:00,2020-09-14 02:33:14,UNSURE
88535,62fa919b39fe7a3ec975610e,,Andrade,9806 Pratt Rd,Elizabeth City, NC,27909.0,2020-06-23 08:38:25+00:00,2020-09-14 03:06:55,DONOTCONTACT
81625,62fa919b39fe7a3ec9754610,Todd,Stewart,1322 S Seaside Blvd,Ottawa, IL,61350.0,2020-04-20 15:29:39+00:00,2020-09-14 03:52:22,UNSURE
28522,62fa919b39fe7a3ec97476a1,Juana,Dwyer,1474 3rd Ln,Millington, TN,38053.0,2020-03-11 18:54:18+00:00,2020-09-14 03:54:03,DONOTCONTACT
32120,62fa919b39fe7a3ec97484af,Juan,Guthrie,2993 6th Ln,Quakertown, PA,18951.0,2020-08-28 21:50:16+00:00,2020-09-14 04:30:38,UNSURE
5965,62fa919b39fe7a3ec9741e84,Chris,Cahill,3567 12th Ave,Mahwah, NJ,7430.0,2020-03-13 21:37:44+00:00,2020-09-14 05:14:06,UNSURE
90445,62fa919b39fe7a3ec9756884,Verna,Suarez,4698 Peter Rd,Lewis Center, OH,43035.0,2020-08-25 21:26:15+00:00,2020-09-14 06:28:28,DONOTCONTACT
99355,62fa919b39fe7a3ec9758b52,Lois,Phillips,829 S Burbank Ln,Enfield, CT,6082.0,2019-04-12 07:15:59+00:00,2020-09-14 07:51:26,UNSURE
58198,62fa919b39fe7a3ec974ea8d,Cristina,Rowe,9268 Ethel Rd,Camas, WA,98607.0,2019-03-21 15:24:10+00:00,2020-09-14 08:19:01,UNSURE
23635,62fa919b39fe7a3ec974638a,Dena,Stone,3487 S Oak Cv,Pearl, MS,39208.0,2019-08-04 03:12:59+00:00,2020-09-14 10:44:20,UNSURE
18902,62fa919b39fe7a3ec974510d,Dena,French,7613 E Olsonvill Blvd,Pearl, MS,39208.0,2020-09-06 03:02:13+00:00,2020-09-14 11:19:55,UNSURE
68681,62fa919b39fe7a3ec9751380,Michele,Phillips,159 Poplar Ave,Jamaica, NY,11432.0,2020-07-08 19:58:50+00:00,2020-09-14 11:22:49,DONOTCONTACT
35752,62fa919b39fe7a3ec97492df,Caroline,Bassett,2936 W Peter Rd,Delaware, OH,43015.0,2019-09-22 15:53:25+00:00,2020-09-14 13:04:29,DONOTCONTACT
47998,62fa919b39fe7a3ec974c2b5,Kristina,Guthrie,9793 E Faith Ave,New Albany, IN,47150.0,2019-02-06 15:53:49+00:00,2020-09-14 13:24:35,NEGATIVE
17071,62fa919b39fe7a3ec97449e6,Verna,Strickland,2022 Pratt Dr,West Palm Beach, FL,33404.0,2020-01-05 02:47:58+00:00,2020-09-14 15:33:28,UNSURE
86688,62fa919b39fe7a3ec97559d7,Michele,Wade,1386 Sleepy Ave,Paterson, NJ,7501.0,2019-11-01 02:29:55+00:00,2020-09-14 15:51:11,UNSURE
52001,62fa919b39fe7a3ec974d258,Sara,Burke,8197 N Pratt St,New Albany, IN,47150.0,2020-07-27 22:44:52+00:00,2020-09-14 16:23:47,NEGATIVE
73836,62fa919b39fe7a3ec97527a3,Verna,Burke,1708 E Oak Blvd,Mechanicsville, VA,23111.0,2020-07-21 19:20:21+00:00,2020-09-14 16:36:15,UNSURE
13979,62fa919b39fe7a3ec9743dd2,Leanne,Burke,5830 W Maple Dr,Delaware, OH,43015.0,2019-07-27 07:58:28+00:00,2020-09-14 17:19:21,NEGATIVE
71303,62fa919b39fe7a3ec9751dbe,Gale,Terrell,7755 S Olsonvill Dr,North Attleboro, MA,2760.0,2019-08-22 20:47:12+00:00,2020-09-14 17:43:14,DONOTCONTACT
25909,62fa919b39fe7a3ec9746c6c,Clarence,Stone,8774 3rd Dr,Delaware, OH,43015.0,2019-04-23 07:41:55+00:00,2020-09-14 17:48:35,UNSURE
38934,62fa919b39fe7a3ec9749f4d,Terry,Compton,8594 N Sleepy St,Anaheim, CA,92806.0,2020-06-12 01:36:41+00:00,2020-09-14 18:53:45,NEGATIVE
80401,62fa919b39fe7a3ec9754148,Rich,Guthrie,3804 W Glen Cv,Schenectady, NY,12302.0,2019-02-05 21:40:26+00:00,2020-09-14 19:26:54,DONOTCONTACT
27841,62fa919b39fe7a3ec97473f8,Dora,French,5509 W Martin Luther King Cv,Jamaica, NY,11432.0,2019-10-10 22:05:32+00:00,2020-09-14 20:04:11,DONOTCONTACT
68967,62fa919b39fe7a3ec975149e,Scott,Case,2738 Riverside Blvd,,,,2020-07-27 14:19:21+00:00,2020-09-14 20:38:08,UNSURE
15423,62fa919b39fe7a3ec9744376,Lindsey,Hutchinson,9701 Main Ave,Phillipsburg, NJ,8865.0,2019-08-26 07:09:32+00:00,2020-09-14 21:54:03,NEGATIVE
38553,62fa919b39fe7a3ec9749dd0,Gale,Jacobs,2363 Crystal Ln,Clearwater, FL,33756.0,2020-06-08 08:13:18+00:00,2020-09-14 22:15:19,NEGATIVE
36904,62fa919b39fe7a3ec974975f,Chris,Hutchinson,3877 N Lois St,Conyers, GA,30012.0,2019-06-28 10:46:41+00:00,2020-09-14 23:57:34,NEGATIVE
1057,62fa919b39fe7a3ec9740b58,Ingrid,Terry,207 S Sleepy Dr,Pearl, MS,39208.0,2020-04-30 00:30:38+00:00,2020-09-15 00:16:48,NEGATIVE
589,62fa919b39fe7a3ec9740984,Jan,Snell,9616 Glendale Rd,Westport, CT,6880.0,2020-05-04 22:02:34+00:00,2020-09-15 00:18:05,NEGATIVE
8164,62fa919b39fe7a3ec974271b,Calvin,Morton,6852 Armstrong Blvd,Seymour, IN,47274.0,2019-03-13 16:50:21+00:00,2020-09-15 00:35:51,UNSURE
93816,62fa919b39fe7a3ec97575af,Rich,Hutchinson,4172 Sharp Ln,Enfield, CT,6082.0,2019-08-20 13:21:23+00:00,2020-09-15 01:50:03,UNSURE
62588,62fa919b39fe7a3ec974fbb3,Juan,Watson,2158 N Crystal Ln,North Attleboro, MA,2760.0,2019-09-15 23:23:01+00:00,2020-09-15 03:00:23,UNSURE
15100,62fa919b39fe7a3ec9744233,Young,Rowe,6459 2nd Ln,Anaheim, CA,92806.0,2020-03-05 18:28:23+00:00,2020-09-15 03:04:34,NEGATIVE
50536,62fa919b39fe7a3ec974cc9f,Kristina,Snell,2252 Shelby Ave,Stillwater, MN,55082.0,2019-02-14 05:27:26+00:00,2020-09-15 03:43:51,DONOTCONTACT
58868,62fa919b39fe7a3ec974ed2b,Cristina,Kramer,3644 Glendale Dr,Moorhead, MN,56560.0,2020-03-01 20:17:12+00:00,2020-09-15 04:31:50,NEGATIVE
18415,62fa919b39fe7a3ec9744f26,Raymond,Bowers,7190 S Main St,Seymour, IN,47274.0,2020-06-16 09:13:54+00:00,2020-09-15 04:46:24,DONOTCONTACT
90374,62fa919b39fe7a3ec975683d,Cecilia,Ball,4009 Daniel Ln,Westmont, IL,60559.0,2020-06-30 01:31:53+00:00,2020-09-15 05:18:25,UNSURE
49927,62fa919b39fe7a3ec974ca3e,Rolando,Rowe,3697 5th St,Phillipsburg, NJ,8865.0,2020-04-07 04:49:38+00:00,2020-09-15 05:23:36,DONOTCONTACT
67499,62fa919b39fe7a3ec9750ee2,Darla,Suarez,9595 Poplar Ln,Mchenry, IL,60050.0,2020-04-10 07:56:08+00:00,2020-09-15 06:06:39,DONOTCONTACT
73342,62fa919b39fe7a3ec97525b5,,Guthrie,5391 Seaside St,Kalamazoo, MI,49009.0,2019-07-29 15:02:11+00:00,2020-09-15 06:24:31,UNSURE
46415,62fa919b39fe7a3ec974bc86,Yvette,Terry,2344 E Shelby Cv,Seymour, IN,47274.0,2020-02-18 20:45:29+00:00,2020-09-15 06:40:37,UNSURE
76774,62fa919b39fe7a3ec975331d,Dora,Hutchinson,307 12th Blvd,Gastonia, NC,28052.0,2020-04-06 07:51:35+00:00,2020-09-15 07:07:32,NEGATIVE
9573,62fa919b39fe7a3ec9742c9c,Candy,Case,6766 S 2nd Ave,Richardson, TX,75080.0,2019-07-30 02:54:58+00:00,2020-09-15 07:28:18,UNSURE
22037,62fa919b39fe7a3ec9745d4c,Robyn,Terrell,8493 E Cherry Ave,Ottawa, IL,61350.0,2019-01-09 20:08:55+00:00,2020-09-15 07:48:22,NEGATIVE
63790,62fa919b39fe7a3ec9750065,Christi,Suarez,285 S Cedar Blvd,Hartford, CT,6106.0,2020-07-31 15:06:22+00:00,2020-09-15 08:24:55,DONOTCONTACT
86837,62fa919b39fe7a3ec9755a6c,Lindsey,Cassidy,7796 Sharp Dr,Camp Hill, PA,17011.0,2020-03-11 13:40:42+00:00,2020-09-15 08:57:53,UNSURE
73058,62fa919b39fe7a3ec9752499,Rich,Wade,1786 S Fourth St,Stillwater, MN,55082.0,2020-01-29 11:42:01+00:00,2020-09-15 09:58:31,NEGATIVE
26601,62fa919b39fe7a3ec9746f20,Todd,Alexander,7170 W Pine St,Mechanicsville, VA,23111.0,2019-08-21 00:42:48+00:00,2020-09-15 12:03:43,DONOTCONTACT
41423,62fa919b39fe7a3ec974a906,Susana,Ball,2077 Mount Pleasant Ln,Oshkosh, WI,54901.0,2019-04-17 09:32:09+00:00,2020-09-15 13:31:56,DONOTCONTACT
653,62fa919b39fe7a3ec97409c4,Todd,Phillips,4117 E Elm Cv,Anaheim, CA,92806.0,2020-03-15 21:06:56+00:00,2020-09-15 13:48:32,UNSURE
55621,62fa919b39fe7a3ec974e07c,Krystal,Kramer,508 N 4th Ave,Delaware, OH,43015.0,2020-08-27 09:51:49+00:00,2020-09-15 13:59:57,NEGATIVE
88213,62fa919b39fe7a3ec9755fcc,Marion,Conley,7773 5th Ave,Arvada, CO,80003.0,2019-09-13 18:04:32+00:00,2020-09-15 14:34:29,DONOTCONTACT
73941,62fa919b39fe7a3ec975280c,Cecilia,Jensen,2263 4th Rd,Conyers, GA,30012.0,2019-07-18 12:06:11+00:00,2020-09-15 15:16:58,NEGATIVE
84996,62fa919b39fe7a3ec975533b,Irene,Kramer,1866 E Glenn Ln,Hixson, TN,37343.0,2019-07-15 15:06:14+00:00,2020-09-15 15:32:18,NEGATIVE
22295,62fa919b39fe7a3ec9745e4e,Cecelia,Jensen,831 S Crystal Ave,Hartford, CT,6106.0,2019-07-02 19:45:53+00:00,2020-09-15 16:03:10,DONOTCONTACT
97791,62fa919b39fe7a3ec9758536,Deborah,Compton,331 5th Dr,Rocky Mount, NC,27804.0,2020-02-08 02:37:22+00:00,2020-09-15 16:29:39,UNSURE
72814,62fa919b39fe7a3ec97523a5,Cristina,Harvey,3939 W Olsonvill Dr,Melbourne, FL,32904.0,2019-03-28 02:19:08+00:00,2020-09-15 16:41:16,NEGATIVE
9972,62fa919b39fe7a3ec9742e2b,Calvin,Lake,269 W Lois Ave,Seymour, IN,47274.0,2019-09-19 07:01:38+00:00,2020-09-15 17:25:18,UNSURE
43896,62fa919b39fe7a3ec974b2af,Darla,Guthrie,2553 S Daniel Dr,Phillipsburg, NJ,8865.0,2019-04-15 13:02:09+00:00,2020-09-15 17:53:38,NEGATIVE
70234,62fa919b39fe7a3ec9751991,Verna,Jacobs,3551 N Main Blvd,Conyers, GA,30012.0,2020-04-12 00:28:28+00:00,2020-09-15 19:22:40,DONOTCONTACT
48995,62fa919b39fe7a3ec974c69a,Raymond,Hutchinson,4631 W Elm Ave,Hixson, TN,37343.0,2019-11-30 06:05:47+00:00,2020-09-15 19:30:12,UNSURE
37193,62fa919b39fe7a3ec9749880,Rich,Phillips,9409 Olsonvill Ln,Madisonville, KY,42431.0,2019-09-23 18:31:31+00:00,2020-09-15 19:48:59,DONOTCONTACT
4887,62fa919b39fe7a3ec9741a4e,Samuel,Suarez,585 E Eighth Blvd,Arvada, CO,80003.0,2019-04-16 03:25:07+00:00,2020-09-15 20:09:34,NEGATIVE
73861,62fa919b39fe7a3ec97527bc,Lindsey,Phillips,2038 N Faith Ave,Hartford, CT,6106.0,2019-08-18 22:00:30+00:00,2020-09-15 20:29:25,DONOTCONTACT
47388,62fa919b39fe7a3ec974c053,Deborah,Case,2611 Daniel Cv,Olive Branch, MS,38654.0,2019-11-15 00:11:41+00:00,2020-09-15 20:40:29,UNSURE
4767,62fa919b39fe7a3ec97419d6,Dianna,Alexander,590 Poplar Rd,Mchenry, IL,60050.0,2020-02-20 16:29:23+00:00,2020-09-15 20:59:21,NEGATIVE
15630,62fa919b39fe7a3ec9744445,Hope,Hinton,9526 S Elm Rd,Marion, NC,28752.0,2019-01-31 02:19:05+00:00,2020-09-15 21:28:57,DONOTCONTACT
12781,62fa919b39fe7a3ec9743924,Todd,Moody,3726 Purchase Cv,Westport, CT,6880.0,2020-07-16 17:52:54+00:00,2020-09-15 21:37:45,UNSURE
44893,62fa919b39fe7a3ec974b694,Rich,Harvey,4582 E Cherry St,Patchogue, NY,11772.0,2019-04-20 00:34:18+00:00,2020-09-15 22:31:30,DONOTCONTACT
38714,62fa919b39fe7a3ec9749e71,Todd,Lake,8378 N Cedar Ln,Oshkosh, WI,54901.0,2019-02-22 14:04:27+00:00,2020-09-15 23:43:10,NEGATIVE
88183,62fa919b39fe7a3ec9755fae,Yvette,Jacobs,1943 E 8th St,Arvada, CO,80003.0,2019-04-03 10:29:41+00:00,2020-09-16 00:41:30,NEGATIVE
57072,62fa919b39fe7a3ec974e627,Yvette,Snell,8805 5th Cv,Ossining, NY,10562.0,2019-12-19 15:42:02+00:00,2020-09-16 01:21:55,UNSURE
64268,62fa919b39fe7a3ec9750243,Robyn,Harvey,512 12th Blvd,Enfield, CT,6082.0,2020-03-08 08:41:42+00:00,2020-09-16 01:59:19,UNSURE
40336,62fa919b39fe7a3ec974a4c7,Cecelia,Andrade,9920 Sunny Ln,Mahwah, NJ,7430.0,2019-12-13 17:11:28+00:00,2020-09-16 03:10:18,NEGATIVE
4259,62fa919b39fe7a3ec97417da,Krystal,Hutchinson,9340 Seaside St,Kalamazoo, MI,49009.0,2019-05-02 07:38:41+00:00,2020-09-16 04:00:08,UNSURE
59050,62fa919b39fe7a3ec974ede1,Irene,Andrade,9646 Poplar Rd,Stillwater, MN,55082.0,2019-07-09 09:57:51+00:00,2020-09-16 04:18:30,NEGATIVE
66714,62fa919b39fe7a3ec9750bd1,Dena,Case,8574 Oak St,Jamaica, NY,11432.0,2020-02-08 06:46:07+00:00,2020-09-16 04:30:09,DONOTCONTACT
57323,62fa919b39fe7a3ec974e722,Darla,Jensen,7761 S Elm Cv,Westmont, IL,60559.0,2020-06-11 12:19:10+00:00,2020-09-16 04:48:21,DONOTCONTACT
58961,62fa919b39fe7a3ec974ed88,Gale,Alexander,5176 1st St,Olive Branch, MS,38654.0,2019-03-22 12:05:41+00:00,2020-09-16 04:51:08,DONOTCONTACT
2210,62fa919b39fe7a3ec9740fd9,Dianna,Grant,4087 W Oak Blvd,Madisonville, KY,42431.0,2019-06-06 15:03:03+00:00,2020-09-16 05:20:32,DONOTCONTACT
90820,62fa919b39fe7a3ec97569fb,Herman,Stewart,637 Maple Cv,Mahwah, NJ,7430.0,2019-10-15 14:42:39+00:00,2020-09-16 05:23:46,DONOTCONTACT
66155,62fa919b39fe7a3ec97509a2,Marion,Pollard,541 Purchase Cv,Rocky Mount, NC,27804.0,2019-03-31 21:31:27+00:00,2020-09-16 05:27:43,UNSURE
27162,62fa919b39fe7a3ec9747151,Jessica,Craig,1682 Purchase Ln,West Palm Beach, FL,33404.0,2020-05-02 07:06:11+00:00,2020-09-16 06:08:48,UNSURE
20642,62fa919b39fe7a3ec97457d9,Christi,Moody,2741 Samuel St,Ottawa, IL,61350.0,2020-02-06 14:39:47+00:00,2020-09-16 07:07:07,NEGATIVE
64675,62fa919b39fe7a3ec97503da,Sara,Church,7180 Cedar Blvd,West Fargo, ND,58078.0,2020-03-29 22:42:27+00:00,2020-09-16 07:36:35,DONOTCONTACT
11858,62fa919b39fe7a3ec9743589,Kristina,Church,9344 S 6th Cv,Phillipsburg, NJ,8865.0,2020-03-02 21:55:34+00:00,2020-09-16 07:45:15,DONOTCONTACT
20608,62fa919b39fe7a3ec97457b7,Lois,Suarez,5995 N Eighth Dr,Garfield, NJ,7026.0,2019-06-20 01:35:09+00:00,2020-09-16 08:14:58,UNSURE
26251,62fa919b39fe7a3ec9746dc2,Sara,French,4468 N Mount Pleasant Dr,New Albany, IN,47150.0,2020-03-07 08:42:51+00:00,2020-09-16 09:15:40,NEGATIVE
56306,62fa919b39fe7a3ec974e329,Dena,Farrell,3704 Third St,Madison, AL,35758.0,2019-09-19 06:33:59+00:00,2020-09-16 09:36:24,DONOTCONTACT
77076,62fa919b39fe7a3ec975344b,Caroline,Carver,2882 Mount Pleasant Blvd,Moorhead, MN,56560.0,2019-09-30 06:26:24+00:00,2020-09-16 10:20:17,UNSURE
26377,62fa919b39fe7a3ec9746e40,Young,Donovan,9159 E Burbank Ave,Mchenry, IL,60050.0,2020-08-27 13:45:20+00:00,2020-09-16 11:17:49,DONOTCONTACT
31819,62fa919b39fe7a3ec9748382,Sara,Donovan,8449 Sunny St,North Attleboro, MA,2760.0,2019-12-31 04:25:01+00:00,2020-09-16 11:48:02,NEGATIVE
37804,62fa919b39fe7a3ec9749ae3,Christi,Stone,474 N Mount Pleasant St,Camas, WA,98607.0,2020-03-31 02:44:47+00:00,2020-09-16 11:48:47,UNSURE
87712,62fa919b39fe7a3ec9755dd7,Robyn,Carver,7591 W Seaside Ln,Delaware, OH,43015.0,2020-01-23 03:35:02+00:00,2020-09-16 12:05:58,DONOTCONTACT
19377,62fa919b39fe7a3ec97452e8,Caroline,Suarez,6202 Lois Dr,Marion, NC,28752.0,2019-04-30 06:22:00+00:00,2020-09-16 12:11:19,DONOTCONTACT
45022,62fa919b39fe7a3ec974b715,Juana,Terry,4542 2nd Ave,Hixson, TN,37343.0,2019-08-20 19:05:11+00:00,2020-09-16 12:46:30,NEGATIVE
19000,62fa919b39fe7a3ec974516f,Susana,Terry,7846 Sleepy Blvd,North Attleboro, MA,2760.0,2019-02-01 11:54:12+00:00,2020-09-16 12:53:05,UNSURE
17833,62fa919b39fe7a3ec9744ce0,Cecilia,Hutchinson,7741 Main Cv,Camp Hill, PA,17011.0,2020-07-20 08:30:10+00:00,2020-09-16 14:04:52,NEGATIVE
84190,62fa919b39fe7a3ec9755015,Jordan,Church,9039 S Mount Pleasant Ln,North Attleboro, MA,2760.0,2020-02-13 03:49:43+00:00,2020-09-16 15:13:08,NEGATIVE
13231,62fa919b39fe7a3ec9743ae6,Rich,Guthrie,3020 Mount Pleasant Cv,Delaware, OH,43015.0,2019-12-12 20:19:42+00:00,2020-09-16 16:29:29,DONOTCONTACT
48857,62fa919b39fe7a3ec974c610,Ernest,Ayers,7422 Second Dr,Kalamazoo, MI,49009.0,2019-06-16 15:29:15+00:00,2020-09-16 17:24:32,DONOTCONTACT
35605,62fa919b39fe7a3ec974924c,Ingrid,Alexander,1422 S Third Dr,Oshkosh, WI,54901.0,2019-11-20 04:23:23+00:00,2020-09-16 19:05:34,NEGATIVE
76027,62fa919b39fe7a3ec9753032,Christi,Craig,2872 6th Ln,West Fargo, ND,58078.0,2020-01-23 13:08:09+00:00,2020-09-16 19:29:09,DONOTCONTACT
39496,62fa919b39fe7a3ec974a17f,Cristina,Compton,3345 W Faith Cv,Arvada, CO,80003.0,2020-06-18 07:36:19+00:00,2020-09-16 20:29:00,DONOTCONTACT
95050,62fa919b39fe7a3ec9757a81,,Rowe,4922 12th Cv,Anaheim, CA,92806.0,2019-03-09 00:52:04+00:00,2020-09-16 20:33:50,DONOTCONTACT
70607,62fa919b39fe7a3ec9751b06,Caroline,Conley,1201 N 47th Cv,Douglasville, GA,30134.0,2020-08-17 13:24:46+00:00,2020-09-16 20:58:05,DONOTCONTACT
968,62fa919b39fe7a3ec9740aff,Krystal,Burke,2863 5th Blvd,Westmont, IL,60559.0,2020-09-08 07:31:25+00:00,2020-09-16 20:59:42,NEGATIVE
43012,62fa919b39fe7a3ec974af3b,Gale,Strickland,4235 E Oak Cv,Millington, TN,38053.0,2020-09-08 16:50:59+00:00,2020-09-16 21:11:10,DONOTCONTACT
5193,62fa919b39fe7a3ec9741b80,Susana,Jacobs,9094 Olsonvill Blvd,North Attleboro, MA,2760.0,2020-03-23 19:56:05+00:00,2020-09-16 21:48:41,UNSURE
37475,62fa919b39fe7a3ec974999a,Christi,Morton,6676 E Shelby Ave,Elizabeth City, NC,27909.0,2019-10-04 02:38:15+00:00,2020-09-16 21:53:10,UNSURE
27868,62fa919b39fe7a3ec9747413,Mayra,Wade,5748 Sharp Ln,North Attleboro, MA,2760.0,2019-09-29 17:59:17+00:00,2020-09-16 22:09:59,NEGATIVE
20034,62fa919b39fe7a3ec9745579,Dora,Bowers,642 Oak Ave,West Palm Beach, FL,33404.0,2019-12-27 13:04:07+00:00,2020-09-16 22:13:25,UNSURE
33301,62fa919b39fe7a3ec974894c,Raymond,Kramer,8406 Sunny Rd,Elizabeth City, NC,27909.0,2020-08-13 10:43:02+00:00,2020-09-16 22:44:46,UNSURE
2463,62fa919b39fe7a3ec97410d6,Dena,Harvey,8589 3rd Ln,Ossining, NY,10562.0,2019-01-05 15:58:48+00:00,2020-09-16 23:07:44,NEGATIVE
68002,62fa919b39fe7a3ec97510d9,Lois,Rowe,9408 Seaside Ave,Arvada, CO,80003.0,2020-08-13 17:27:27+00:00,2020-09-16 23:11:58,NEGATIVE
20687,62fa919b39fe7a3ec9745806,Jan,Alexander,5818 1st Ave,Lewis Center, OH,43035.0,2019-12-01 15:45:40+00:00,2020-09-16 23:47:22,DONOTCONTACT
41967,62fa919b39fe7a3ec974ab26,Juan,,3866 3rd Ln,Arvada, CO,80003.0,2020-05-18 06:34:50+00:00,2020-09-17 00:13:21,DONOTCONTACT
85781,62fa919b39fe7a3ec975564c,Sara,Terry,7260 Burbank Ln,Lewis Center, OH,43035.0,2020-02-17 23:03:52+00:00,2020-09-17 00:24:35,NEGATIVE
2204,62fa919b39fe7a3ec9740fd3,Dena,Roberts,9300 W 2nd Blvd,Hartford, CT,6106.0,2020-06-21 00:03:12+00:00,2020-09-17 00:34:06,UNSURE
44516,62fa919b39fe7a3ec974b51b,Scott,Schneider,9715 E Sunny Rd,Gastonia, NC,28052.0,2019-04-24 13:43:17+00:00,2020-09-17 00:41:24,DONOTCONTACT
98858,62fa919b39fe7a3ec9758961,Herman,Ball,1030 W Armstrong Cv,Douglasville, GA,30134.0,2019-01-21 15:14:39+00:00,2020-09-17 00:52:33,NEGATIVE
43700,62fa919b39fe7a3ec974b1eb,Christi,Grant,9661  St,Miami Gardens, FL,33056.0,2020-03-06 02:01:40+00:00,2020-09-17 01:13:08,DONOTCONTACT
52035,62fa919b39fe7a3ec974d27a,Jamie,Cahill,5136 Peter Cv,Camas, WA,98607.0,2020-07-01 00:54:22+00:00,2020-09-17 02:01:58,UNSURE
33664,62fa919b39fe7a3ec9748ab7,Hope,,8266 S Sharp Ave,Delaware, OH,43015.0,2020-03-07 13:06:06+00:00,2020-09-17 02:26:06,UNSURE
54091,62fa919b39fe7a3ec974da82,Sara,Robbins,2133 Sleepy Cv,Camp Hill, PA,17011.0,2020-02-29 22:22:40+00:00,2020-09-17 02:56:53,UNSURE
182,62fa919b39fe7a3ec97407ed,Christi,Andrade,8998 E 5th St,Quakertown, PA,18951.0,2020-09-10 06:46:14+00:00,2020-09-17 03:06:37,UNSURE
35509,62fa919b39fe7a3ec97491ec,Candy,Compton,5552 S Third Rd,Quakertown, PA,18951.0,2020-01-26 16:49:58+00:00,2020-09-17 03:14:37,NEGATIVE
2878,62fa919b39fe7a3ec9741275,Maria,Grant,2844 S Cherry Blvd,North Attleboro, MA,2760.0,2020-07-14 10:00:59+00:00,2020-09-17 03:14:52,NEGATIVE
16264,62fa919b39fe7a3ec97446bf,Todd,Wolfe,7996 N Glendale Rd,Douglasville, GA,30134.0,2019-12-27 20:57:04+00:00,2020-09-17 05:43:58,NEGATIVE
93615,62fa919b39fe7a3ec97574e6,Susana,Suarez,2647 Seaside Ave,Rocky Mount, NC,27804.0,2019-02-19 07:45:52+00:00,2020-09-17 07:05:00,NEGATIVE
23721,62fa919b39fe7a3ec97463e0,Cristina,Terrell,189 W Pratt Blvd,Moorhead, MN,56560.0,2019-01-27 21:58:08+00:00,2020-09-17 07:42:52,NEGATIVE
17171,62fa919b39fe7a3ec9744a4a,Candy,Church,4693 W Oak Dr,Oshkosh, WI,54901.0,2020-01-11 02:10:15+00:00,2020-09-17 08:43:34,NEGATIVE
50725,62fa919b39fe7a3ec974cd5c,Rene,Cahill,482 W 47th Rd,Schenectady, NY,12302.0,2019-06-15 18:30:39+00:00,2020-09-17 09:57:57,UNSURE
47907,62fa919b39fe7a3ec974c25a,Juana,Terry,402 N Main St,Melbourne, FL,32904.0,2020-06-22 16:52:11+00:00,2020-09-17 11:04:30,NEGATIVE
89902,62fa919b39fe7a3ec9756665,Hope,Hutchinson,7295 S  Dr,Delaware, OH,43015.0,2019-12-03 13:21:48+00:00,2020-09-17 11:12:58,DONOTCONTACT
31433,62fa919b39fe7a3ec9748200,Shane,Watson,2126 E Second St,Westmont, IL,60559.0,2020-07-20 11:07:47+00:00,2020-09-17 12:22:58,NEGATIVE
15372,62fa919b39fe7a3ec9744343,Shane,Cahill,6976 Shelby Ln,Mahwah, NJ,7430.0,2019-02-01 14:02:35+00:00,2020-09-17 13:55:03,NEGATIVE
72111,62fa919b39fe7a3ec97520e6,Candy,Suarez,8832 N Sunny Cv,Conyers, GA,30012.0,2019-03-08 08:21:59+00:00,2020-09-17 14:00:43,DONOTCONTACT
55565,62fa919b39fe7a3ec974e044,Dianna,Ayers,230 Elm Ave,Enfield, CT,6082.0,2020-01-10 22:24:16+00:00,2020-09-17 15:13:36,UNSURE
57128,62fa919b39fe7a3ec974e65f,Adriana,Case,3383 Elm Ave,Seattle, WA,98144.0,2020-02-19 09:43:06+00:00,2020-09-17 17:04:28,NEGATIVE
97713,62fa919b39fe7a3ec97584e8,Darla,French,8254 8th Ln,Madisonville, KY,42431.0,2019-05-28 18:19:36+00:00,2020-09-17 17:07:03,UNSURE
77357,62fa919b39fe7a3ec9753564,Jordan,Alexander,1583 E Lois Cv,Melbourne, FL,32904.0,2019-10-04 17:49:07+00:00,2020-09-17 17:07:24,NEGATIVE
76057,62fa919b39fe7a3ec9753050,Jan,Powers,8147 Fourth Ln,Patchogue, NY,11772.0,2019-10-07 12:54:55+00:00,2020-09-17 18:21:14,UNSURE
546,62fa919b39fe7a3ec9740959,Juana,Conley,7044 S Second St,Lewis Center, OH,43035.0,2019-01-21 22:33:34+00:00,2020-09-17 18:40:52,UNSURE
28124,62fa919b39fe7a3ec9747513,Lois,Proctor,3446 S Burbank Ave,Westport, CT,6880.0,2020-07-27 12:50:12+00:00,2020-09-17 18:59:27,UNSURE
94534,62fa919b39fe7a3ec975787d,Cristina,Farrell,9862 Martin Luther King St,Ossining, NY,10562.0,2020-09-08 17:34:39+00:00,2020-09-17 19:06:42,NEGATIVE
84379,62fa919b39fe7a3ec97550d2,Darla,Watson,9081 W Faith Ln,Douglasville, GA,30134.0,2020-06-16 16:02:52+00:00,2020-09-17 20:52:02,NEGATIVE
53140,62fa919b39fe7a3ec974d6cb,Gale,Morton,3404 Fourth Ln,Enfield, CT,6082.0,2019-12-03 05:01:48+00:00,2020-09-17 21:08:25,DONOTCONTACT
46746,62fa919b39fe7a3ec974bdd1,Ingrid,Ayers,7319 S Glenn Ln,Gastonia, NC,28052.0,2020-05-27 11:22:50+00:00,2020-09-17 21:14:36,DONOTCONTACT
99714,62fa919b39fe7a3ec9758cb9,Ingrid,Watson,6762 N 12th St,West Fargo, ND,58078.0,2020-05-05 12:47:33+00:00,2020-09-17 22:28:47,DONOTCONTACT
93073,62fa919b39fe7a3ec97572c8,Calvin,Strickland,5334 Lois Cv,New Albany, IN,47150.0,2019-05-20 07:40:30+00:00,2020-09-17 22:50:51,NEGATIVE
485,62fa919b39fe7a3ec974091c,Terry,Rowe,3749 Shelby Blvd,Paterson, NJ,7501.0,2019-01-04 03:07:13+00:00,2020-09-18 00:24:56,UNSURE
47259,62fa919b39fe7a3ec974bfd2,Shane,Cahill,108 Third St,Mchenry, IL,60050.0,2020-03-22 13:22:57+00:00,2020-09-18 01:15:32,UNSURE
73177,62fa919b39fe7a3ec9752510,Jan,Hutchinson,3084 Glenn Ave,Delaware, OH,43015.0,2020-01-14 19:57:17+00:00,2020-09-18 01:22:42,DONOTCONTACT
15998,62fa919b39fe7a3ec97445b5,Jamie,Morton,152 E Seaside Blvd,Phillipsburg, NJ,8865.0,2019-11-19 14:20:28+00:00,2020-09-18 01:29:37,DONOTCONTACT
34133,62fa919b39fe7a3ec9748c8c,Herman,Watson,8239 Mount Pleasant Rd,North Attleboro, MA,2760.0,2019-08-31 09:30:22+00:00,2020-09-18 02:36:30,DONOTCONTACT
26527,62fa919b39fe7a3ec9746ed6,Chris,Moody,5653 Glen St,Mchenry, IL,60050.0,2020-08-12 22:13:22+00:00,2020-09-18 02:56:32,UNSURE
50763,62fa919b39fe7a3ec974cd82,Calvin,Terry,5984 Shelby Rd,Richardson, TX,75080.0,2019-04-05 17:21:47+00:00,2020-09-18 03:21:58,UNSURE
47706,62fa919b39fe7a3ec974c191,Caroline,Grant,1942 W 3rd Dr,Arvada, CO,80003.0,2020-03-13 08:29:00+00:00,2020-09-18 03:31:51,UNSURE
77748,62fa919b39fe7a3ec97536eb,Clarence,,6246 Maple St,Camp Hill, PA,17011.0,2019-11-28 11:09:41+00:00,2020-09-18 03:49:27,NEGATIVE
10952,62fa919b39fe7a3ec97431ff,Susana,Terrell,9085 E Pine St,Phillipsburg, NJ,8865.0,2020-08-21 08:46:22+00:00,2020-09-18 04:08:51,DONOTCONTACT
87627,62fa919b39fe7a3ec9755d82,Hope,Hutchinson,4646 6th St,Douglasville, GA,30134.0,2019-10-30 03:58:26+00:00,2020-09-18 04:55:41,DONOTCONTACT
4867,62fa919b39fe7a3ec9741a3a,Chris,French,9920 Ethel Ave,Mchenry, IL,60050.0,2019-10-08 15:49:58+00:00,2020-09-18 06:08:06,DONOTCONTACT
12448,62fa919b39fe7a3ec97437d7,Hope,Wade,8522 Second St,Kalamazoo, MI,49009.0,2019-08-05 19:45:03+00:00,2020-09-18 06:10:03,UNSURE
97564,62fa919b39fe7a3ec9758453,Caroline,Terry,1155 E Seaside Dr,Anaheim, CA,92806.0,2019-05-30 09:49:30+00:00,2020-09-18 06:22:24,DONOTCONTACT
50175,62fa919b39fe7a3ec974cb36,Calvin,Snell,3909 Sleepy Rd,Ossining, NY,10562.0,2019-10-02 04:58:10+00:00,2020-09-18 09:21:25,DONOTCONTACT
42041,62fa919b39fe7a3ec974ab70,Michele,Andrade,2218 Poplar Dr,Garfield, NJ,7026.0,2020-09-07 08:32:01+00:00,2020-09-18 09:41:07,DONOTCONTACT
53854,62fa919b39fe7a3ec974d995,Robyn,Cahill,7865 Sharp Blvd,Anaheim, CA,92806.0,2019-06-10 18:12:38+00:00,2020-09-18 10:58:18,DONOTCONTACT
30194,62fa919b39fe7a3ec9747d29,Young,Robbins,4471 Fourth Dr,Mahwah, NJ,7430.0,2020-03-31 17:36:26+00:00,2020-09-18 11:03:46,NEGATIVE
44833,62fa919b39fe7a3ec974b658,Clarence,Phillips,5701 E 5th Blvd,Arvada, CO,80003.0,2020-07-04 13:12:06+00:00,2020-09-18 11:46:39,NEGATIVE
26458,62fa919b39fe7a3ec9746e91,Kristina,Jacobs,4121 W Olsonvill Cv,Camp Hill, PA,17011.0,2019-02-24 04:39:11+00:00,2020-09-18 12:34:15,NEGATIVE
28842,62fa919b39fe7a3ec97477e1,Ernest,,5324 W Cedar Ave,Moorhead, MN,56560.0,2020-07-25 23:12:07+00:00,2020-09-18 12:43:41,NEGATIVE
32056,62fa919b39fe7a3ec974846f,Dena,Jacobs,4568 W Maple Cv,Stillwater, MN,55082.0,2019-08-21 01:27:09+00:00,2020-09-18 13:15:49,DONOTCONTACT
12803,62fa919b39fe7a3ec974393a,Caroline,Burke,9959 Pratt Ave,West Fargo, ND,58078.0,2019-08-30 17:14:00+00:00,2020-09-18 13:54:51,NEGATIVE
41479,62fa919b39fe7a3ec974a93e,Clarence,Snell,1023 Shelby Dr,New Philadelphia, OH,44663.0,2020-03-10 14:52:23+00:00,2020-09-18 13:59:07,UNSURE
24628,62fa919b39fe7a3ec974676b,Raymond,Harvey,1743 S 6th Ave,Garfield, NJ,7026.0,2019-06-16 13:15:50+00:00,2020-09-18 14:47:12,NEGATIVE
56463,62fa919b39fe7a3ec974e3c6,Cecilia,Ball,1991 E 47th Ave,Enfield, CT,6082.0,2020-05-08 05:06:37+00:00,2020-09-18 15:30:23,UNSURE
69596,62fa919b39fe7a3ec9751713,Juan,Snell,7799 N 5th Dr,Millington, TN,38053.0,2019-06-21 02:03:55+00:00,2020-09-18 16:06:41,UNSURE
6645,62fa919b39fe7a3ec974212c,Young,Andrade,2336 N Third Rd,Paterson, NJ,7501.0,2020-02-25 15:51:34+00:00,2020-09-18 16:29:27,NEGATIVE
99306,62fa919b39fe7a3ec9758b21,Calvin,French,7941 Riverside Cv,West Fargo, ND,58078.0,2019-08-03 02:19:46+00:00,2020-09-18 16:32:54,NEGATIVE
56025,62fa919b39fe7a3ec974e210,Cecelia,Stone,890 W Sharp Ln,Westport, CT,6880.0,2020-06-29 02:25:08+00:00,2020-09-18 17:48:23,DONOTCONTACT
31007,62fa919b39fe7a3ec9748056,Marion,Roberts,1544 S Lois St,Delaware, OH,43015.0,2019-02-21 23:14:10+00:00,2020-09-18 18:15:29,DONOTCONTACT
91195,62fa919b39fe7a3ec9756b72,Raymond,Cassidy,9501 Daniel Cv,Millington, TN,38053.0,2020-01-27 22:58:07+00:00,2020-09-18 18:32:13,UNSURE
40553,62fa919b39fe7a3ec974a5a0,Lindsey,Watson,4900 Pine Dr,Westport, CT,6880.0,2019-12-23 02:47:39+00:00,2020-09-18 19:02:54,DONOTCONTACT
82770,62fa919b39fe7a3ec9754a89,Marion,Grant,6102 Sharp St,Camp Hill, PA,17011.0,2019-10-10 18:51:13+00:00,2020-09-18 20:11:04,NEGATIVE
38676,62fa919b39fe7a3ec9749e4b,Raymond,Morton,3122 Pratt Ave,Phillipsburg, NJ,8865.0,2020-09-08 20:49:54+00:00,2020-09-18 22:02:37,DONOTCONTACT
40383,62fa919b39fe7a3ec974a4f6,Sara,Benton,7282 Glenn Blvd,Westmont, IL,60559.0,2019-01-06 10:21:09+00:00,2020-09-18 22:38:27,UNSURE
72785,62fa919b39fe7a3ec9752388,Marion,Watson,1525 Purchase Dr,Camas, WA,98607.0,2020-03-26 02:33:38+00:00,2020-09-19 00:01:06,DONOTCONTACT
77124,62fa919b39fe7a3ec975347b,Dora,Snell,9235 W Seaside Ave,Mahwah, NJ,7430.0,2020-09-13 03:02:49+00:00,2020-09-19 02:20:19,UNSURE
16772,62fa919b39fe7a3ec97448bb,Chris,Wolfe,7410 E 3rd Dr,Richardson, TX,75080.0,2020-02-15 22:54:35+00:00,2020-09-19 02:57:11,UNSURE
12599,62fa919b39fe7a3ec974386e,Yvette,Sheppard,3931 W 47th Ave,Richardson, TX,75080.0,2019-10-09 04:01:32+00:00,2020-09-19 03:20:33,UNSURE
76207,62fa919b39fe7a3ec97530e6,Cecelia,Guthrie,5606 Daniel Ln,Phillipsburg, NJ,8865.0,2019-11-18 18:13:13+00:00,2020-09-19 03:49:05,NEGATIVE
66374,62fa919b39fe7a3ec9750a7d,Leanne,Craig,9975 W Elm Dr,West Fargo, ND,58078.0,2019-03-01 12:11:18+00:00,2020-09-19 03:49:25,DONOTCONTACT
65812,62fa919b39fe7a3ec975084b,Clarence,Bowers,3298 W Poplar Rd,Camp Hill, PA,17011.0,2019-08-13 00:44:13+00:00,2020-09-19 04:33:54,NEGATIVE
12968,62fa919b39fe7a3ec97439df,Juan,Ayers,2039 2nd Ln,Delaware, OH,43015.0,2019-04-15 13:03:17+00:00,2020-09-19 04:43:54,UNSURE
89343,62fa919b39fe7a3ec9756436,Adriana,Craig,7780 S Pratt Ave,Douglasville, GA,30134.0,2020-05-19 13:31:19+00:00,2020-09-19 04:53:32,DONOTCONTACT
11558,62fa919b39fe7a3ec974345d,Maria,Terry,7798 N Pine Rd,Conyers, GA,30012.0,2020-08-08 01:49:35+00:00,2020-09-19 06:43:43,NEGATIVE
52999,62fa919b39fe7a3ec974d63e,Cecilia,Stone,8112 Olsonvill Ave,Westmont, IL,60559.0,2019-03-04 00:02:29+00:00,2020-09-19 07:15:09,DONOTCONTACT
43980,62fa919b39fe7a3ec974b303,Herman,Sheppard,1278 S Glendale Ave,Melbourne, FL,32904.0,2020-06-10 11:55:25+00:00,2020-09-19 07:25:21,DONOTCONTACT
98475,62fa919b39fe7a3ec97587e2,Shane,Kramer,7761 S Eighth Cv,Media, PA,19063.0,2019-07-10 23:33:28+00:00,2020-09-19 08:09:05,NEGATIVE
22744,62fa919b39fe7a3ec974600f,Jamie,Jacobs,1960 S Second Blvd,Miami Gardens, FL,33056.0,2020-08-26 12:53:21+00:00,2020-09-19 10:54:35,UNSURE
61737,62fa919b39fe7a3ec974f860,Cecilia,Donovan,5836 Poplar Ave,Garfield, NJ,7026.0,2020-08-14 22:56:07+00:00,2020-09-19 11:06:12,NEGATIVE
29750,62fa919b39fe7a3ec9747b6d,Michele,Ayers,5910 W Ethel Cv,West Fargo, ND,58078.0,2020-07-22 14:32:58+00:00,2020-09-19 11:24:28,NEGATIVE
96240,62fa919b39fe7a3ec9757f27,Chris,Carver,3708 E Riverside Blvd,New Albany, IN,47150.0,2019-02-09 14:31:06+00:00,2020-09-19 12:41:07,UNSURE
51640,62fa919b39fe7a3ec974d0ef,Juana,Strickland,5786 Mount Pleasant St,Lewis Center, OH,43035.0,2020-08-20 09:31:50+00:00,2020-09-19 13:30:48,UNSURE
87655,62fa919b39fe7a3ec9755d9e,Yvette,Stewart,1939 W Second Rd,Patchogue, NY,11772.0,2020-04-15 19:28:32+00:00,2020-09-19 13:57:06,UNSURE
64434,62fa919b39fe7a3ec97502e9,Darla,Conley,3721 E Fourth Ln,Mchenry, IL,60050.0,2019-12-13 05:43:29+00:00,2020-09-19 15:10:20,UNSURE
60237,62fa919b39fe7a3ec974f284,Kristina,Guthrie,6396 N Second Blvd,Mchenry, IL,60050.0,2019-12-08 15:24:19+00:00,2020-09-19 15:38:00,UNSURE
47252,62fa919b39fe7a3ec974bfcb,Mayra,Burke,4311 5th Rd,Quakertown, PA,18951.0,2019-01-02 10:32:51+00:00,2020-09-19 16:01:29,DONOTCONTACT
85900,62fa919b39fe7a3ec97556c3,Ernest,Stewart,6320 Oak Dr,West Fargo, ND,58078.0,2019-05-09 02:27:31+00:00,2020-09-19 16:10:50,UNSURE
28919,62fa919b39fe7a3ec974782e,Scott,Case,2346 E Riverside Blvd,Lewis Center, OH,43035.0,2019-08-22 01:47:28+00:00,2020-09-19 16:37:13,DONOTCONTACT
29790,62fa919b39fe7a3ec9747b95,Susana,Harvey,2095 Glen St,Westport, CT,6880.0,2019-09-17 08:50:48+00:00,2020-09-19 16:38:58,UNSURE
1577,62fa919b39fe7a3ec9740d60,Maria,Lake,8763 5th Blvd,New Albany, IN,47150.0,2019-06-09 16:56:31+00:00,2020-09-19 17:16:42,NEGATIVE
67323,62fa919b39fe7a3ec9750e32,Sara,Carver,9248 Sleepy Cv,Millington, TN,38053.0,2019-08-21 17:12:16+00:00,2020-09-19 17:37:09,NEGATIVE
37301,62fa919b39fe7a3ec97498ec,Hope,Farrell,9971 Oak Cv,West Fargo, ND,58078.0,2019-11-22 07:43:15+00:00,2020-09-19 19:19:50,NEGATIVE
52248,62fa919b39fe7a3ec974d34f,Young,Case,7359 W Cedar Cv,Lewis Center, OH,43035.0,2019-06-10 17:04:19+00:00,2020-09-19 19:30:05,NEGATIVE
10616,62fa919b39fe7a3ec97430af,Dena,Church,634 Burbank Ln,Kalamazoo, MI,49009.0,2020-09-02 15:18:17+00:00,2020-09-19 20:00:36,DONOTCONTACT
57052,62fa919b39fe7a3ec974e613,Dora,Suarez,9715 Crystal Ave,Ossining, NY,10562.0,2020-05-01 15:33:42+00:00,2020-09-19 20:26:26,DONOTCONTACT
28904,62fa919b39fe7a3ec974781f,Hope,Farrell,1514 S Poplar Dr,Westmont, IL,60559.0,2020-08-08 06:48:51+00:00,2020-09-19 20:29:32,NEGATIVE
26962,62fa919b39fe7a3ec9747089,Scott,Carver,5497 Riverside Ave,Hartford, CT,6106.0,2019-02-03 07:24:03+00:00,2020-09-19 23:52:02,DONOTCONTACT
95334,62fa919b39fe7a3ec9757b9d,Calvin,Bassett,6071 12th Ave,Melbourne, FL,32904.0,2019-07-01 04:01:22+00:00,2020-09-20 00:38:02,NEGATIVE
17323,62fa919b39fe7a3ec9744ae2,Dora,Conley,8092 E Sharp St,Madisonville, KY,42431.0,2020-08-23 19:07:28+00:00,2020-09-20 04:59:39,DONOTCONTACT
9924,62fa919b39fe7a3ec9742dfb,Susana,Watson,2687 S Sleepy Ln,New Albany, IN,47150.0,2019-02-21 01:05:11+00:00,2020-09-20 06:06:00,DONOTCONTACT
37051,62fa919b39fe7a3ec97497f2,Dora,Kramer,2842 Samuel Dr,Camp Hill, PA,17011.0,2019-11-21 07:36:41+00:00,2020-09-20 06:18:51,UNSURE
46681,62fa919b39fe7a3ec974bd90,Shane,Lake,4338 W Cedar Cv,Rocky Mount, NC,27804.0,2020-06-07 07:07:28+00:00,2020-09-20 06:38:40,NEGATIVE
22877,62fa919b39fe7a3ec9746094,Robyn,Terrell,4693 Fourth Cv,Seattle, WA,98144.0,2020-07-17 02:11:08+00:00,2020-09-20 07:40:20,UNSURE
73952,62fa919b39fe7a3ec9752817,Krystal,Bassett,5241 1st Cv,Olive Branch, MS,38654.0,2020-01-12 03:13:41+00:00,2020-09-20 07:59:15,UNSURE
95413,62fa919b39fe7a3ec9757bec,Leanne,Dwyer,8732 W Lois Rd,Camas, WA,98607.0,2020-08-22 06:30:25+00:00,2020-09-20 08:00:31,NEGATIVE
75315,62fa919b39fe7a3ec9752d6a,Rich,Pollard,8309 S Cedar Rd,Anaheim, CA,92806.0,2020-02-15 07:59:40+00:00,2020-09-20 10:11:47,UNSURE
19898,62fa919b39fe7a3ec97454f1,Jamie,Alexander,8722 N Sleepy Rd,Westport, CT,6880.0,2019-09-20 08:34:16+00:00,2020-09-20 10:23:13,DONOTCONTACT
32894,62fa919b39fe7a3ec97487b5,Cristina,Terry,7350 8th St,Phillipsburg, NJ,8865.0,2019-08-22 10:48:23+00:00,2020-09-20 10:42:47,DONOTCONTACT
22320,62fa919b39fe7a3ec9745e67,Dena,Conley,1391 Martin Luther King Cv,West Fargo, ND,58078.0,2019-07-08 09:43:56+00:00,2020-09-20 10:54:32,NEGATIVE
43927,62fa919b39fe7a3ec974b2ce,Cristina,Compton,9560 S Eighth St,Schenectady, NY,12302.0,2019-11-10 03:15:47+00:00,2020-09-20 11:20:39,UNSURE
56935,62fa919b39fe7a3ec974e59e,Samuel,Phillips,7351 Armstrong Dr,New Philadelphia, OH,44663.0,2019-08-29 07:23:07+00:00,2020-09-20 11:23:43,UNSURE
388,62fa919b39fe7a3ec97408bb,Sara,Hinton,5984 N Peter Rd,Garfield, NJ,7026.0,2020-09-17 02:22:02+00:00,2020-09-20 11:44:26,NEGATIVE
37151,62fa919b39fe7a3ec9749856,Jessica,Farrell,8997 N Second St,Enfield, CT,6082.0,2019-04-03 19:34:03+00:00,2020-09-20 13:48:51,DONOTCONTACT
88086,62fa919b39fe7a3ec9755f4d,Cecilia,Ball,7628 S Eighth Cv,Olive Branch, MS,38654.0,2020-02-18 11:22:12+00:00,2020-09-20 15:29:58,DONOTCONTACT
80136,62fa919b39fe7a3ec975403f,Michele,Proctor,6031 Cedar Dr,Phillipsburg, NJ,8865.0,2020-02-25 09:03:32+00:00,2020-09-20 17:11:32,DONOTCONTACT
49831,62fa919b39fe7a3ec974c9de,Gale,Grant,6170 E 4th Ave,North Attleboro, MA,2760.0,2019-07-11 17:01:50+00:00,2020-09-20 18:13:44,UNSURE
46876,62fa919b39fe7a3ec974be53,Shane,Farrell,6971 W Main Cv,Melbourne, FL,32904.0,2019-02-10 02:11:22+00:00,2020-09-20 18:24:20,DONOTCONTACT
16811,62fa919b39fe7a3ec97448e2,Todd,Bowers,6186 Peter Ave,Rocky Mount, NC,27804.0,2020-04-17 02:48:47+00:00,2020-09-20 18:26:11,UNSURE
20847,62fa919b39fe7a3ec97458a6,Sara,French,2685 Pratt Dr,Phillipsburg, NJ,8865.0,2020-09-18 03:48:20+00:00,2020-09-20 18:27:18,UNSURE
57903,62fa919b39fe7a3ec974e966,Rene,Hinton,2356 Glenn Blvd,Lewis Center, OH,43035.0,2019-09-04 12:35:15+00:00,2020-09-20 19:05:36,DONOTCONTACT
10076,62fa919b39fe7a3ec9742e93,Rolando,Compton,9911 E Second St,Rocky Mount, NC,27804.0,2020-01-27 18:00:07+00:00,2020-09-20 19:10:37,DONOTCONTACT
50474,62fa919b39fe7a3ec974cc61,Adriana,Watson,2094 1st Dr,Paterson, NJ,7501.0,2020-01-22 09:16:34+00:00,2020-09-20 19:26:06,NEGATIVE
37405,62fa919b39fe7a3ec9749954,Dianna,Conley,9073 Martin Luther King Blvd,Mchenry, IL,60050.0,2019-05-21 11:58:05+00:00,2020-09-20 21:12:08,DONOTCONTACT
5284,62fa919b39fe7a3ec9741bdb,Dora,Conley,4158 Poplar Rd,Conyers, GA,30012.0,2020-08-10 18:28:31+00:00,2020-09-20 21:12:28,UNSURE
92679,62fa919b39fe7a3ec975713e,Yvette,Strickland,5353 W  Dr,Mechanicsville, VA,23111.0,2019-04-22 23:09:11+00:00,2020-09-20 21:27:56,UNSURE
38820,62fa919b39fe7a3ec9749edb,Lindsey,Stewart,608 Oak Blvd,Rocky Mount, NC,27804.0,2019-12-09 05:13:14+00:00,2020-09-20 21:28:31,UNSURE
32839,62fa919b39fe7a3ec974877e,Dena,Kramer,2136  Ln,Madison, AL,35758.0,2019-12-18 18:55:04+00:00,2020-09-20 22:07:22,UNSURE
67110,62fa919b39fe7a3ec9750d5d,Sara,Church,8879 N Sunny Ave,Lewis Center, OH,43035.0,2020-08-29 17:38:49+00:00,2020-09-20 22:20:37,NEGATIVE
35991,62fa919b39fe7a3ec97493ce,Michele,Alexander,6343 Main Dr,Mahwah, NJ,7430.0,2019-07-27 02:47:14+00:00,2020-09-20 22:30:16,DONOTCONTACT
2975,62fa919b39fe7a3ec97412d6,Marion,Hutchinson,3456 Glendale Cv,Westport, CT,6880.0,2019-05-25 08:08:33+00:00,2020-09-20 22:54:31,UNSURE
95846,62fa919b39fe7a3ec9757d9d,Mayra,Burke,7480 S 8th Ln,Hixson, TN,37343.0,2019-03-06 12:10:56+00:00,2020-09-20 23:05:04,NEGATIVE
75971,62fa919b39fe7a3ec9752ffa,Gale,Guthrie,9534 Glenn St,Gastonia, NC,28052.0,2019-10-06 03:17:50+00:00,2020-09-20 23:46:24,DONOTCONTACT
57548,62fa919b39fe7a3ec974e803,Juana,Bowers,3827 W 47th Ln,Douglasville, GA,30134.0,2020-06-13 22:37:07+00:00,2020-09-20 23:49:12,DONOTCONTACT
9257,62fa919b39fe7a3ec9742b60,Yvette,Conley,5120 W Cherry Ln,Millington, TN,38053.0,2019-11-11 04:49:48+00:00,2020-09-20 23:51:57,UNSURE
55875,62fa919b39fe7a3ec974e17a,Todd,Moody,7925 Pine Blvd,West Fargo, ND,58078.0,2019-03-24 09:48:59+00:00,2020-09-21 01:33:08,UNSURE
64622,62fa919b39fe7a3ec97503a5,Scott,Carver,4690 Faith Blvd,West Fargo, ND,58078.0,2020-06-13 03:44:30+00:00,2020-09-21 02:24:24,UNSURE
65717,62fa919b39fe7a3ec97507ec,Dora,Ayers,3192 Olsonvill Ave,Delaware, OH,43015.0,2020-06-05 00:21:29+00:00,2020-09-21 04:21:06,UNSURE
91521,62fa919b39fe7a3ec9756cb8,Susana,Carver,5478 Poplar Ave,Camp Hill, PA,17011.0,2020-05-21 02:05:30+00:00,2020-09-21 06:59:54,NEGATIVE
98551,62fa919b39fe7a3ec975882e,Shane,Moody,8724 47th Cv,Oshkosh, WI,54901.0,2020-05-14 08:16:50+00:00,2020-09-21 08:17:54,DONOTCONTACT
87225,62fa919b39fe7a3ec9755bf0,Rich,Dwyer,1799 E Peter Rd,Stillwater, MN,55082.0,2019-12-21 16:41:03+00:00,2020-09-21 08:30:11,DONOTCONTACT
38393,62fa919b39fe7a3ec9749d30,Terry,Moody,3677 W Main Rd,Anaheim, CA,92806.0,2020-04-27 18:55:28+00:00,2020-09-21 09:44:05,DONOTCONTACT
60967,62fa919b39fe7a3ec974f55e,Irene,Roberts,7191 E Faith Ln,West Fargo, ND,58078.0,2020-01-02 02:16:35+00:00,2020-09-21 10:24:14,DONOTCONTACT
58145,62fa919b39fe7a3ec974ea58,Cecelia,Donovan,3336 W Samuel Rd,Conyers, GA,30012.0,2020-06-29 15:05:22+00:00,2020-09-21 10:25:56,UNSURE
14366,62fa919b39fe7a3ec9743f55,Deborah,Roberts,7857 N 8th St,Olive Branch, MS,38654.0,2019-07-06 00:34:21+00:00,2020-09-21 12:06:38,UNSURE
56843,62fa919b39fe7a3ec974e542,Sara,Cassidy,568 Peter Ln,Madison, AL,35758.0,2019-09-21 06:52:56+00:00,2020-09-21 12:22:27,DONOTCONTACT
33116,62fa919b39fe7a3ec9748893,Lois,Sheppard,415 N Poplar Ln,Gastonia, NC,28052.0,2020-09-08 19:39:03+00:00,2020-09-21 13:11:15,DONOTCONTACT
56226,62fa919b39fe7a3ec974e2d9,Caroline,Moody,4384 Glendale St,New Philadelphia, OH,44663.0,2020-04-02 12:59:54+00:00,2020-09-21 13:30:11,NEGATIVE
51925,62fa919b39fe7a3ec974d20c,Christi,Guthrie,9550 Peter St,Lewis Center, OH,43035.0,2019-04-22 03:34:53+00:00,2020-09-21 15:05:10,NEGATIVE
73648,62fa919b39fe7a3ec97526e7,Cristina,Powers,4906 Martin Luther King Ln,Douglasville, GA,30134.0,2019-07-11 19:40:04+00:00,2020-09-21 15:22:04,NEGATIVE
29357,62fa919b39fe7a3ec97479e4,Herman,Bowers,1286 W Sleepy Blvd,Camp Hill, PA,17011.0,2020-02-26 03:57:38+00:00,2020-09-21 15:44:33,UNSURE
52892,62fa919b39fe7a3ec974d5d3,Terry,Roberts,1313 6th Ln,Patchogue, NY,11772.0,2019-11-05 02:45:58+00:00,2020-09-21 16:06:38,DONOTCONTACT
84144,62fa919b39fe7a3ec9754fe7,Dena,Hutchinson,1206 Eighth Ln,Millington, TN,38053.0,2019-09-28 13:35:28+00:00,2020-09-21 16:34:47,UNSURE
16933,62fa919b39fe7a3ec974495c,Raymond,Watson,3619 N 4th Ln,Stillwater, MN,55082.0,2019-06-13 06:33:35+00:00,2020-09-21 16:46:38,NEGATIVE
83128,62fa919b39fe7a3ec9754bef,Shane,Pollard,520 2nd Dr,Hartford, CT,6106.0,2020-07-25 03:28:05+00:00,2020-09-21 18:20:00,DONOTCONTACT
28541,62fa919b39fe7a3ec97476b4,Darla,Powers,3944 Main Cv,Phillipsburg, NJ,8865.0,2020-08-12 01:46:01+00:00,2020-09-21 18:24:19,UNSURE
24228,62fa919b39fe7a3ec97465db,Juan,Stone,5793 6th Dr,Rocky Mount, NC,27804.0,2020-08-01 00:46:26+00:00,2020-09-21 18:34:52,NEGATIVE
76835,62fa919b39fe7a3ec975335a,Herman,Andrade,7547 W Crystal Ave,New Albany, IN,47150.0,2020-04-20 13:39:59+00:00,2020-09-21 18:46:12,NEGATIVE
67503,62fa919b39fe7a3ec9750ee6,Juan,Wade,8202 Olsonvill Rd,Media, PA,19063.0,2019-09-01 07:59:28+00:00,2020-09-21 19:03:29,UNSURE
33156,62fa919b39fe7a3ec97488bb,Juana,Dwyer,1117 Glen Ln,Patchogue, NY,11772.0,2020-06-13 16:24:43+00:00,2020-09-21 20:08:41,DONOTCONTACT
97219,62fa919b39fe7a3ec97582fa,Cecilia,Benton,1172 E 1st St,Hartford, CT,6106.0,2019-12-07 13:18:01+00:00,2020-09-21 21:18:27,DONOTCONTACT
69794,62fa919b39fe7a3ec97517d9,Lindsey,Farrell,2554 Pratt Ave,Clearwater, FL,33756.0,2019-09-20 16:19:40+00:00,2020-09-21 21:42:33,NEGATIVE
6952,62fa919b39fe7a3ec974225f,Calvin,Stewart,5460 S Sunny Ln,Westmont, IL,60559.0,2020-03-08 05:10:20+00:00,2020-09-21 21:53:07,UNSURE
20658,62fa919b39fe7a3ec97457e9,Michele,Stewart,2204 Glen Ln,Westport, CT,6880.0,2019-11-28 17:46:29+00:00,2020-09-21 21:55:31,UNSURE
71325,62fa919b39fe7a3ec9751dd4,Jessica,Wade,5542 Armstrong Rd,Gastonia, NC,28052.0,2020-08-05 20:49:07+00:00,2020-09-21 22:08:01,DONOTCONTACT
38230,62fa919b39fe7a3ec9749c8d,Chris,Lake,921 Pratt Cv,Madison, AL,35758.0,2020-04-23 17:39:19+00:00,2020-09-21 22:25:43,UNSURE
69705,62fa919b39fe7a3ec9751780,Christi,Suarez,8008 Third Cv,Conyers, GA,30012.0,2020-06-10 09:58:49+00:00,2020-09-21 23:14:14,UNSURE
77839,62fa919b39fe7a3ec9753746,Adriana,Proctor,2755 Third Ln,West Palm Beach, FL,33404.0,2020-03-09 05:24:02+00:00,2020-09-22 00:19:58,DONOTCONTACT
48406,62fa919b39fe7a3ec974c44d,Terry,Dwyer,2537 12th Cv,Richardson, TX,75080.0,2020-09-09 04:45:12+00:00,2020-09-22 00:25:44,UNSURE
73237,62fa919b39fe7a3ec975254c,Adriana,Harvey,1129 Daniel St,Quakertown, PA,18951.0,2020-03-29 01:57:01+00:00,2020-09-22 01:49:32,NEGATIVE
25448,62fa919b39fe7a3ec9746a9f,Jamie,Sheppard,2538 W Eighth Ln,Pearl, MS,39208.0,2020-07-30 01:37:02+00:00,2020-09-22 02:18:27,UNSURE
69083,62fa919b39fe7a3ec9751512,Dora,Dwyer,1962 Armstrong Blvd,Arvada, CO,80003.0,2019-02-17 08:25:59+00:00,2020-09-22 04:39:27,DONOTCONTACT
2222,62fa919b39fe7a3ec9740fe5,Chris,Jacobs,6521 6th Ave,Kalamazoo, MI,49009.0,2019-08-12 04:36:51+00:00,2020-09-22 04:42:51,UNSURE
87900,62fa919b39fe7a3ec9755e93,Krystal,Cahill,3010 5th Ln,Millington, TN,38053.0,2020-07-22 23:16:25+00:00,2020-09-22 04:49:56,DONOTCONTACT
16306,62fa919b39fe7a3ec97446e9,Jamie,Cassidy,3538 Burbank Blvd,Schenectady, NY,12302.0,2020-02-29 03:37:02+00:00,2020-09-22 05:01:28,DONOTCONTACT
67757,62fa919b39fe7a3ec9750fe4,Dianna,Grant,7927 S 5th St,Madison, AL,35758.0,2019-12-20 09:58:45+00:00,2020-09-22 05:31:59,NEGATIVE
11186,62fa919b39fe7a3ec97432e9,Darla,Snell,5090 6th Dr,Richardson, TX,75080.0,2020-08-15 02:53:54+00:00,2020-09-22 06:21:14,UNSURE
34661,62fa919b39fe7a3ec9748e9c,Mayra,Robbins,684 E  Ln,Kalamazoo, MI,49009.0,2020-01-18 18:27:12+00:00,2020-09-22 06:55:24,DONOTCONTACT
93705,62fa919b39fe7a3ec9757540,Kristina,Cahill,5039 E Sunny Rd,Moorhead, MN,56560.0,2019-12-08 00:33:22+00:00,2020-09-22 07:37:45,DONOTCONTACT
64727,62fa919b39fe7a3ec975040e,Caroline,Hinton,9728 Second Dr,Westmont, IL,60559.0,2020-04-04 16:41:57+00:00,2020-09-22 07:44:53,DONOTCONTACT
62822,62fa919b39fe7a3ec974fc9d,Herman,Donovan,6586 Second Cv,Camas, WA,98607.0,2019-11-01 21:25:12+00:00,2020-09-22 08:32:20,DONOTCONTACT
85267,62fa919b39fe7a3ec975544a,Gale,Wolfe,7341 Purchase St,Madisonville, KY,42431.0,2020-06-24 07:46:00+00:00,2020-09-22 08:44:20,DONOTCONTACT
24296,62fa919b39fe7a3ec974661f,Young,Lake,3850 Martin Luther King Ln,Seattle, WA,98144.0,2020-04-05 22:29:57+00:00,2020-09-22 10:19:21,NEGATIVE
93479,62fa919b39fe7a3ec975745e,Caroline,Proctor,4045 W Fourth Rd,Olive Branch, MS,38654.0,2019-01-27 10:06:49+00:00,2020-09-22 10:22:50,UNSURE
55394,62fa919b39fe7a3ec974df99,Lois,Jacobs,6010 Daniel St,Patchogue, NY,11772.0,2020-07-20 18:03:12+00:00,2020-09-22 10:41:20,UNSURE
35081,62fa919b39fe7a3ec9749040,Darla,Proctor,5368 5th Cv,Miami Gardens, FL,33056.0,2019-07-09 18:55:26+00:00,2020-09-22 10:43:01,DONOTCONTACT
16597,62fa919b39fe7a3ec974480c,Raymond,Hutchinson,810 1st Blvd,Madisonville, KY,42431.0,2019-05-10 13:13:29+00:00,2020-09-22 13:12:55,NEGATIVE
82622,62fa919b39fe7a3ec97549f5,Robyn,Morton,221 Cherry Dr,Mechanicsville, VA,23111.0,2020-04-01 22:43:24+00:00,2020-09-22 13:14:46,DONOTCONTACT
7418,62fa919b39fe7a3ec9742431,Rich,Sheppard,3371 E Mount Pleasant Ave,Mahwah, NJ,7430.0,2020-02-28 04:16:44+00:00,2020-09-22 13:16:45,NEGATIVE
76160,62fa919b39fe7a3ec97530b7,,Andrade,7447 Poplar Ave,Olive Branch, MS,38654.0,2019-10-05 00:57:55+00:00,2020-09-22 13:53:22,DONOTCONTACT
29036,62fa919b39fe7a3ec97478a3,Lindsey,Bowers,6812 Pine Ave,Seymour, IN,47274.0,2020-09-20 06:12:27+00:00,2020-09-22 14:10:23,DONOTCONTACT
67422,62fa919b39fe7a3ec9750e95,Gale,Roberts,252 E 6th Blvd,Melbourne, FL,32904.0,2020-06-09 23:26:38+00:00,2020-09-22 15:36:38,NEGATIVE
63118,62fa919b39fe7a3ec974fdc5,Calvin,Terry,5529 N Olsonvill Dr,Madison, AL,35758.0,2019-12-29 11:53:49+00:00,2020-09-22 17:10:18,UNSURE
349,62fa919b39fe7a3ec9740894,Calvin,Strickland,9033 W 3rd Cv,Madison, AL,35758.0,2019-07-16 17:24:25+00:00,2020-09-22 18:18:13,DONOTCONTACT
3152,62fa919b39fe7a3ec9741387,Lindsey,Cahill,2182 E 3rd Ave,Patchogue, NY,11772.0,2019-11-21 03:51:03+00:00,2020-09-22 18:25:00,NEGATIVE
97282,62fa919b39fe7a3ec9758339,Maria,Ayers,4964 Poplar Cv,Stillwater, MN,55082.0,2020-09-13 01:42:15+00:00,2020-09-22 18:48:07,UNSURE
52697,62fa919b39fe7a3ec974d510,Rene,Watson,1996 W Martin Luther King Ln,Media, PA,19063.0,2019-10-20 03:06:21+00:00,2020-09-22 19:59:42,DONOTCONTACT
51750,62fa919b39fe7a3ec974d15d,Susana,Proctor,5282 Maple Cv,West Fargo, ND,58078.0,2020-08-08 19:54:45+00:00,2020-09-22 20:31:56,DONOTCONTACT
89088,62fa919b39fe7a3ec9756337,Raymond,Hutchinson,8551 E 3rd Blvd,Media, PA,19063.0,2020-03-14 14:47:39+00:00,2020-09-22 21:04:34,DONOTCONTACT
71041,62fa919b39fe7a3ec9751cb8,,Wolfe,519 W Glendale Ln,Lewis Center, OH,43035.0,2019-09-30 21:14:14+00:00,2020-09-22 21:48:02,NEGATIVE
98010,62fa919b39fe7a3ec9758611,Maria,Snell,8959 Glenn Ln,Hartford, CT,6106.0,2020-07-24 19:32:47+00:00,2020-09-22 22:44:59,DONOTCONTACT
56436,62fa919b39fe7a3ec974e3ab,Kristina,Schneider,8786 N Pratt Ave,Clearwater, FL,33756.0,2020-08-03 23:34:14+00:00,2020-09-22 23:10:29,NEGATIVE
60418,62fa919b39fe7a3ec974f339,Mayra,Ayers,894 Riverside Ln,Millington, TN,38053.0,2020-07-31 10:54:57+00:00,2020-09-23 00:20:01,UNSURE
26811,62fa919b39fe7a3ec9746ff2,Calvin,Stone,4434 Third Ln,Marion, NC,28752.0,2020-07-16 00:39:06+00:00,2020-09-23 00:47:33,DONOTCONTACT
64783,62fa919b39fe7a3ec9750446,Cecilia,Cahill,4604 W 12th St,Clearwater, FL,33756.0,2020-09-18 04:24:13+00:00,2020-09-23 01:47:07,DONOTCONTACT
72389,62fa919b39fe7a3ec97521fc,Cristina,Bassett,5837 12th Dr,Enfield, CT,6082.0,2019-11-10 02:19:40+00:00,2020-09-23 01:58:25,NEGATIVE
89621,62fa919b39fe7a3ec975654c,Cecilia,Ball,9304 Elm Ave,Lewis Center, OH,43035.0,2020-05-19 08:11:05+00:00,2020-09-23 02:49:15,UNSURE
65552,62fa919b39fe7a3ec9750747,Juan,,9558 12th Blvd,Camp Hill, PA,17011.0,2020-08-11 13:43:20+00:00,2020-09-23 02:49:50,UNSURE
21746,62fa919b39fe7a3ec9745c29,Krystal,Watson,9779 8th Rd,Camas, WA,98607.0,2019-08-01 16:58:04+00:00,2020-09-23 04:13:59,NEGATIVE
73335,62fa919b39fe7a3ec97525ae,Todd,Grant,8587 E Poplar St,Camas, WA,98607.0,2020-07-23 15:40:24+00:00,2020-09-23 04:35:47,DONOTCONTACT
18512,62fa919b39fe7a3ec9744f87,Dianna,Stone,5233 Seaside Blvd,Jamaica, NY,11432.0,2019-09-16 05:23:30+00:00,2020-09-23 04:43:56,UNSURE
77142,62fa919b39fe7a3ec975348d,Cecilia,Snell,793 Maple Ave,Westmont, IL,60559.0,2020-09-01 17:23:29+00:00,2020-09-23 05:16:51,DONOTCONTACT
43603,62fa919b39fe7a3ec974b18a,Dianna,Andrade,6224 S Crystal Ave,New Albany, IN,47150.0,2020-09-21 15:48:09+00:00,2020-09-23 05:39:27,NEGATIVE
9603,62fa919b39fe7a3ec9742cba,Jessica,Lake,7662 Pratt Dr,Media, PA,19063.0,2019-11-25 11:09:50+00:00,2020-09-23 05:52:23,UNSURE
14151,62fa919b39fe7a3ec9743e7e,Terry,Bowers,6338 Faith St,Arvada, CO,80003.0,2020-07-19 15:58:59+00:00,2020-09-23 06:01:55,UNSURE
64127,62fa919b39fe7a3ec97501b6,Cristina,Carver,8938 Oak Cv,Garfield, NJ,7026.0,2019-07-09 19:46:00+00:00,2020-09-23 06:02:32,UNSURE
47579,62fa919b39fe7a3ec974c112,Rich,Sheppard,5698 Crystal Blvd,Lewis Center, OH,43035.0,2020-05-09 13:16:57+00:00,2020-09-23 06:03:38,NEGATIVE
46180,62fa919b39fe7a3ec974bb9b,Dena,Morton,5914 Daniel St,Delaware, OH,43015.0,2019-07-09 03:19:23+00:00,2020-09-23 06:24:49,DONOTCONTACT
68338,62fa919b39fe7a3ec9751229,Deborah,Grant,3366 Faith St,,,,2020-08-22 03:04:09+00:00,2020-09-23 06:31:55,DONOTCONTACT
54773,62fa919b39fe7a3ec974dd2c,Sara,Strickland,2858 E Second Ave,Lewis Center, OH,43035.0,2019-07-30 10:44:50+00:00,2020-09-23 07:13:36,DONOTCONTACT
67307,62fa919b39fe7a3ec9750e22,Jamie,Wolfe,1040 E Faith Rd,Enfield, CT,6082.0,2019-12-14 16:11:04+00:00,2020-09-23 07:56:31,DONOTCONTACT
77840,62fa919b39fe7a3ec9753747,Rene,Andrade,7783 W Mount Pleasant Ave,Garfield, NJ,7026.0,2019-08-31 20:39:05+00:00,2020-09-23 08:11:37,DONOTCONTACT
80973,62fa919b39fe7a3ec9754384,Ingrid,Rowe,199 N Armstrong Cv,Ottawa, IL,61350.0,2020-01-19 22:19:31+00:00,2020-09-23 08:18:48,UNSURE
67867,62fa919b39fe7a3ec9751052,Robyn,Schneider,1882 N Mount Pleasant Blvd,Seymour, IN,47274.0,2020-06-15 09:30:19+00:00,2020-09-23 08:52:02,DONOTCONTACT
55338,62fa919b39fe7a3ec974df61,Caroline,Church,9717 47th St,Mechanicsville, VA,23111.0,2020-09-21 17:49:00+00:00,2020-09-23 09:12:08,DONOTCONTACT
73780,62fa919b39fe7a3ec975276b,Shane,Stone,1279 1st Ln,Phillipsburg, NJ,8865.0,2019-03-08 13:11:32+00:00,2020-09-23 09:38:32,UNSURE
19334,62fa919b39fe7a3ec97452bd,Michele,Craig,6805  Ave,Anaheim, CA,92806.0,2019-08-15 08:04:50+00:00,2020-09-23 12:07:56,UNSURE
15537,62fa919b39fe7a3ec97443e8,Irene,Andrade,4132 Poplar Dr,Camp Hill, PA,17011.0,2020-04-16 18:23:57+00:00,2020-09-23 13:21:17,DONOTCONTACT
77499,62fa919b39fe7a3ec97535f2,Candy,Cassidy,5748 E Samuel Ln,Elizabeth City, NC,27909.0,2020-06-28 19:10:07+00:00,2020-09-23 13:33:22,NEGATIVE
75907,62fa919b39fe7a3ec9752fba,Jordan,Phillips,1821 Oak Cv,Madison, AL,35758.0,2019-11-09 14:53:27+00:00,2020-09-23 14:00:58,UNSURE
40343,62fa919b39fe7a3ec974a4ce,Kristina,Jacobs,9952 Glen Ave,Kalamazoo, MI,49009.0,2020-07-09 12:43:45+00:00,2020-09-23 15:13:54,DONOTCONTACT
10348,62fa919b39fe7a3ec9742fa3,Jamie,Schneider,149 S Burbank Ave,Douglasville, GA,30134.0,2019-03-04 02:27:14+00:00,2020-09-23 15:18:01,DONOTCONTACT
87936,62fa919b39fe7a3ec9755eb7,Samuel,Stone,6276 3rd Cv,Jamaica, NY,11432.0,2019-03-31 23:34:22+00:00,2020-09-23 16:05:32,NEGATIVE
69321,62fa919b39fe7a3ec9751600,Mayra,Powers,9236 E Cedar Blvd,West Fargo, ND,58078.0,2020-01-01 15:16:32+00:00,2020-09-23 16:23:18,UNSURE
19451,62fa919b39fe7a3ec9745332,Dianna,Terrell,8150 S Mount Pleasant Blvd,,,,2019-01-14 20:13:02+00:00,2020-09-23 16:27:09,NEGATIVE
43525,62fa919b39fe7a3ec974b13c,Michele,Benton,9374 Fourth St,North Attleboro, MA,2760.0,2019-11-17 00:17:26+00:00,2020-09-23 16:32:39,NEGATIVE
14110,62fa919b39fe7a3ec9743e55,Jan,Andrade,6818 Martin Luther King Dr,Miami Gardens, FL,33056.0,2019-11-15 15:52:22+00:00,2020-09-23 17:01:35,DONOTCONTACT
7840,62fa919b39fe7a3ec97425d7,Calvin,,4977 Seaside Ave,North Attleboro, MA,2760.0,2019-11-23 09:02:44+00:00,2020-09-23 17:12:01,NEGATIVE
87568,62fa919b39fe7a3ec9755d47,Robyn,Hinton,512 S Pine Blvd,Douglasville, GA,30134.0,2020-04-05 23:38:40+00:00,2020-09-23 18:00:33,UNSURE
29970,62fa919b39fe7a3ec9747c49,Irene,Suarez,5599 2nd Blvd,Olive Branch, MS,38654.0,2020-01-02 21:50:29+00:00,2020-09-23 18:30:51,DONOTCONTACT
6951,62fa919b39fe7a3ec974225e,Caroline,Carver,6246 W 1st Cv,Westport, CT,6880.0,2020-03-27 02:07:49+00:00,2020-09-23 19:19:44,UNSURE
17129,62fa919b39fe7a3ec9744a20,Sara,Andrade,2838 4th Rd,Oshkosh, WI,54901.0,2020-07-05 23:44:44+00:00,2020-09-23 19:28:36,UNSURE
33475,62fa919b39fe7a3ec97489fa,Maria,Bassett,6266 S 3rd Cv,Madisonville, KY,42431.0,2020-07-05 12:32:07+00:00,2020-09-23 19:57:56,NEGATIVE
76891,62fa919b39fe7a3ec9753392,Sara,Moody,2184 Mount Pleasant Cv,Gastonia, NC,28052.0,2020-08-04 21:31:13+00:00,2020-09-23 21:35:09,UNSURE
3486,62fa919b39fe7a3ec97414d5,Jessica,Dwyer,8751 E 3rd Cv,Miami Gardens, FL,33056.0,2020-09-03 21:06:30+00:00,2020-09-23 21:55:54,DONOTCONTACT
3758,62fa919b39fe7a3ec97415e5,Lindsey,Sheppard,9818 Cedar St,Schenectady, NY,12302.0,2020-08-25 14:58:07+00:00,2020-09-23 22:16:10,NEGATIVE
66016,62fa919b39fe7a3ec9750917,Michele,Burke,3628 Maple Ln,Olive Branch, MS,38654.0,2019-02-08 12:21:39+00:00,2020-09-23 22:20:32,UNSURE
63573,62fa919b39fe7a3ec974ff8c,Jan,Snell,4471 47th Ave,Olive Branch, MS,38654.0,2020-04-27 12:58:25+00:00,2020-09-23 22:57:48,NEGATIVE
52747,62fa919b39fe7a3ec974d542,Christi,Hinton,2854 Eighth Cv,Mchenry, IL,60050.0,2019-12-29 21:13:27+00:00,2020-09-23 23:18:39,DONOTCONTACT
64879,62fa919b39fe7a3ec97504a6,Rolando,Phillips,2702 S Cedar Cv,Hixson, TN,37343.0,2019-04-13 21:25:36+00:00,2020-09-23 23:37:54,NEGATIVE
88709,62fa919b39fe7a3ec97561bc,Raymond,Cahill,6674 8th Ln,Phillipsburg, NJ,8865.0,2020-03-24 11:41:03+00:00,2020-09-23 23:47:18,UNSURE
98258,62fa919b39fe7a3ec9758709,Chris,Schneider,1730 W Purchase St,Quakertown, PA,18951.0,2020-07-13 00:01:42+00:00,2020-09-23 23:50:18,NEGATIVE
99498,62fa919b39fe7a3ec9758be1,Sara,Pollard,9721 E Cherry Dr,Elizabeth City, NC,27909.0,2020-06-04 11:48:58+00:00,2020-09-24 00:14:15,UNSURE
53566,62fa919b39fe7a3ec974d875,Dora,Schneider,5069 E Second Rd,West Palm Beach, FL,33404.0,2019-05-19 19:36:28+00:00,2020-09-24 00:19:50,UNSURE
96348,62fa919b39fe7a3ec9757f93,Irene,Powers,8166 Elm Dr,Miami Gardens, FL,33056.0,2020-05-06 19:02:58+00:00,2020-09-24 02:29:40,DONOTCONTACT
62300,62fa919b39fe7a3ec974fa93,Deborah,Hinton,9103 Poplar Ave,Marion, NC,28752.0,2020-08-03 06:35:31+00:00,2020-09-24 03:15:58,NEGATIVE
2957,62fa919b39fe7a3ec97412c4,Leanne,Carver,2591 Burbank Rd,Garfield, NJ,7026.0,2020-04-10 08:32:20+00:00,2020-09-24 03:45:50,DONOTCONTACT
31502,62fa919b39fe7a3ec9748245,Shane,Conley,3165 N Sleepy St,Conyers, GA,30012.0,2020-09-02 08:53:17+00:00,2020-09-24 03:57:41,UNSURE
85841,62fa919b39fe7a3ec9755688,Verna,Donovan,4954 Main Dr,Westmont, IL,60559.0,2020-07-23 21:18:09+00:00,2020-09-24 05:36:44,UNSURE
77881,62fa919b39fe7a3ec9753770,Herman,Phillips,3496 S Oak Dr,Ottawa, IL,61350.0,2020-06-24 01:54:26+00:00,2020-09-24 05:52:30,DONOTCONTACT
29257,62fa919b39fe7a3ec9747980,Krystal,Pollard,5517 W Elm Rd,Patchogue, NY,11772.0,2019-12-16 04:09:53+00:00,2020-09-24 06:34:27,UNSURE
53457,62fa919b39fe7a3ec974d808,Hope,Carver,4673 E Shelby St,Quakertown, PA,18951.0,2019-05-01 11:53:22+00:00,2020-09-24 07:22:30,UNSURE
59015,62fa919b39fe7a3ec974edbe,Maria,Andrade,7545 Eighth Dr,Seattle, WA,98144.0,2019-01-15 20:10:53+00:00,2020-09-24 08:38:39,NEGATIVE
28921,62fa919b39fe7a3ec9747830,Verna,Cahill,8185 E 6th Dr,Ossining, NY,10562.0,2020-06-19 05:02:41+00:00,2020-09-24 09:28:21,NEGATIVE
14255,62fa919b39fe7a3ec9743ee6,Scott,Proctor,2575 S 3rd Rd,Gastonia, NC,28052.0,2019-07-13 00:10:19+00:00,2020-09-24 10:09:07,UNSURE
16622,62fa919b39fe7a3ec9744825,Marion,Donovan,6253 Oak Cv,Camas, WA,98607.0,2019-01-24 13:38:41+00:00,2020-09-24 10:14:22,NEGATIVE
51166,62fa919b39fe7a3ec974cf15,Jordan,Rowe,8411 Daniel Dr,Conyers, GA,30012.0,2020-01-17 15:08:39+00:00,2020-09-24 10:36:39,UNSURE
65274,62fa919b39fe7a3ec9750631,Cecilia,Kramer,2212 W Olsonvill Rd,Elizabeth City, NC,27909.0,2019-04-07 02:45:59+00:00,2020-09-24 11:24:07,DONOTCONTACT
11989,62fa919b39fe7a3ec974360c,Dena,Cassidy,6715 N Olsonvill Rd,Douglasville, GA,30134.0,2019-12-02 03:45:01+00:00,2020-09-24 12:05:43,DONOTCONTACT
66394,62fa919b39fe7a3ec9750a91,,Andrade,2901  Ln,Seattle, WA,98144.0,2020-08-09 07:59:39+00:00,2020-09-24 12:08:58,NEGATIVE
91270,62fa919b39fe7a3ec9756bbd,,Bowers,3959 Shelby St,Stillwater, MN,55082.0,2020-01-07 14:00:26+00:00,2020-09-24 12:17:35,DONOTCONTACT
66471,62fa919b39fe7a3ec9750ade,Candy,Ayers,1787 E Peter St,Rocky Mount, NC,27804.0,2020-01-18 14:17:38+00:00,2020-09-24 12:35:21,NEGATIVE
24681,62fa919b39fe7a3ec97467a0,Susana,Ayers,1602 E Cherry Ave,Rocky Mount, NC,27804.0,2019-12-28 10:05:01+00:00,2020-09-24 13:44:35,UNSURE
69477,62fa919b39fe7a3ec975169c,Dora,Grant,503 E Glendale St,Mechanicsville, VA,23111.0,2019-10-24 15:37:53+00:00,2020-09-24 14:02:18,NEGATIVE
1411,62fa919b39fe7a3ec9740cba,Dora,Cassidy,6259 E Sunny Cv,Oshkosh, WI,54901.0,2020-08-29 12:05:59+00:00,2020-09-24 15:12:22,UNSURE
6268,62fa919b39fe7a3ec9741fb3,Terry,Andrade,4305 W Olsonvill Rd,Millington, TN,38053.0,2020-08-18 06:16:44+00:00,2020-09-24 16:02:58,UNSURE
57040,62fa919b39fe7a3ec974e607,Rich,Farrell,9211 Armstrong Ln,Seymour, IN,47274.0,2020-08-30 01:32:23+00:00,2020-09-24 16:11:14,DONOTCONTACT
82911,62fa919b39fe7a3ec9754b16,Juan,Donovan,4596 4th Ln,New Philadelphia, OH,44663.0,2020-07-21 19:41:08+00:00,2020-09-24 18:07:23,UNSURE
24231,62fa919b39fe7a3ec97465de,Lois,Bassett,7501 E Purchase Blvd,Lewis Center, OH,43035.0,2020-02-22 00:37:39+00:00,2020-09-24 18:12:41,DONOTCONTACT
23733,62fa919b39fe7a3ec97463ec,Dianna,Andrade,5994 S 6th Dr,Millington, TN,38053.0,2019-07-09 13:06:50+00:00,2020-09-24 18:41:30,NEGATIVE
67304,62fa919b39fe7a3ec9750e1f,Marion,Phillips,1217 Sleepy Blvd,Olive Branch, MS,38654.0,2020-04-22 16:26:16+00:00,2020-09-24 19:05:51,DONOTCONTACT
50491,62fa919b39fe7a3ec974cc72,Verna,Donovan,7794 Third Blvd,Westport, CT,6880.0,2019-08-03 08:21:30+00:00,2020-09-24 19:35:05,DONOTCONTACT
13104,62fa919b39fe7a3ec9743a67,Kristina,Donovan,2304 E Riverside Cv,Hartford, CT,6106.0,2020-05-25 21:10:16+00:00,2020-09-24 19:48:20,NEGATIVE
16748,62fa919b39fe7a3ec97448a3,Verna,Kramer,6184 Elm Rd,Mchenry, IL,60050.0,2019-06-22 03:40:08+00:00,2020-09-24 20:15:58,NEGATIVE
62116,62fa919b39fe7a3ec974f9db,Hope,Bowers,514 Pratt Ln,Mechanicsville, VA,23111.0,2020-07-16 05:50:17+00:00,2020-09-24 20:30:46,DONOTCONTACT
35768,62fa919b39fe7a3ec97492ef,Dena,Powers,2406 N Oak Dr,West Fargo, ND,58078.0,2020-09-18 11:39:04+00:00,2020-09-24 21:42:18,NEGATIVE
27936,62fa919b39fe7a3ec9747457,,Craig,7357 S Fourth Rd,Elizabeth City, NC,27909.0,2020-08-13 09:55:18+00:00,2020-09-24 22:05:25,DONOTCONTACT
78917,62fa919b39fe7a3ec9753b7c,Krystal,Harvey,841 N Riverside Rd,Olive Branch, MS,38654.0,2019-06-05 05:45:42+00:00,2020-09-24 22:23:40,UNSURE
95866,62fa919b39fe7a3ec9757db1,Shane,Grant,4764 Glenn St,Ossining, NY,10562.0,2020-08-14 22:28:57+00:00,2020-09-24 22:50:27,NEGATIVE
63167,62fa919b39fe7a3ec974fdf6,Rich,Bowers,9004 N 47th St,Media, PA,19063.0,2020-01-25 03:06:30+00:00,2020-09-24 23:17:35,NEGATIVE
62252,62fa919b39fe7a3ec974fa63,Susana,,1151 Third Rd,Mahwah, NJ,7430.0,2019-02-27 20:45:14+00:00,2020-09-24 23:49:44,DONOTCONTACT
75753,62fa919b39fe7a3ec9752f20,Dora,Bowers,5649 S Martin Luther King Ave,Melbourne, FL,32904.0,2020-03-25 20:58:23+00:00,2020-09-25 00:55:21,UNSURE
78545,62fa919b39fe7a3ec9753a08,Krystal,Phillips,4859 E Eighth Ln,Conyers, GA,30012.0,2019-12-17 18:51:22+00:00,2020-09-25 02:27:37,UNSURE
96500,62fa919b39fe7a3ec975802b,Rolando,Bowers,3569 Armstrong Rd,Rocky Mount, NC,27804.0,2020-08-14 19:04:19+00:00,2020-09-25 03:05:40,UNSURE
98210,62fa919b39fe7a3ec97586d9,Maria,Wade,8853 W Maple Rd,Quakertown, PA,18951.0,2020-03-14 13:24:22+00:00,2020-09-25 04:49:06,DONOTCONTACT
98005,62fa919b39fe7a3ec975860c,Sara,Watson,6846 Pine Ave,Stillwater, MN,55082.0,2019-03-30 14:16:31+00:00,2020-09-25 05:35:00,DONOTCONTACT
9498,62fa919b39fe7a3ec9742c51,Calvin,Hinton,2839 Glendale Ln,Ossining, NY,10562.0,2020-06-14 11:05:24+00:00,2020-09-25 06:13:43,DONOTCONTACT
94104,62fa919b39fe7a3ec97576cf,Clarence,Guthrie,60 S Purchase Dr,Camas, WA,98607.0,2019-06-13 08:20:01+00:00,2020-09-25 06:30:41,NEGATIVE
45151,62fa919b39fe7a3ec974b796,Leanne,Cahill,1645 E Purchase Blvd,Quakertown, PA,18951.0,2019-01-05 23:01:41+00:00,2020-09-25 07:11:57,NEGATIVE
87807,62fa919b39fe7a3ec9755e36,Raymond,Powers,1860 W Sleepy Blvd,Madison, AL,35758.0,2020-09-19 17:27:52+00:00,2020-09-25 07:56:16,UNSURE
33419,62fa919b39fe7a3ec97489c2,Dora,Hinton,9417 12th Ln,Marion, NC,28752.0,2019-05-19 22:59:50+00:00,2020-09-25 08:53:14,UNSURE
83184,62fa919b39fe7a3ec9754c27,Clarence,Farrell,8691  Dr,Millington, TN,38053.0,2019-01-23 08:06:26+00:00,2020-09-25 08:58:30,UNSURE
31303,62fa919b39fe7a3ec974817e,Mayra,Benton,8236 Pine Dr,New Philadelphia, OH,44663.0,2019-04-30 19:14:13+00:00,2020-09-25 09:07:58,UNSURE
12192,62fa919b39fe7a3ec97436d7,Mayra,Snell,5046 5th Ln,Garfield, NJ,7026.0,2019-11-22 22:56:28+00:00,2020-09-25 09:41:06,UNSURE
7653,62fa919b39fe7a3ec974251c,Ernest,Benton,5629 S Ethel Blvd,Enfield, CT,6082.0,2020-08-16 16:12:37+00:00,2020-09-25 10:15:03,NEGATIVE
73683,62fa919b39fe7a3ec975270a,Michele,Sheppard,6019 Pratt St,Gastonia, NC,28052.0,2020-02-25 19:57:56+00:00,2020-09-25 10:32:55,DONOTCONTACT
36695,62fa919b39fe7a3ec974968e,Jamie,Alexander,391 Glen Cv,New Philadelphia, OH,44663.0,2019-12-13 06:49:58+00:00,2020-09-25 11:15:12,UNSURE
9543,62fa919b39fe7a3ec9742c7e,Leanne,Roberts,8191 S Oak St,Madisonville, KY,42431.0,2019-03-23 11:51:36+00:00,2020-09-25 12:28:45,DONOTCONTACT
38340,62fa919b39fe7a3ec9749cfb,Young,Ball,8112 W Main Cv,Seymour, IN,47274.0,2019-05-23 03:42:16+00:00,2020-09-25 12:43:55,DONOTCONTACT
5150,62fa919b39fe7a3ec9741b55,Leanne,Schneider,5242 Maple Cv,Quakertown, PA,18951.0,2019-11-29 23:09:16+00:00,2020-09-25 12:46:40,DONOTCONTACT
21933,62fa919b39fe7a3ec9745ce4,Kristina,Wolfe,3667 N 2nd Blvd,Millington, TN,38053.0,2019-02-25 05:51:46+00:00,2020-09-25 14:01:59,DONOTCONTACT
49921,62fa919b39fe7a3ec974ca38,Jordan,Lake,196 Martin Luther King Ave,Rocky Mount, NC,27804.0,2019-05-25 04:09:35+00:00,2020-09-25 14:11:41,NEGATIVE
63183,62fa919b39fe7a3ec974fe06,Mayra,Ayers,6397 Burbank Blvd,Quakertown, PA,18951.0,2019-01-25 13:37:13+00:00,2020-09-25 15:09:34,DONOTCONTACT
88553,62fa919b39fe7a3ec9756120,Marion,Carver,755 Pratt Cv,Gastonia, NC,28052.0,2020-09-08 15:50:51+00:00,2020-09-25 15:34:33,NEGATIVE
91752,62fa919b39fe7a3ec9756d9f,Darla,Snell,1633 Lois Ln,Kalamazoo, MI,49009.0,2020-07-15 11:21:56+00:00,2020-09-25 17:34:46,NEGATIVE
19384,62fa919b39fe7a3ec97452ef,Rene,Wade,9973 N Poplar Blvd,Melbourne, FL,32904.0,2020-08-15 16:05:04+00:00,2020-09-25 17:49:43,UNSURE
16554,62fa919b39fe7a3ec97447e1,Chris,Suarez,779 Ethel Rd,Seattle, WA,98144.0,2020-08-15 06:48:30+00:00,2020-09-25 18:31:44,NEGATIVE
25547,62fa919b39fe7a3ec9746b02,Ingrid,Watson,4651 E Oak Dr,Elizabeth City, NC,27909.0,2019-02-26 01:42:30+00:00,2020-09-25 19:57:21,NEGATIVE
47438,62fa919b39fe7a3ec974c085,Gale,Dwyer,8706 Oak Blvd,,,,2020-03-03 23:50:47+00:00,2020-09-25 20:38:00,DONOTCONTACT
9305,62fa919b39fe7a3ec9742b90,Lindsey,Compton,2793 W Burbank Blvd,Delaware, OH,43015.0,2020-08-09 01:47:34+00:00,2020-09-25 20:42:29,NEGATIVE
40155,62fa919b39fe7a3ec974a412,Susana,Bassett,2198 Martin Luther King Ave,Camp Hill, PA,17011.0,2020-03-11 23:37:18+00:00,2020-09-25 21:02:30,NEGATIVE
17561,62fa919b39fe7a3ec9744bd0,Sara,Strickland,9304 S 12th Cv,Ottawa, IL,61350.0,2020-03-17 20:46:30+00:00,2020-09-25 22:53:43,NEGATIVE
86678,62fa919b39fe7a3ec97559cd,Hope,Case,2302 W Glen Cv,New Albany, IN,47150.0,2019-11-23 01:28:02+00:00,2020-09-26 00:08:34,NEGATIVE
84748,62fa919b39fe7a3ec9755243,Rolando,Phillips,6897 S 5th Dr,Kalamazoo, MI,49009.0,2019-04-03 11:10:24+00:00,2020-09-26 00:27:41,NEGATIVE
87850,62fa919b39fe7a3ec9755e61,Caroline,Church,3030 8th Dr,Mahwah, NJ,7430.0,2020-06-08 05:49:47+00:00,2020-09-26 01:20:12,NEGATIVE
28833,62fa919b39fe7a3ec97477d8,,Powers,4443 8th Ave,Hixson, TN,37343.0,2019-09-30 20:33:40+00:00,2020-09-26 01:58:11,NEGATIVE
48425,62fa919b39fe7a3ec974c460,Chris,Bowers,8461 S Glendale Ave,Clearwater, FL,33756.0,2020-01-12 13:07:44+00:00,2020-09-26 02:25:49,NEGATIVE
69722,62fa919b39fe7a3ec9751791,Cristina,Terry,3158 N Pine Ave,Mchenry, IL,60050.0,2020-07-09 05:00:35+00:00,2020-09-26 02:38:18,NEGATIVE
78771,62fa919b39fe7a3ec9753aea,Cecelia,Wade,3931 E 6th Rd,Ottawa, IL,61350.0,2020-06-11 22:53:38+00:00,2020-09-26 03:12:19,NEGATIVE
71417,62fa919b39fe7a3ec9751e30,Caroline,Pollard,3303 Main Ln,Mechanicsville, VA,23111.0,2020-06-21 05:36:42+00:00,2020-09-26 04:23:33,NEGATIVE
48018,62fa919b39fe7a3ec974c2c9,Dianna,Hutchinson,6945  Rd,Ossining, NY,10562.0,2020-04-21 05:45:40+00:00,2020-09-26 04:36:56,DONOTCONTACT
12529,62fa919b39fe7a3ec9743828,Samuel,Case,878 Crystal Ave,Stillwater, MN,55082.0,2019-03-08 20:49:54+00:00,2020-09-26 05:35:29,DONOTCONTACT
66582,62fa919b39fe7a3ec9750b4d,Maria,Case,5385 E 3rd Blvd,Hixson, TN,37343.0,2020-04-11 09:51:11+00:00,2020-09-26 07:42:29,NEGATIVE
57212,62fa919b39fe7a3ec974e6b3,Young,Morton,646 N Purchase St,Conyers, GA,30012.0,2020-05-06 11:00:27+00:00,2020-09-26 09:05:19,NEGATIVE
92845,62fa919b39fe7a3ec97571e4,Maria,Wolfe,3223 Main Ave,Clearwater, FL,33756.0,2020-05-13 21:32:35+00:00,2020-09-26 09:52:03,DONOTCONTACT
38758,62fa919b39fe7a3ec9749e9d,,Moody,358 Cedar Blvd,Ottawa, IL,61350.0,2019-09-15 17:04:29+00:00,2020-09-26 10:12:35,UNSURE
34598,62fa919b39fe7a3ec9748e5d,Terry,French,5334 Oak St,Kalamazoo, MI,49009.0,2020-06-07 01:35:34+00:00,2020-09-26 10:50:19,DONOTCONTACT
75451,62fa919b39fe7a3ec9752df2,Deborah,Dwyer,8990 Armstrong Dr,Jamaica, NY,11432.0,2019-04-24 00:59:40+00:00,2020-09-26 11:59:44,DONOTCONTACT
47919,62fa919b39fe7a3ec974c266,Chris,Church,198 Maple Dr,Ossining, NY,10562.0,2020-02-01 15:46:17+00:00,2020-09-26 12:05:01,DONOTCONTACT
15357,62fa919b39fe7a3ec9744334,Darla,Cahill,5535 Pine Cv,Mechanicsville, VA,23111.0,2019-03-20 22:35:59+00:00,2020-09-26 12:11:10,UNSURE
85886,62fa919b39fe7a3ec97556b5,Lois,Conley,3002 N Faith St,Quakertown, PA,18951.0,2019-06-09 20:11:49+00:00,2020-09-26 13:15:37,UNSURE
28916,62fa919b39fe7a3ec974782b,Rene,Sheppard,2002 Armstrong Cv,Phillipsburg, NJ,8865.0,2019-07-22 13:35:36+00:00,2020-09-26 15:04:53,DONOTCONTACT
13369,62fa919b39fe7a3ec9743b70,Christi,Harvey,7932 Fourth St,Elizabeth City, NC,27909.0,2019-02-10 18:50:19+00:00,2020-09-26 15:25:49,UNSURE
3724,62fa919b39fe7a3ec97415c3,Calvin,Sheppard,4398 Lois St,Arvada, CO,80003.0,2020-01-17 01:59:01+00:00,2020-09-26 16:19:57,DONOTCONTACT
9800,62fa919b39fe7a3ec9742d7f,Susana,Morton,2197 3rd St,New Philadelphia, OH,44663.0,2020-07-26 16:08:38+00:00,2020-09-26 17:26:32,NEGATIVE
56016,62fa919b39fe7a3ec974e207,Cecilia,Terry,9831 S 2nd Cv,Marion, NC,28752.0,2020-01-26 12:55:13+00:00,2020-09-26 17:26:38,NEGATIVE
88910,62fa919b39fe7a3ec9756285,Cecilia,French,351 N 1st Ln,Olive Branch, MS,38654.0,2020-01-07 06:22:59+00:00,2020-09-26 18:27:56,NEGATIVE
64145,62fa919b39fe7a3ec97501c8,Kristina,Schneider,9757 Third Dr,North Attleboro, MA,2760.0,2019-09-12 00:21:05+00:00,2020-09-26 20:43:52,UNSURE
84081,62fa919b39fe7a3ec9754fa8,Jordan,Stone,327 Shelby Blvd,Phillipsburg, NJ,8865.0,2019-06-05 19:39:53+00:00,2020-09-26 20:53:56,UNSURE
83159,62fa919b39fe7a3ec9754c0e,Chris,,28 E Faith Blvd,Delaware, OH,43015.0,2020-05-20 00:55:39+00:00,2020-09-26 21:35:37,NEGATIVE
87057,62fa919b39fe7a3ec9755b48,Rich,Terrell,1703 Riverside Ave,Hixson, TN,37343.0,2020-04-05 05:00:30+00:00,2020-09-26 21:59:29,DONOTCONTACT
7069,62fa919b39fe7a3ec97422d4,Ernest,Stone,5239 S Mount Pleasant Dr,Westmont, IL,60559.0,2019-05-23 10:36:07+00:00,2020-09-26 22:08:51,UNSURE
35889,62fa919b39fe7a3ec9749368,Christi,Jacobs,6566 Riverside Rd,Westport, CT,6880.0,2020-01-21 17:44:25+00:00,2020-09-26 22:09:31,NEGATIVE
42499,62fa919b39fe7a3ec974ad3a,Adriana,Case,5359 Pratt Dr,Delaware, OH,43015.0,2019-01-22 17:23:32+00:00,2020-09-26 22:29:40,UNSURE
53684,62fa919b39fe7a3ec974d8eb,Herman,Carver,5464 N Crystal Cv,Seattle, WA,98144.0,2019-03-25 04:57:09+00:00,2020-09-26 22:38:06,NEGATIVE
41611,62fa919b39fe7a3ec974a9c2,Kristina,Powers,2675 3rd St,Douglasville, GA,30134.0,2020-07-03 01:41:54+00:00,2020-09-26 22:38:48,DONOTCONTACT
85156,62fa919b39fe7a3ec97553db,Cecelia,Burke,4438 E 3rd Blvd,North Attleboro, MA,2760.0,2019-12-29 03:07:47+00:00,2020-09-26 22:48:42,UNSURE
91598,62fa919b39fe7a3ec9756d05,Clarence,,7816 N Poplar Dr,Olive Branch, MS,38654.0,2019-12-15 16:00:04+00:00,2020-09-26 23:42:10,DONOTCONTACT
69167,62fa919b39fe7a3ec9751566,Sara,Roberts,482 Olsonvill Dr,Enfield, CT,6082.0,2020-02-02 17:43:36+00:00,2020-09-27 00:21:48,NEGATIVE
60716,62fa919b39fe7a3ec974f463,Dora,Hutchinson,2768 S Riverside Blvd,Mchenry, IL,60050.0,2020-08-05 01:08:03+00:00,2020-09-27 00:26:11,DONOTCONTACT
12971,62fa919b39fe7a3ec97439e2,Leanne,Morton,6906 Martin Luther King Blvd,Pearl, MS,39208.0,2020-08-25 01:35:19+00:00,2020-09-27 00:53:41,NEGATIVE
65643,62fa919b39fe7a3ec97507a2,Gale,Bowers,2503 Daniel St,Delaware, OH,43015.0,2019-10-09 06:41:43+00:00,2020-09-27 02:05:58,DONOTCONTACT
8997,62fa919b39fe7a3ec9742a5c,Kristina,Snell,2586 W Glen St,Madisonville, KY,42431.0,2019-06-11 09:48:03+00:00,2020-09-27 02:15:11,DONOTCONTACT
97064,62fa919b39fe7a3ec975825f,Krystal,Jacobs,1778 Peter Cv,Ottawa, IL,61350.0,2019-02-06 06:28:04+00:00,2020-09-27 02:15:16,DONOTCONTACT
21810,62fa919b39fe7a3ec9745c69,Christi,Guthrie,5263 N Poplar Cv,Ossining, NY,10562.0,2019-04-24 19:12:00+00:00,2020-09-27 03:09:34,DONOTCONTACT
47790,62fa919b39fe7a3ec974c1e5,Lois,Ball,1185 2nd Cv,Lewis Center, OH,43035.0,2020-05-05 16:10:41+00:00,2020-09-27 03:26:25,NEGATIVE
34957,62fa919b39fe7a3ec9748fc4,Leanne,Carver,522 S Martin Luther King Blvd,Miami Gardens, FL,33056.0,2020-01-28 10:35:10+00:00,2020-09-27 03:28:47,UNSURE
26580,62fa919b39fe7a3ec9746f0b,Lois,Terrell,4618 Armstrong Ave,Westport, CT,6880.0,2020-01-22 19:46:01+00:00,2020-09-27 04:04:29,UNSURE
41906,62fa919b39fe7a3ec974aae9,Juana,Terrell,5603 5th Rd,New Philadelphia, OH,44663.0,2019-01-17 20:36:56+00:00,2020-09-27 04:34:15,NEGATIVE
82559,62fa919b39fe7a3ec97549b6,Michele,Stewart,7615 N 6th Ave,Mechanicsville, VA,23111.0,2019-12-13 06:47:20+00:00,2020-09-27 04:52:09,DONOTCONTACT
10996,62fa919b39fe7a3ec974322b,Christi,Carver,2810 12th Cv,Hixson, TN,37343.0,2019-09-01 10:16:28+00:00,2020-09-27 04:53:49,DONOTCONTACT
76242,62fa919b39fe7a3ec9753109,Deborah,Moody,3717 Purchase Ave,Mchenry, IL,60050.0,2019-01-04 23:38:43+00:00,2020-09-27 06:01:21,NEGATIVE
40169,62fa919b39fe7a3ec974a420,Mayra,Ayers,9137 S Armstrong St,,,,2020-07-27 04:53:16+00:00,2020-09-27 06:03:44,UNSURE
84539,62fa919b39fe7a3ec9755172,Juan,Pollard,7665 Olsonvill Ln,Delaware, OH,43015.0,2020-03-08 16:06:05+00:00,2020-09-27 06:09:56,DONOTCONTACT
15315,62fa919b39fe7a3ec974430a,Young,Proctor,4880 Peter Blvd,Millington, TN,38053.0,2019-12-25 15:50:42+00:00,2020-09-27 06:47:50,DONOTCONTACT
63707,62fa919b39fe7a3ec9750012,Scott,Case,5777 Shelby Dr,Millington, TN,38053.0,2020-09-04 16:59:48+00:00,2020-09-27 07:12:43,DONOTCONTACT
88278,62fa919b39fe7a3ec975600d,Leanne,Hinton,9699 Seaside Blvd,Clearwater, FL,33756.0,2019-07-03 18:12:34+00:00,2020-09-27 07:43:57,NEGATIVE
9208,62fa919b39fe7a3ec9742b2f,Rolando,Watson,11 Sharp Rd,Arvada, CO,80003.0,2020-06-13 23:40:25+00:00,2020-09-27 09:02:01,NEGATIVE
21678,62fa919b39fe7a3ec9745be5,Maria,Dwyer,391 Peter St,Delaware, OH,43015.0,2019-11-29 18:46:04+00:00,2020-09-27 09:32:50,UNSURE
93876,62fa919b39fe7a3ec97575eb,Michele,Strickland,95 Elm Dr,Anaheim, CA,92806.0,2020-09-12 20:42:07+00:00,2020-09-27 09:49:48,UNSURE
50452,62fa919b39fe7a3ec974cc4b,Juana,Carver,6280 S Oak St,Conyers, GA,30012.0,2019-11-12 09:04:12+00:00,2020-09-27 10:06:24,UNSURE
13762,62fa919b39fe7a3ec9743cf9,Dena,Wolfe,653 2nd St,Garfield, NJ,7026.0,2019-07-04 06:27:12+00:00,2020-09-27 10:27:47,DONOTCONTACT
45222,62fa919b39fe7a3ec974b7dd,Irene,Jacobs,1757 Ethel Cv,Seymour, IN,47274.0,2020-07-16 07:27:00+00:00,2020-09-27 10:32:05,DONOTCONTACT
20178,62fa919b39fe7a3ec9745609,Gale,Hutchinson,5418 Eighth Blvd,,,,2019-08-05 19:53:17+00:00,2020-09-27 11:00:52,NEGATIVE
46844,62fa919b39fe7a3ec974be33,Dena,Roberts,3781 W 3rd St,North Attleboro, MA,2760.0,2020-01-05 20:50:55+00:00,2020-09-27 12:02:05,UNSURE
48298,62fa919b39fe7a3ec974c3e1,Chris,Hutchinson,267 Third St,Mchenry, IL,60050.0,2020-03-22 08:38:42+00:00,2020-09-27 12:39:06,NEGATIVE
84452,62fa919b39fe7a3ec975511b,Adriana,Moody,5048 W Daniel Dr,North Attleboro, MA,2760.0,2019-01-27 00:01:30+00:00,2020-09-27 12:49:40,DONOTCONTACT
7022,62fa919b39fe7a3ec97422a5,Herman,Ball,3290 W Purchase Ave,Media, PA,19063.0,2020-04-11 18:43:50+00:00,2020-09-27 13:21:15,UNSURE
41629,62fa919b39fe7a3ec974a9d4,Chris,Ayers,4647 Sharp Dr,Gastonia, NC,28052.0,2020-07-20 23:48:52+00:00,2020-09-27 13:29:10,UNSURE
10772,62fa919b39fe7a3ec974314b,Marion,Rowe,4617 S Fourth Ave,West Palm Beach, FL,33404.0,2020-05-17 13:50:18+00:00,2020-09-27 14:15:49,UNSURE
43948,62fa919b39fe7a3ec974b2e3,Gale,Moody,7793 Burbank Rd,,,,2020-08-15 10:06:03+00:00,2020-09-27 14:21:43,UNSURE
6683,62fa919b39fe7a3ec9742152,Jamie,Morton,6565 47th Blvd,Clearwater, FL,33756.0,2019-08-01 05:03:38+00:00,2020-09-27 15:23:36,DONOTCONTACT
23770,62fa919b39fe7a3ec9746411,Verna,Harvey,3306 Martin Luther King Rd,Camas, WA,98607.0,2020-05-14 15:30:52+00:00,2020-09-27 15:31:16,NEGATIVE
85956,62fa919b39fe7a3ec97556fb,Cecelia,Cahill,3670 3rd St,Garfield, NJ,7026.0,2019-08-31 15:02:48+00:00,2020-09-27 19:14:59,UNSURE
75496,62fa919b39fe7a3ec9752e1f,Jan,Burke,2350 S Third Ave,Media, PA,19063.0,2020-06-25 10:17:48+00:00,2020-09-27 19:36:42,NEGATIVE
86436,62fa919b39fe7a3ec97558db,Young,Strickland,5597 8th Cv,Hartford, CT,6106.0,2020-09-23 17:58:13+00:00,2020-09-27 20:06:58,UNSURE
42518,62fa919b39fe7a3ec974ad4d,Juana,Stewart,9224 N Sharp Cv,Conyers, GA,30012.0,2020-08-22 22:25:49+00:00,2020-09-27 20:34:24,DONOTCONTACT
1270,62fa919b39fe7a3ec9740c2d,Chris,Terrell,3775 Sharp Rd,Quakertown, PA,18951.0,2020-06-29 08:30:55+00:00,2020-09-27 20:34:59,DONOTCONTACT
47728,62fa919b39fe7a3ec974c1a7,Caroline,Hutchinson,6327 Armstrong Ave,Lewis Center, OH,43035.0,2020-07-03 11:17:34+00:00,2020-09-27 20:54:49,UNSURE
4726,62fa919b39fe7a3ec97419ad,Juana,Moody,1266 Martin Luther King Dr,,,,2020-02-18 09:46:05+00:00,2020-09-27 21:54:11,NEGATIVE
38454,62fa919b39fe7a3ec9749d6d,Irene,Snell,642 Third Ave,Oshkosh, WI,54901.0,2019-08-08 22:17:54+00:00,2020-09-27 22:25:01,DONOTCONTACT
90300,62fa919b39fe7a3ec97567f3,Terry,Sheppard,4976 Mount Pleasant Ave,Marion, NC,28752.0,2019-07-06 03:15:05+00:00,2020-09-27 23:17:03,NEGATIVE
30681,62fa919b39fe7a3ec9747f10,Lois,Terry,8304 N 2nd Ln,Marion, NC,28752.0,2019-12-24 14:42:25+00:00,2020-09-27 23:19:28,NEGATIVE
89234,62fa919b39fe7a3ec97563c9,Jessica,Snell,1237 8th Dr,Hixson, TN,37343.0,2020-01-09 17:03:17+00:00,2020-09-28 00:51:08,DONOTCONTACT
47004,62fa919b39fe7a3ec974bed3,Rene,Ayers,8755 Mount Pleasant Dr,Ossining, NY,10562.0,2020-06-15 17:22:49+00:00,2020-09-28 00:51:29,NEGATIVE
98456,62fa919b39fe7a3ec97587cf,Todd,Wade,6360 N Daniel Dr,Moorhead, MN,56560.0,2020-09-14 02:22:48+00:00,2020-09-28 04:51:46,UNSURE
91977,62fa919b39fe7a3ec9756e80,Hope,Farrell,3182 Faith Ln,Elizabeth City, NC,27909.0,2020-08-24 04:42:20+00:00,2020-09-28 05:00:46,UNSURE
636,62fa919b39fe7a3ec97409b3,Leanne,Strickland,1117 Second Blvd,Millington, TN,38053.0,2020-06-22 03:56:41+00:00,2020-09-28 05:16:17,DONOTCONTACT
8894,62fa919b39fe7a3ec97429f5,Krystal,Proctor,3608 Lois Ln,Rocky Mount, NC,27804.0,2019-07-09 13:11:41+00:00,2020-09-28 05:43:58,NEGATIVE
51231,62fa919b39fe7a3ec974cf56,Todd,Strickland,2846 N Eighth Blvd,Enfield, CT,6082.0,2020-08-19 18:12:20+00:00,2020-09-28 05:58:10,DONOTCONTACT
5954,62fa919b39fe7a3ec9741e79,Jordan,Proctor,4047 Riverside Ave,Paterson, NJ,7501.0,2020-08-14 00:50:45+00:00,2020-09-28 06:24:27,UNSURE
66983,62fa919b39fe7a3ec9750cde,Cristina,Phillips,4236 S Daniel Ave,Paterson, NJ,7501.0,2020-01-10 11:05:53+00:00,2020-09-28 07:00:16,DONOTCONTACT
97907,62fa919b39fe7a3ec97585aa,Young,Dwyer,9873 E Faith Blvd,Anaheim, CA,92806.0,2019-08-30 09:02:48+00:00,2020-09-28 07:22:04,NEGATIVE
9941,62fa919b39fe7a3ec9742e0c,Calvin,French,1684 Sharp Ave,,,,2020-02-05 14:51:56+00:00,2020-09-28 07:47:26,NEGATIVE
40154,62fa919b39fe7a3ec974a411,Deborah,Jacobs,9456 Elm Blvd,Melbourne, FL,32904.0,2020-01-19 19:13:19+00:00,2020-09-28 08:08:34,UNSURE
59489,62fa919b39fe7a3ec974ef98,Shane,French,7570 Fourth Rd,Ossining, NY,10562.0,2019-12-27 19:42:09+00:00,2020-09-28 08:33:02,UNSURE
80638,62fa919b39fe7a3ec9754235,Chris,Suarez,6742 S Oak Ave,Jamaica, NY,11432.0,2019-07-25 03:25:17+00:00,2020-09-28 09:46:31,DONOTCONTACT
13352,62fa919b39fe7a3ec9743b5f,Lindsey,Rowe,6621 E Oak Rd,Conyers, GA,30012.0,2019-10-30 17:23:45+00:00,2020-09-28 10:45:58,DONOTCONTACT
66551,62fa919b39fe7a3ec9750b2e,Rich,Grant,6866 Purchase Cv,Elizabeth City, NC,27909.0,2019-03-14 08:39:44+00:00,2020-09-28 11:33:34,DONOTCONTACT
77232,62fa919b39fe7a3ec97534e7,Juan,Andrade,6914 Glendale Cv,Millington, TN,38053.0,2019-05-26 03:40:54+00:00,2020-09-28 12:09:36,DONOTCONTACT
43105,62fa919b39fe7a3ec974af98,Irene,Schneider,9870 2nd Rd,Gastonia, NC,28052.0,2020-07-08 01:29:47+00:00,2020-09-28 12:22:24,NEGATIVE
79249,62fa919b39fe7a3ec9753cc8,,Proctor,3496 Cherry Dr,Paterson, NJ,7501.0,2020-08-28 03:30:05+00:00,2020-09-28 14:00:08,NEGATIVE
69162,62fa919b39fe7a3ec9751561,Jan,Terry,4212 Burbank Ln,Conyers, GA,30012.0,2020-01-04 20:24:01+00:00,2020-09-28 14:55:17,NEGATIVE
69461,62fa919b39fe7a3ec975168c,Lois,Grant,3209 S 6th Dr,Clearwater, FL,33756.0,2019-12-23 15:05:01+00:00,2020-09-28 17:18:33,NEGATIVE
98405,62fa919b39fe7a3ec975879c,Mayra,Wade,7910 S Samuel Rd,Patchogue, NY,11772.0,2020-09-01 22:12:42+00:00,2020-09-28 17:23:09,DONOTCONTACT
13072,62fa919b39fe7a3ec9743a47,Maria,Guthrie,9559 W Daniel Rd,Elizabeth City, NC,27909.0,2020-02-08 01:10:35+00:00,2020-09-28 18:49:13,DONOTCONTACT
21523,62fa919b39fe7a3ec9745b4a,Ingrid,Proctor,3683 Riverside Rd,Hartford, CT,6106.0,2020-07-24 22:46:33+00:00,2020-09-28 20:55:15,UNSURE
53377,62fa919b39fe7a3ec974d7b8,Dena,Hutchinson,8968 Mount Pleasant St,Clearwater, FL,33756.0,2020-08-31 03:38:31+00:00,2020-09-28 21:50:02,DONOTCONTACT
98747,62fa919b39fe7a3ec97588f2,Verna,Church,8689 S Glen Dr,Millington, TN,38053.0,2019-08-16 09:23:45+00:00,2020-09-28 21:56:21,DONOTCONTACT
94162,62fa919b39fe7a3ec9757709,Adriana,Cahill,7967 E Shelby Ln,Anaheim, CA,92806.0,2019-07-12 10:27:27+00:00,2020-09-28 21:59:34,UNSURE
5040,62fa919b39fe7a3ec9741ae7,Juana,Craig,2366 N Martin Luther King Cv,Oshkosh, WI,54901.0,2020-08-23 22:03:41+00:00,2020-09-28 22:24:35,NEGATIVE
90659,62fa919b39fe7a3ec975695a,Raymond,Phillips,800 N Eighth Dr,Oshkosh, WI,54901.0,2020-04-12 20:55:41+00:00,2020-09-28 22:32:57,UNSURE
16534,62fa919b39fe7a3ec97447cd,Ernest,Grant,6527 47th St,Moorhead, MN,56560.0,2020-07-14 19:47:46+00:00,2020-09-28 22:37:47,UNSURE
21193,62fa919b39fe7a3ec9745a00,Juan,Andrade,6636 Glen Blvd,New Philadelphia, OH,44663.0,2019-10-26 13:36:52+00:00,2020-09-29 00:05:15,UNSURE
84591,62fa919b39fe7a3ec97551a6,Jessica,Donovan,614 Purchase Ln,Enfield, CT,6082.0,2020-07-18 09:29:19+00:00,2020-09-29 00:20:22,NEGATIVE
77023,62fa919b39fe7a3ec9753416,Cecilia,Morton,842 S 12th Blvd,Seattle, WA,98144.0,2019-01-05 06:29:42+00:00,2020-09-29 01:01:45,NEGATIVE
46370,62fa919b39fe7a3ec974bc59,Michele,Stewart,3728 E Peter Ave,New Albany, IN,47150.0,2020-05-08 10:27:38+00:00,2020-09-29 01:07:13,DONOTCONTACT
32319,62fa919b39fe7a3ec9748576,Caroline,Church,2857 Sharp Blvd,Madison, AL,35758.0,2019-07-17 08:09:31+00:00,2020-09-29 01:18:14,UNSURE
70714,62fa919b39fe7a3ec9751b71,Juan,Snell,4425 Mount Pleasant Ln,Enfield, CT,6082.0,2019-10-13 18:23:45+00:00,2020-09-29 01:38:34,UNSURE
54986,62fa919b39fe7a3ec974de01,Herman,Rowe,7376 S Oak Dr,Phillipsburg, NJ,8865.0,2020-02-24 13:20:44+00:00,2020-09-29 03:52:17,DONOTCONTACT
32992,62fa919b39fe7a3ec9748817,Hope,Phillips,1008 W 12th Blvd,Phillipsburg, NJ,8865.0,2020-04-19 03:11:32+00:00,2020-09-29 04:20:24,UNSURE
52692,62fa919b39fe7a3ec974d50b,Sara,French,1635 N Lois Cv,Patchogue, NY,11772.0,2020-04-08 02:17:35+00:00,2020-09-29 04:23:54,DONOTCONTACT
23041,62fa919b39fe7a3ec9746138,Susana,Jensen,3180 Sleepy Ln,Enfield, CT,6082.0,2019-09-20 19:26:10+00:00,2020-09-29 04:26:32,DONOTCONTACT
80980,62fa919b39fe7a3ec975438b,Irene,Stewart,9883 W Eighth Ave,Stillwater, MN,55082.0,2020-05-21 14:16:17+00:00,2020-09-29 04:49:43,DONOTCONTACT
69210,62fa919b39fe7a3ec9751591,Lindsey,Carver,7857 S Pratt St,New Albany, IN,47150.0,2020-04-14 06:45:22+00:00,2020-09-29 07:00:34,NEGATIVE
40911,62fa919b39fe7a3ec974a706,Irene,Pollard,3573 N Martin Luther King Ln,Moorhead, MN,56560.0,2019-11-16 07:30:16+00:00,2020-09-29 07:20:49,DONOTCONTACT
11753,62fa919b39fe7a3ec9743520,Kristina,Watson,8976 Crystal St,Delaware, OH,43015.0,2019-11-02 08:13:06+00:00,2020-09-29 07:39:43,NEGATIVE
74145,62fa919b39fe7a3ec97528d8,Raymond,Andrade,9464 Main Cv,Anaheim, CA,92806.0,2020-08-09 02:33:45+00:00,2020-09-29 08:45:57,NEGATIVE
54119,62fa919b39fe7a3ec974da9e,Rene,Burke,6864 Mount Pleasant Blvd,New Albany, IN,47150.0,2020-09-10 18:56:07+00:00,2020-09-29 09:49:58,DONOTCONTACT
19957,62fa919b39fe7a3ec974552c,Gale,Dwyer,6488 E Eighth Rd,Richardson, TX,75080.0,2019-08-14 07:15:02+00:00,2020-09-29 10:04:55,DONOTCONTACT
46072,62fa919b39fe7a3ec974bb2f,Adriana,Stewart,3126 Sharp Blvd,Elizabeth City, NC,27909.0,2019-12-15 02:05:55+00:00,2020-09-29 11:45:42,DONOTCONTACT
26666,62fa919b39fe7a3ec9746f61,Michele,Bassett,6848 8th Ave,Camas, WA,98607.0,2020-06-02 06:05:41+00:00,2020-09-29 12:08:44,DONOTCONTACT
6604,62fa919b39fe7a3ec9742103,Dora,Dwyer,4516 N Peter Cv,New Albany, IN,47150.0,2020-01-20 02:22:39+00:00,2020-09-29 12:13:49,UNSURE
85827,62fa919b39fe7a3ec975567a,Robyn,Powers,8355 Sharp St,Stillwater, MN,55082.0,2019-11-09 03:55:35+00:00,2020-09-29 12:16:23,UNSURE
24925,62fa919b39fe7a3ec9746894,Ernest,Cahill,9592 47th Blvd,Melbourne, FL,32904.0,2020-03-13 17:48:37+00:00,2020-09-29 13:30:42,NEGATIVE
4818,62fa919b39fe7a3ec9741a09,Kristina,Cassidy,7394 N 6th Cv,Miami Gardens, FL,33056.0,2019-07-28 22:10:28+00:00,2020-09-29 14:08:41,UNSURE
97181,62fa919b39fe7a3ec97582d4,Robyn,Schneider,8049 N 47th Ln,Ottawa, IL,61350.0,2020-06-21 17:47:14+00:00,2020-09-29 17:01:23,UNSURE
57412,62fa919b39fe7a3ec974e77b,Raymond,Hutchinson,8056 Pine St,Mechanicsville, VA,23111.0,2020-04-14 21:46:56+00:00,2020-09-29 18:04:03,UNSURE
55644,62fa919b39fe7a3ec974e093,Michele,Hinton,5067 Elm Rd,New Albany, IN,47150.0,2019-08-11 19:56:05+00:00,2020-09-29 18:51:59,UNSURE
21948,62fa919b39fe7a3ec9745cf3,Darla,Proctor,827 E Lois Dr,Gastonia, NC,28052.0,2019-11-05 12:21:05+00:00,2020-09-29 19:05:21,DONOTCONTACT
91609,62fa919b39fe7a3ec9756d10,Juan,Burke,5529 N Daniel St,West Palm Beach, FL,33404.0,2019-06-25 16:08:49+00:00,2020-09-29 19:12:23,DONOTCONTACT
98789,62fa919b39fe7a3ec975891c,Dora,Cahill,7325 Maple St,Lewis Center, OH,43035.0,2020-09-25 22:03:38+00:00,2020-09-29 19:22:02,NEGATIVE
37287,62fa919b39fe7a3ec97498de,Todd,Ball,8714 E Seaside Cv,Kalamazoo, MI,49009.0,2020-09-28 19:45:39+00:00,2020-09-29 20:14:24,DONOTCONTACT
82491,62fa919b39fe7a3ec9754972,Jordan,Snell,2805 Ethel Cv,Elizabeth City, NC,27909.0,2019-07-08 15:23:32+00:00,2020-09-29 21:09:09,NEGATIVE
3184,62fa919b39fe7a3ec97413a7,Darla,Compton,3790 E Peter Ln,Madison, AL,35758.0,2019-12-27 00:32:05+00:00,2020-09-29 21:56:31,DONOTCONTACT
10551,62fa919b39fe7a3ec974306e,Verna,Alexander,6790 Elm Blvd,Westport, CT,6880.0,2020-06-11 23:33:18+00:00,2020-09-29 22:48:10,NEGATIVE
85144,62fa919b39fe7a3ec97553cf,Shane,Sheppard,1449 Seaside Rd,,,,2020-08-29 22:41:42+00:00,2020-09-29 23:25:46,UNSURE
30427,62fa919b39fe7a3ec9747e12,Leanne,Craig,4373 Sunny Ave,New Albany, IN,47150.0,2020-07-26 01:43:24+00:00,2020-09-29 23:38:06,UNSURE
21919,62fa919b39fe7a3ec9745cd6,Maria,Church,5312 Faith Dr,Clearwater, FL,33756.0,2020-09-10 04:50:37+00:00,2020-09-30 00:45:45,DONOTCONTACT
7859,62fa919b39fe7a3ec97425ea,Clarence,Strickland,9035 S Third Rd,Phillipsburg, NJ,8865.0,2019-07-01 13:09:35+00:00,2020-09-30 01:10:02,DONOTCONTACT
16349,62fa919b39fe7a3ec9744714,Lois,Strickland,3730 Peter St,Pearl, MS,39208.0,2020-03-22 01:01:23+00:00,2020-09-30 01:17:27,NEGATIVE
37723,62fa919b39fe7a3ec9749a92,Todd,Suarez,1849 W Second Ln,Mahwah, NJ,7430.0,2019-04-30 00:14:54+00:00,2020-09-30 01:20:44,NEGATIVE
42693,62fa919b39fe7a3ec974adfc,Raymond,Moody,5129 Olsonvill Ln,Madisonville, KY,42431.0,2019-12-14 21:05:02+00:00,2020-09-30 02:11:06,UNSURE
63644,62fa919b39fe7a3ec974ffd3,Jordan,Terrell,7404 47th Cv,North Attleboro, MA,2760.0,2019-11-25 23:55:59+00:00,2020-09-30 02:42:14,UNSURE
35159,62fa919b39fe7a3ec974908e,Jan,Phillips,2031 S 1st Cv,Patchogue, NY,11772.0,2019-07-09 23:28:15+00:00,2020-09-30 03:08:02,UNSURE
27336,62fa919b39fe7a3ec97471ff,Sara,Kramer,8803 Elm Ave,Seattle, WA,98144.0,2020-02-15 12:54:58+00:00,2020-09-30 03:14:24,UNSURE
90808,62fa919b39fe7a3ec97569ef,,Bassett,9239 Maple Ave,Seattle, WA,98144.0,2019-12-14 08:43:16+00:00,2020-09-30 05:17:26,DONOTCONTACT
98369,62fa919b39fe7a3ec9758778,Candy,Wade,1581 Main Ln,Seattle, WA,98144.0,2020-07-13 15:23:33+00:00,2020-09-30 05:23:17,NEGATIVE
73117,62fa919b39fe7a3ec97524d4,Adriana,Farrell,4883 N Olsonvill Cv,Mchenry, IL,60050.0,2020-02-14 02:13:01+00:00,2020-09-30 05:54:14,NEGATIVE
69,62fa919b39fe7a3ec974077c,Dianna,Harvey,6425 W Mount Pleasant Ave,North Attleboro, MA,2760.0,2020-03-18 16:32:50+00:00,2020-09-30 06:00:05,DONOTCONTACT
298,62fa919b39fe7a3ec9740861,Krystal,Case,2744 Eighth Ave,Mechanicsville, VA,23111.0,2020-01-09 21:44:06+00:00,2020-09-30 06:56:52,DONOTCONTACT
24608,62fa919b39fe7a3ec9746757,Jessica,Terry,8832 E Third Ave,Douglasville, GA,30134.0,2020-07-22 10:53:49+00:00,2020-09-30 07:04:48,NEGATIVE
3230,62fa919b39fe7a3ec97413d5,Jordan,Wade,4900 Mount Pleasant Ave,Ottawa, IL,61350.0,2019-06-28 04:42:34+00:00,2020-09-30 07:07:43,UNSURE
68953,62fa919b39fe7a3ec9751490,Shane,Schneider,1346 W 6th Cv,North Attleboro, MA,2760.0,2020-06-17 00:46:18+00:00,2020-09-30 07:45:05,UNSURE
94718,62fa919b39fe7a3ec9757935,Shane,,8382 N Poplar St,Rocky Mount, NC,27804.0,2019-03-18 10:53:03+00:00,2020-09-30 07:51:06,NEGATIVE
51294,62fa919b39fe7a3ec974cf95,Rolando,Donovan,2926 W Main Rd,Anaheim, CA,92806.0,2019-09-10 01:06:14+00:00,2020-09-30 07:54:38,DONOTCONTACT
70209,62fa919b39fe7a3ec9751978,Jan,French,2126  Cv,Kalamazoo, MI,49009.0,2020-05-14 15:45:17+00:00,2020-09-30 08:00:07,UNSURE
23248,62fa919b39fe7a3ec9746207,Todd,Roberts,7734 W Lois Rd,Clearwater, FL,33756.0,2019-07-12 03:21:49+00:00,2020-09-30 08:48:14,UNSURE
88462,62fa919b39fe7a3ec97560c5,Mayra,Donovan,690 Pine Ave,North Attleboro, MA,2760.0,2020-04-14 09:41:21+00:00,2020-09-30 09:15:29,NEGATIVE
49709,62fa919b39fe7a3ec974c964,Young,Case,1244 Mount Pleasant Dr,Douglasville, GA,30134.0,2019-12-28 19:59:18+00:00,2020-09-30 12:31:20,DONOTCONTACT
71142,62fa919b39fe7a3ec9751d1d,Gale,Wolfe,4422 N Lois Ln,Melbourne, FL,32904.0,2020-07-06 00:36:15+00:00,2020-09-30 12:53:26,NEGATIVE
49025,62fa919b39fe7a3ec974c6b8,Susana,Craig,6923 Third St,Millington, TN,38053.0,2020-07-08 07:09:48+00:00,2020-09-30 13:49:23,DONOTCONTACT
42847,62fa919b39fe7a3ec974ae96,Caroline,Suarez,5964 Olsonvill Rd,West Palm Beach, FL,33404.0,2020-09-16 03:43:34+00:00,2020-09-30 14:00:22,DONOTCONTACT
77957,62fa919b39fe7a3ec97537bc,Jamie,Sheppard,4596 Second Cv,New Philadelphia, OH,44663.0,2020-08-13 04:51:51+00:00,2020-09-30 14:14:19,NEGATIVE
29523,62fa919b39fe7a3ec9747a8a,Raymond,Carver,2583 Sharp Rd,Pearl, MS,39208.0,2019-03-24 09:50:20+00:00,2020-09-30 14:36:13,DONOTCONTACT
72420,62fa919b39fe7a3ec975221b,Marion,Wade,4357 W Crystal Blvd,Lewis Center, OH,43035.0,2020-04-30 18:14:54+00:00,2020-09-30 16:28:15,UNSURE
97838,62fa919b39fe7a3ec9758565,Christi,Ball,7430 6th Rd,West Palm Beach, FL,33404.0,2019-04-25 15:37:35+00:00,2020-09-30 16:31:49,NEGATIVE
66039,62fa919b39fe7a3ec975092e,Krystal,Morton,6688 Purchase Cv,Ottawa, IL,61350.0,2020-07-30 14:42:14+00:00,2020-09-30 16:34:41,UNSURE
35911,62fa919b39fe7a3ec974937e,,Jensen,7354 Maple St,Mahwah, NJ,7430.0,2020-05-01 18:50:59+00:00,2020-09-30 17:45:19,UNSURE
47863,62fa919b39fe7a3ec974c22e,Ernest,Ball,7117 Second St,Conyers, GA,30012.0,2020-04-23 08:24:45+00:00,2020-09-30 17:51:01,NEGATIVE
22910,62fa919b39fe7a3ec97460b5,Cecilia,Compton,977 Elm Dr,Camas, WA,98607.0,2019-11-16 17:29:57+00:00,2020-09-30 18:46:58,UNSURE
74020,62fa919b39fe7a3ec975285b,Kristina,Strickland,3285 Glen Ln,Seymour, IN,47274.0,2019-11-12 08:27:46+00:00,2020-09-30 19:03:25,DONOTCONTACT
29463,62fa919b39fe7a3ec9747a4e,Krystal,Grant,5342 6th Cv,Hixson, TN,37343.0,2019-08-02 23:25:59+00:00,2020-09-30 20:34:22,DONOTCONTACT
67618,62fa919b39fe7a3ec9750f59,Jamie,Cahill,9099 W Sharp Cv,Clearwater, FL,33756.0,2019-08-22 20:39:45+00:00,2020-09-30 21:47:20,UNSURE
23624,62fa919b39fe7a3ec974637f,Rene,Alexander,3971 Sharp Dr,New Philadelphia, OH,44663.0,2020-07-25 14:16:28+00:00,2020-09-30 22:24:01,NEGATIVE
73628,62fa919b39fe7a3ec97526d3,Jordan,Wade,7946 47th Cv,Ottawa, IL,61350.0,2019-08-02 12:31:09+00:00,2020-09-30 22:25:29,DONOTCONTACT
26699,62fa919b39fe7a3ec9746f82,Ernest,Cahill,9332 N Armstrong Blvd,Media, PA,19063.0,2019-10-16 18:14:59+00:00,2020-09-30 22:53:26,NEGATIVE
